status,id,name,address,latitude,longitude,region1,type_id,type_name,notes,product1,product2,product3,service1,service2,service3,service4,service5,region2,region3
Published,1576,7 Eleven Gaven,"1 Binstead Way, Pacific Pines, Queensland, Australia",-27.926,153.323755,Gold Coast,1,Standard retailer,,,,,,,,,,Gold Coast,
Published,644,7 Eleven Landmark Resort,"Shop 4 Landmark Resort, The Esplanade, Mooloolaba, Sunshine Coast",-26.680953,153.120477,Sunshine Coast,1,Standard retailer,,go card,,,Buy,Top up,Change expiry date,,,Sunshine Coast,
Published,1566,7 Eleven Maudsland,"141 Maudsland Road, Oxenford, Queensland, Australia",-27.913145,153.282808,,1,Standard retailer,,,,,,,,,,Gold Coast,
Draft,716,7 Eleven Noosa,"Shop 4, 50 Hastings Street, Noosa Heads, Queensland, Australia",-26.387332,153.091644,Sunshine Coast,1,Standard retailer,,go card,,,Buy,Top up,Change expiry date,,,,
Published,1571,7 Eleven North Lakes,"Flinders Parade, North Lakes, Queensland, Australia",-27.220542,152.999797,,1,Standard retailer,,,,,,,,,,Moreton Bay,
Draft,1581,7 Eleven Oxley,"2208 Ipswich Road, Oxley, Queensland, Australia",-27.567043,152.979294,Brisbane,1,Standard retailer,,,,,,,,,,Brisbane,
Published,711,7 Eleven Wurtulla,"1 Piringa Street, Wurtulla, Queensland, Australia",-26.759023,153.125012,Sunshine Coast,1,Standard retailer,,go card,,,Buy,Top up,Change expiry date,,,,
Published,18,7-Eleven 120 Edward Street Brisbane,"120 Edward Street, Brisbane , Brisbane Central",-27.4702,153.028,Brisbane Central,1,Standard retailer,,go card,,,Buy,Top up,Change expiry date,,,,
Published,19,7-Eleven 136 Queen Street Brisbane,"136 Queen Street (Cnr Albert and Burnett Lane), Brisbane , Brisbane Central",-27.4693,153.025,Brisbane Central,1,Standard retailer,,go card,,,Buy,Top up,Change expiry date,,,,
Published,20,7-Eleven 174 Adelaide Street Brisbane,"174 Adelaide Street, Brisbane , Brisbane Central",-27.4675,153.026,Brisbane Central,1,Standard retailer,,go card,,,Buy,Top up,Change expiry date,,,,
Published,21,7-Eleven 189 George Street Brisbane,"189 George Street, Brisbane , Brisbane Central",-27.4714,153.024,Brisbane Central,1,Standard retailer,,go card,,,Buy,Top up,Change expiry date,,,,
Published,22,7-Eleven 231 George Street Brisbane,"231 George Street, Brisbane , Brisbane Central",-27.4706,153.023,Brisbane Central,1,Standard retailer,,go card,,,Buy,Top up,Change expiry date,,,Brisbane,
Draft,23,7-Eleven 243 Edward Street Brisbane,"243 Edward Street, Brisbane , Brisbane Central",-27.4675,153.027,Brisbane Central,1,Standard retailer,,go card,,,Buy,Top up,Change expiry date,,,Brisbane,
Published,24,7-Eleven 324 Queen Street Brisbane,"324 Queen Street, Brisbane , Brisbane Central",-27.4668,153.029,Brisbane Central,1,Standard retailer,,go card,,,Buy,Top up,Change expiry date,,,Brisbane,
Published,25,7-Eleven 333 George Street Brisbane,"corner George and Turbot Streets, Brisbane , Brisbane Central",-27.4687,153.022,Brisbane Central,1,Standard retailer,,go card,,,Buy,Top up,Change expiry date,,,,
Published,697,7-Eleven Adelaide Street,"47 - 59 Adelaide Street, Brisbane , Brisbane Central",-27.46957,153.023727,Brisbane Central,1,Standard retailer,,go card,,,Buy,Top up,Change expiry date,,,,
Published,6,7-Eleven Albany Creek,"70 Albany Creek Road, Albany Creek, Brisbane North",-27.364,153.013,Brisbane North,1,Standard retailer,,go card,,,Buy,Top up,Change expiry date,,,,
Published,28,7-Eleven Albert Street Brisbane,"97 Albert Street, Brisbane , Brisbane Central",-27.4715,153.027,Brisbane Central,1,Standard retailer,,go card,,,Buy,Top up,Change expiry date,,,,
Published,3,7-Eleven Algester,"169 Algester Road, Algester, Brisbane South",-27.6125,153.039,Brisbane South,1,Standard retailer,,go card,,,Buy,Top up,Change expiry date,,,,
Published,1246,7-Eleven Ashgrove,"268 Waterworks Road, Ashgrove, Queensland, Australia",-27.446136,152.990995,,1,Standard retailer,,,,,,,,,,Brisbane,
Published,5,7-Eleven Ashmore,"400 Nerang Road, Southport, Queensland, Australia",-27.979071,153.379559,Gold Coast,1,Standard retailer,,go card,Gold Coast go explore card,,Buy,Top up,Change expiry date,,,Gold Coast,
Published,961,7-Eleven Ashmore,"579 Ashmore Road, Molendinar, Queensland, Australia",-27.984646,153.365587,,1,Standard retailer,,go card,Gold Coast go explore card,,Buy,Top up,Change expiry date,,,Gold Coast,
Published,1251,7-Eleven Aspley,"1429 Gympie Road, Aspley, Queensland, Australia",-27.358375,153.017324,,1,Standard retailer,,,,,,,,,,Brisbane,
Published,26,7-Eleven Aurora Brisbane,"420 Queen Street, corner Wharf Street, Brisbane , Brisbane Central",-27.4652,153.03,Brisbane Central,1,Standard retailer,,go card,,,Buy,Top up,Change expiry date,,,,
Archived,150,7-Eleven Australia Fair,"Australia Fair, Scarborough Street, Southport, Gold Coast",-27.9695,153.414,Gold Coast,1,Standard retailer,,go card,,,Buy,Top up,Change expiry date,,,Airlie Beach,
Published,8,7-Eleven Beenleigh,"2-6 City Road, Beenleigh, Southern",-27.7078,153.204,Southern,1,Standard retailer,,go card,,,Buy,Top up,Change expiry date,,,,
Published,1256,7-Eleven Bellbird Park,"354 Redbank Plains Road, Bellbird Park, Queensland, Australia",-27.645243,152.872206,,1,Standard retailer,,,,,,,,,,Brisbane,
Published,10,7-Eleven Birkdale,"Bailey Road, corner Birkdale Road, Birkdale, Eastern",-27.5095,153.206,Eastern,1,Standard retailer,,go card,,,Buy,Top up,Change expiry date,,,,
Draft,12,7-Eleven Boronia Heights,"Cnr Coronation Road and Middle Road, Boronia Heights, Southern",-27.678743,153.021835,Brisbane,1,Standard retailer,,go card,,,Buy,Top up,Change expiry date,,,Brisbane,
Published,14,7-Eleven Bracken Ridge,"Telegraph Road, corner Norris Road, Bracken Ridge, Brisbane North",-27.3307,153.026,Brisbane North,1,Standard retailer,,go card,,,Buy,Top up,Change expiry date,,,,
Published,15,7-Eleven Brassall,"21 Hunter Street, Brassall, Western",-27.5938,152.746,Western,1,Standard retailer,,go card,,,Buy,Top up,Change expiry date,,,,
Published,16,7-Eleven Bray Park,"Samsonvale Road, corner Old North Road, Bray Park (Moreton Bay Regional), Northern",-27.2915,152.953,Northern,1,Standard retailer,,go card,,,Buy,Top up,Change expiry date,,,,
Published,911,7-Eleven Broadbeach,"34 Hooker Boulevard, Broadbeach, Queensland, Australia",-28.035402,153.425076,,1,Standard retailer,,go card,Gold Coast go explore card,,Buy,Top up,Change expiry date,,,Gold Coast,
Published,56,7-Eleven Browns Plains,"264-266 Browns Plains Road, Browns Plains, Brisbane South",-27.6639,153.063,Brisbane South,1,Standard retailer,,go card,,,Buy,Top up,Change expiry date,,,,
Published,1261,7-Eleven Browns Plains,"267-273 Browns Plains Road, Crestmead, Queensland, Australia",-27.664117,153.061427,,1,Standard retailer,,,,,,,,,,Brisbane,
Published,1276,7-Eleven Brunswick Street Mall,"281 Brunswick Street, Fortitude Valley, Queensland, Australia",-27.457771,153.033842,,1,Standard retailer,,,,,,,,,,Brisbane,
Published,991,7-Eleven Burleigh Central,"11 Connor Street, Burleigh Heads, Queensland, Australia",-28.088982,153.451783,,1,Standard retailer,,go card,Gold Coast go explore card,,Buy,Top up,Change expiry date,,,Gold Coast,
Published,58,7-Eleven Burleigh Heads,"Gold Coast Highway, corner Fifth Avenue, Burleigh Heads, Gold Coast",-28.078462,153.446451,Gold Coast,1,Standard retailer,,go card,Gold Coast go explore card,,Buy,Top up,Change expiry date,,,Gold Coast,
Published,64,7-Eleven Carina,"1505 Creek Road, Carina, Brisbane East",-27.4877,153.1,Brisbane,1,Standard retailer,,go card,,,Buy,Top up,Change expiry date,,,Brisbane,
Published,69,7-Eleven Clontarf,"9 Elizabeth Avenue, Clontarf (Moreton Bay Regional), Northern",-27.2609,153.08,Northern,1,Standard retailer,,go card,,,Buy,Top up,Change expiry date,,,,
Published,70,7-Eleven Coolangatta,"18 Griffith Street, Coolangatta (Gold Coast City), Gold Coast",-28.16833,153.536129,Gold Coast,1,Standard retailer,,go card,Gold Coast go explore card,,Buy,Top up,Change expiry date,,,Gold Coast,
Published,871,7-Eleven Coolangatta South,"Reflection Tower Two, Marine Parade, Coolangatta, Queensland, Australia",-28.168261,153.541951,,1,Standard retailer,,go card,Gold Coast go explore card,,Buy,Top up,Change expiry date,,,Gold Coast,
Published,1266,7-Eleven Coolum,"1796-1800 David Low Way, Coolum Beach, Queensland, Australia",-26.529825,153.090858,,1,Standard retailer,,,,,,,,,,Sunshine Coast,
Published,971,7-Eleven Coomera,"Dreamworld Parkway, Coomera, Queensland, Australia",-27.868739,153.314545,,1,Standard retailer,,go card,Gold Coast go explore card,,Buy,Top up,Change expiry date,,,Gold Coast,
Published,71,7-Eleven Coopers Plains,"129 Orange Grove Road, Coopers Plains, Brisbane South",-27.5639,153.04,Brisbane South,1,Standard retailer,,go card,,,Buy,Top up,Change expiry date,,,,
Published,29,7-Eleven Creek Street Brisbane,"99 Creek Street, Brisbane , Brisbane Central",-27.4662,153.028,Brisbane Central,1,Standard retailer,,go card,,,Buy,Top up,Change expiry date,,,,
Published,75,7-Eleven Deagon,"11 Depot Road, Deagon, Brisbane North",-27.3284,153.054,Brisbane North,1,Standard retailer,,go card,,,Buy,Top up,Change expiry date,,,,
Published,1621,7-Eleven Deception Bay,"1 Baylink Avenue, Deception Bay, QLD, 4508, Australia",-27.196441,153.014624,Brisbane,1,Standard retailer,,,,,,,,,,Brisbane,
Published,76,7-Eleven Dinmore,"29-31 Brisbane Road, Dinmore, Western",-27.5979,152.832,Western,1,Standard retailer,,go card,,,Buy,Top up,Change expiry date,,,,
Published,77,7-Eleven Durack,"14 Rosemary Street, Durack, Brisbane South",-27.5792,152.975,Brisbane South,1,Standard retailer,,go card,,,Buy,Top up,Change expiry date,,,,
Published,79,7-Eleven East Beenleigh,"79 Logan River Road, East Beenleigh, Southern",-27.7134,153.185,Southern,1,Standard retailer,,go card,,,Buy,Top up,Change expiry date,,,,
Published,80,7-Eleven East Brisbane,"508 Vulture Street, East Brisbane, Brisbane East",-27.4847,153.039,Brisbane East,1,Standard retailer,,go card,,,Buy,Top up,Change expiry date,,,,
Published,1271,7-Eleven Eatons Hill,"2-4 Bunya Park Drive, Eatons Hill, Queensland, Australia",-27.337817,152.96021,,1,Standard retailer,,,,,,,,,,Brisbane,
Published,81,7-Eleven Fairfield Gardens,"180 Fairfield Road, Fairfield Gardens, Brisbane South",-27.509,153.026,Brisbane South,1,Standard retailer,,go card,,,Buy,Top up,Change expiry date,,,,
Published,84,7-Eleven Fortitude Valley,"376 Brunswick Street, Fortitude Valley, Brisbane Central",-27.4589,153.036,Brisbane Central,1,Standard retailer,,go card,,,Buy,Top up,Change expiry date,,,,
Published,1286,7-Eleven Gaven,"1 Binstead Way, Pacific Pines, Queensland, Australia",-27.926171,153.323605,,1,Standard retailer,,,,,,,,,,Brisbane,
Published,86,7-Eleven Graceville,"246 Oxley Road, Graceville, Brisbane South",-27.5219,152.98,Brisbane South,1,Standard retailer,,go card,,,Buy,Top up,Change expiry date,,,,
Published,87,7-Eleven Grange,"Days Road, corner Kedron Brook Road, Grange, Brisbane North",-27.4266,153.019,Brisbane North,1,Standard retailer,,go card,,,Buy,Top up,Change expiry date,,,,
Published,1291,7-Eleven Greenslopes,"99 Juliette Street and Earl Street, Greenslopes, Queensland, Australia",-27.504502,153.040492,,1,Standard retailer,,,,,,,,,,Brisbane,
Published,89,7-Eleven Hamilton,"Kingsford Smith Drive, corner and Racecourse Road, Hamilton, Brisbane North",-27.441,153.046,Brisbane North,1,Standard retailer,,go card,,,Buy,Top up,Change expiry date,,,,
Published,93,7-Eleven Heritage Park,"118 Waller Road, Heritage Park, Southern",-27.6734,153.053,Southern,1,Standard retailer,,go card,,,Buy,Top up,Change expiry date,,,,
Published,95,7-Eleven Hope Island,"341 Southport-Oxenford Road, Hope Island, Gold Coast",-27.880533,153.334068,Gold Coast,1,Standard retailer,,go card,Gold Coast go explore card,,Buy,Top up,Change expiry date,,,Gold Coast,
Published,976,7-Eleven Hope Island,"87-91 Broadwater Avenue, Hope Island, Queensland, Australia",-27.878307,153.365036,,1,Standard retailer,,go card,Gold Coast go explore card,,Buy,Top up,Change expiry date,,,Gold Coast,
Published,97,7-Eleven Indooroopilly,"14 Station Road, Indooroopilly, Brisbane West",-27.5026,152.975,Brisbane West,1,Standard retailer,,go card,,,Buy,Top up,Change expiry date,,,,
Published,100,7-Eleven Jindalee,"721 Seventeen Mile Rock Road, Jindalee, Brisbane West",-27.5373,152.95,Brisbane West,1,Standard retailer,,go card,,,Buy,Top up,Change expiry date,,,,
Published,101,7-Eleven Kedron,"Cnr Gympie Road and Nundah Street, Kedron, Brisbane North",-27.4008,153.032,Brisbane North,1,Standard retailer,,go card,,,Buy,Top up,Change expiry date,,,,
Published,103,7-Eleven Kenmore,"2058-2062 Moggill Road, Kenmore, Brisbane West",-27.5102,152.938,Brisbane West,1,Standard retailer,,go card,,,Buy,Top up,Change expiry date,,,,
Published,558,7-Eleven Kensington Hills,"1 Sovereign Avenue, Bray Park (Moreton Bay Regional), Northern",-27.2971,152.975,Northern,1,Standard retailer,,go card,,,Buy,Top up,Change expiry date,,,,
Published,105,7-Eleven Kingston,"Kingston Road, corner Wanda Street, Kingston",-27.6449,153.118,South East Queensland,1,Standard retailer,,go card,,,Buy,Top up,Change expiry date,,,South East Queensland,
Draft,1626,7-Eleven Kingston South,"2 Juers Street, Kingston, Queensland, Australia",-27.660196,153.11775,South East Queensland,1,Standard retailer,,,,,,,,,,South East Queensland,
Published,106,7-Eleven Kirra,"Kirra Beach Plaza, Musgrave Road, corner Douglas Road, Kirra, Gold Coast",-28.1678,153.528,Gold Coast,1,Standard retailer,,go card,Gold Coast go explore card,,Buy,Top up,Change expiry date,,,Gold Coast,
Published,107,7-Eleven Labrador,"78-84 Frank Street, Labrador, Gold Coast",-27.9487,153.408,Gold Coast,1,Standard retailer,,go card,Gold Coast go explore card,,Buy,Top up,Change expiry date,,,Gold Coast,
Published,108,7-Eleven Logan City,"120 Wembley Road, Logan City, Southern",-27.6413,153.107,Southern,1,Standard retailer,,go card,,,Buy,Top up,Change expiry date,,,,
Published,109,7-Eleven Lutwyche,"446 Lutwyche Road, Lutwyche, Brisbane North",-27.4247,153.033,Brisbane North,1,Standard retailer,,go card,,,Buy,Top up,Change expiry date,,,,
Published,1316,7-Eleven Lytton Road,"887 Lytton Road, Murarrie, Queensland, Australia",-27.456767,153.105673,,1,Standard retailer,,,,,,,,,,Brisbane,
Published,110,7-Eleven Mackenzie,"902 Mt Gravatt-Capalaba Road, Mackenzie (Brisbane City), Eastern",-27.5459,153.123,Eastern,1,Standard retailer,,go card,,,Buy,Top up,Change expiry date,,,,
Published,866,7-Eleven Main Beach,"3568 Main Beach Parade, Main Beach, Queensland, Australia",-27.979743,153.42891,,1,Standard retailer,,go card,Gold Coast go explore card,,Buy,Top up,Change expiry date,,,Gold Coast,
Published,113,7-Eleven Manly West,"459 Manly Road, Manly West, Eastern",-27.4755,153.166,Eastern,1,Standard retailer,,go card,,,Buy,Top up,Change expiry date,,,,
Published,114,7-Eleven Marcoola,"946-948 David Low Way, Marcoola, Sunshine Coast",-26.6007,153.096,Sunshine Coast,1,Standard retailer,,go card,,,Buy,Top up,Change expiry date,,,,
Published,115,7-Eleven Maroochydore,"Aerodrome Road, corner Wirraway Street, Maroochydore, Sunshine Coast",-26.6624,153.105,Sunshine Coast,1,Standard retailer,,go card,,,Buy,Top up,Change expiry date,,,,
Published,117,7-Eleven Maroochydore North,"53 Aerodrome Road, Maroochydore, Sunshine Coast",-26.6605,153.1,Sunshine Coast,1,Standard retailer,,go card,,,Buy,Top up,Change expiry date,,,,
Published,1296,7-Eleven Marsden,"Tamarind Street, Marsden, Queensland, Australia",-27.680633,153.11473,,1,Standard retailer,,,,,,,,,,Brisbane,
Published,118,7-Eleven Mermaid Waters,"1 Lakeview Boulevard, Mermaid Waters, Queensland, Australia",-28.040189,153.408303,Gold Coast,1,Standard retailer,,go card,Gold Coast go explore card,,Buy,Top up,Change expiry date,,,Gold Coast,
Published,121,7-Eleven Mooloolaba,"85 The Esplanade, Mooloolaba, Sunshine Coast",-26.6841,153.125,Sunshine Coast,1,Standard retailer,,go card,,,Buy,Top up,Change expiry date,,,,
Published,1306,7-Eleven Moorvale,"841 Ipswich Road, Moorooka, Queensland, Australia",-27.523933,153.02343,,1,Standard retailer,,,,,,,,,,Brisbane,
Published,122,7-Eleven Morayfield,"272 Morayfield Road, Morayfield, Northern",-27.1123,152.951,Northern,1,Standard retailer,,go card,,,Buy,Top up,Change expiry date,,,,
Published,1311,7-Eleven Mt Gravatt East,"318 Creek Road, Mount Gravatt East, Queensland, Australia",-27.531895,153.09351,,1,Standard retailer,,,,,,,,,,Brisbane,
Published,124,7-Eleven Murrumba Downs,"9 Blyth Road, Murrumba Downs, Northern",-27.2732,153.015,Northern,1,Standard retailer,,go card,,,Buy,Top up,Change expiry date,,,,
Archived,27,7-Eleven Myer Centre Brisbane,"91 Queen Street, Brisbane , Brisbane Central",-27.4703,153.025,Brisbane Central,1,Standard retailer,,go card,,,Buy,Top up,Change expiry date,,,Airlie Beach,
Published,1321,7-Eleven Nambour,"922 Nambour Connection Road, Nambour, Queensland, Australia",-26.616492,152.969461,,1,Standard retailer,,,,,,,,,,Sunshine Coast,
Published,936,7-Eleven Nerang,"70 Beaudesert-Nerang Road, Nerang, Queensland, Australia",-27.993062,153.333025,,1,Standard retailer,,go card,Gold Coast go explore card,,Buy,Top up,Change expiry date,,,Gold Coast,
Published,128,7-Eleven New Farm,"79 Merthyr Road, New Farm, Brisbane Central",-27.4674,153.046,Brisbane Central,1,Standard retailer,,go card,,,Buy,Top up,Change expiry date,,,,
Published,1326,7-Eleven Newmarket,"85 Enoggera Road, Newmarket, Queensland, Australia",-27.438633,153.007559,,1,Standard retailer,,,,,,,,,,Brisbane,
Published,1331,7-Eleven Ningi,"1102 Bribie Island Road, Ningi, Queensland, Australia",-27.061943,153.079498,,1,Standard retailer,,,,,,,,,,Redlands,
Published,129,7-Eleven Noosa,"91-97 Noosa Drive, Noosa Heads, Sunshine Coast",-26.3971,153.088,Sunshine Coast,1,Standard retailer,,go card,,,Buy,Top up,Change expiry date,,,,
Published,164,7-Eleven Orchid Avenue Surfers Paradise,"7a Cavill Court, Orchid Avenue, Surfers Paradise, Gold Coast",-28.001777,153.429638,Gold Coast,1,Standard retailer,,go card,Gold Coast go explore card,,Buy,Top up,Change expiry date,,,Gold Coast,
Published,1646,7-Eleven Ormeau,"7 Eggersdorf Road, Ormeau, Queensland, Australia",-27.78611,153.258136,Brisbane,1,Standard retailer,,,,,,,,,,Brisbane,
Published,132,7-Eleven Oxenford,"170 Old Pacific Highway, Oxenford, Gold Coast",-27.885812,153.313517,Gold Coast,1,Standard retailer,,go card,Gold Coast go explore card,,Buy,Top up,Change expiry date,,,Gold Coast,
Published,861,7-Eleven Pacific Pines,"31 Pitcairn Way, Pacific Pines, Queensland, Australia",-27.946272,153.321239,,1,Standard retailer,,go card,Gold Coast go explore card,,Buy,Top up,Change expiry date,,,Gold Coast,
Published,986,7-Eleven Palm Beach,"1186 Gold Coast Highway, Palm Beach, Queensland, Australia",-28.118114,153.47051,,1,Standard retailer,,go card,Gold Coast go explore card,,Buy,Top up,Change expiry date,,,Gold Coast,
Published,135,7-Eleven Palm Beach North,"1346-1354 Gold Coast Highway, Palm Beach North, Palm Beach, Gold Coast",-28.109083,153.465528,Gold Coast,1,Standard retailer,,go card,Gold Coast go explore card,,Buy,Top up,Change expiry date,,,Gold Coast,
Published,137,7-Eleven Parkwood,"236 Napper Road, Parkwood, Gold Coast",-27.947034,153.350839,Gold Coast,1,Standard retailer,,go card,Gold Coast go explore card,,Buy,Top up,Change expiry date,,,Gold Coast,
Published,856,7-Eleven Pegasus,"2669 Gold Coast Highway, Broadbeach, Queensland, Australia",-28.031868,153.430727,,1,Standard retailer,,go card,Gold Coast go explore card,,Buy,Top up,Change expiry date,,,Gold Coast,
Published,55,7-Eleven Phoenician Broadbeach,"The Phoenician, 90 Surf Parade, Broadbeach, Gold Coast",-28.027816,153.43085,Gold Coast,1,Standard retailer,,go card,Gold Coast go explore card,,Buy,Top up,Change expiry date,,,Gold Coast,
Published,1336,7-Eleven Raceview,"59-63 Raceview Street, Raceview, Queensland, Australia",-27.634837,152.774425,,1,Standard retailer,,,,,,,,,,Gold Coast,
Published,1346,7-Eleven Rangeville,"85 Perth Street, South Toowoomba, Queensland, Australia",-27.57471,151.968969,,1,Standard retailer,,,,,,,,,,Toowoomba,
Published,138,7-Eleven Red Hill,"152 Musgrave Road, Red Hill (Brisbane City), Brisbane North",-27.4554,153.007,Brisbane North,1,Standard retailer,,go card,,,Buy,Top up,Change expiry date,,,,
Published,1341,7-eleven Red Hill,"152 Musgrave Road, Red Hill, Queensland, Australia",-27.455465,153.006742,,1,Standard retailer,,,,,,,,,,Brisbane,
Published,139,7-Eleven Redbank Plains,"355 Redbanks Plains Road, Redbank Plains, Western",-27.6449,152.871,Western,1,Standard retailer,,go card,,,Buy,Top up,Change expiry date,,,,
Published,140,7-Eleven Redcliffe,"77 Anzac Avenue, Redcliffe, Northern",-27.2305,153.109,Northern,1,Standard retailer,,go card,,,Buy,Top up,Change expiry date,,,,
Published,1351,7-Eleven Richlands,"208 Progress Road, Richlands, Queensland, Australia",-27.597943,152.949775,,1,Standard retailer,,,,,,,,,,Brisbane,
Published,142,7-Eleven Riverhills,"Sumners Road, corner Wacol Station Road, Riverhills, Western",-27.5622,152.922,Western,1,Standard retailer,,go card,,,Buy,Top up,Change expiry date,,,,
Published,921,7-Eleven Robina,"48-56 Commerce Drive, Robina, Queensland, Australia",-28.065476,153.403905,,1,Standard retailer,,go card,Gold Coast go explore card,,Buy,Top up,Change expiry date,,,Gold Coast,
Published,981,7-Eleven Robina,"253 Scottsdale Drive, Robina, Queensland, Australia",-28.090215,153.390741,,1,Standard retailer,,go card,Gold Coast go explore card,,Buy,Top up,Change expiry date,,,Gold Coast,
Published,896,7-Eleven Runaway Bay,"20 Bayview Street, Runaway Bay, Queensland, Australia",-27.923565,153.403764,,1,Standard retailer,,go card,Gold Coast go explore card,,Buy,Top up,Change expiry date,,,Gold Coast,
Published,1301,7-Eleven Sanctuary Cove,"87-91 Broadwater Avenue, Hope Island, Queensland, Australia",-27.878122,153.366608,,1,Standard retailer,,,,,,,,,,Gold Coast,
Published,1356,7-Eleven Sandgate,"86 Rainbow Street, Sandgate, Queensland, Australia",-27.32111,153.068175,Brisbane,1,Standard retailer,,,,,,,,,,Brisbane,
Published,146,7-Eleven Silkstone,"Blackstone Road, corner South Station Road, Silkstone, Western",-27.6109,152.79,Western,1,Standard retailer,,go card,,,Buy,Top up,Change expiry date,,,,
Published,573,7-Eleven Southbank TAFE,"Southbank TAFE, 5/97 Merivale Street, South Brisbane, Brisbane Central",-27.4797,153.019,Brisbane Central,1,Standard retailer,,go card,,,Buy,Top up,Change expiry date,,,,
Published,966,7-Eleven Southport,"138 Slatyer Avenue, Ashmore, Queensland, Australia",-27.996317,153.39985,,1,Standard retailer,,go card,Gold Coast go explore card,,Buy,Top up,Change expiry date,,,Gold Coast,
Published,152,7-Eleven Spring Hill,"170 Leichhardt Street, Spring Hill, Brisbane North",-27.462,153.026,Brisbane North,1,Standard retailer,,go card,,,Buy,Top up,Change expiry date,,,,
Archived,154,7-Eleven Springwood,"Springwood Street, corner Pannikin Street, Springwood, Southern",-27.61,153.124,Southern,1,Standard retailer,,go card,,,Buy,Top up,Change expiry date,,,Airlie Beach,
Published,1361,7-Eleven Springwood,"Cinderella Drive, Springwood, Queensland, Australia",-27.60946,153.124547,,1,Standard retailer,,,,,,,,,,Logan,
Published,1366,7-Eleven Strathpine,"Strathpine Shopping Centre, Strathpine, Queensland, Australia",-27.307691,152.990456,,1,Standard retailer,,,,,,,,,,Brisbane,
Published,160,7-Eleven Sunnybank,"82 Pinelands Road, Sunnybank, Brisbane South",-27.5915,153.06,Brisbane South,1,Standard retailer,,go card,,,Buy,Top up,Change expiry date,,,,
Published,162,7-Eleven Sunnybank Hills,"Compton Road, corner Gowan Road, Sunnybank Hills, Brisbane South",-27.6112,153.063,Brisbane South,1,Standard retailer,,go card,,,Buy,Top up,Change expiry date,,,,
Published,161,7-Eleven Sunnybank Market Square,"Mains Road, corner McCulloch Street, Sunnybank, Brisbane South",-27.572561,153.065223,Brisbane,1,Standard retailer,,go card,,,Buy,Top up,Change expiry date,,,Brisbane,
Published,163,7-Eleven Surfers Paradise,"3187 Gold Coast Highway, Surfers Paradise, Gold Coast",-27.999044,153.428716,Gold Coast,1,Standard retailer,,go card,Gold Coast go explore card,,Buy,Top up,Change expiry date,,,Gold Coast,
Published,996,7-Eleven Surfers Paradise,"3187 Surfers Paradise Boulevard, Surfers Paradise, Queensland, Australia",-27.999151,153.428591,,1,Standard retailer,,go card,Gold Coast go explore card,,Buy,Top up,Change expiry date,,,Gold Coast,
Published,1641,7-Eleven Taigum,"377 Handford Road, Taigum, Queensland, Australia",-27.342044,153.041343,Brisbane,1,Standard retailer,,,,,,,,,,Brisbane,
Published,1371,7-Eleven The Gap,"1121 Waterworks Road, The Gap, Queensland, Australia",-27.44285,152.943656,,1,Standard retailer,,,,,,,,,,Brisbane,
Published,165,7-Eleven The Paradise Centre Surfers Paradise,"The Paradise Centre, Cavill Avenue, Surfers Paradise, Gold Coast",-28.00215,153.429242,Gold Coast,1,Standard retailer,,go card,Gold Coast go explore card,,Buy,Top up,Change expiry date,,,Gold Coast,
Published,167,7-Eleven Toowong,"50 Sherwood Road, Toowong, Brisbane West",-27.4857,152.991,Brisbane West,1,Standard retailer,,go card,,,Buy,Top up,Change expiry date,,,,
Published,1376,7-Eleven Toowoomba,"328 - 330 James Street, South Toowoomba, Queensland, Australia",-27.566231,151.930743,,1,Standard retailer,,,,,,,,,,Brisbane,
Published,1381,7-Eleven Toowoomba East,"221 Ruthven Street, North Toowoomba, Queensland, Australia",-27.550683,151.954786,,1,Standard retailer,,,,,,,,,,Toowoomba,
Published,30,7-Eleven Transit Centre,"458 George Street, Brisbane , Brisbane Central",-27.467361,153.019897,Brisbane Central,1,Standard retailer,,go card,,,Buy,Top up,Change expiry date,,,,
Published,881,7-Eleven Tweed Heads South,"112 Minjungbal Drive, Tweed Heads South, New South Wales, Australia",-28.207807,153.545211,,1,Standard retailer,,go card,Gold Coast go explore card,,Buy,Top up,Change expiry date,,,Gold Coast,
Published,1281,7-Eleven Valley Metro,"230 Brunswick Street, Fortitude Valley, Queensland, Australia",-27.45679,153.033095,,1,Standard retailer,,,,,,,,,,Brisbane,
Published,1386,7-Eleven Victoria Point,"439 Cleveland-Redland Bay Road, Thornlands, Queensland, Australia",-27.584466,153.280957,,1,Standard retailer,,,,,,,,,,Redlands,
Published,1396,7-Eleven Vulture Street,"82 Vulture Street, West End, Queensland, Australia",-27.48086,153.01192,,1,Standard retailer,,,,,,,,,,Brisbane,
Published,171,7-Eleven Warana,"Nicklin Way, corner Aquatic Drive, Warana, Sunshine Coast",-26.7197,153.13,Sunshine Coast,1,Standard retailer,,go card,,,Buy,Top up,Change expiry date,,,,
Published,1391,7-Eleven Warner,"Old North Road, Warner, Queensland, Australia",-27.310447,152.962742,,1,Standard retailer,,,,,,,,,,Brisbane,
Published,172,7-Eleven West End,"94 Boundary Street, West End (Brisbane City), Brisbane South",-27.4786,153.013,Brisbane South,1,Standard retailer,,go card,,,Buy,Top up,Change expiry date,,,,
Published,174,7-Eleven Windaroo,"159-163 Beenleigh-Beaudesert Road, Windaroo, Southern",-27.7444,153.187,Southern,1,Standard retailer,,go card,,,Buy,Top up,Change expiry date,,,,
Published,175,7-Eleven Wishart,"Mt Gravatt-Capalaba Road, corner Newnham Road, Wishart, Brisbane South",-27.5559,153.09,Brisbane South,1,Standard retailer,,go card,,,Buy,Top up,Change expiry date,,,,
Published,176,7-Eleven Woodridge,"Compton Road, corner North Road, Woodridge, Southern",-27.6187,153.105,Southern,1,Standard retailer,,go card,,,Buy,Top up,Change expiry date,,,,
Published,1401,7-Eleven Woodridge,"Kingston Road, Slacks Creek, Queensland, Australia",-27.620445,153.115424,,1,Standard retailer,,,,,,,,,,Brisbane,
Published,179,7-Eleven Wynnum,"Edith Road, corner Tingal Road, Wynnum, Eastern",-27.4462,153.172,Eastern,1,Standard retailer,,go card,,,Buy,Top up,Change expiry date,,,,
Published,180,7-Eleven Yamanto,"130 Ash Street, corner Astral Court, Yamanto, Western",-27.6547,152.754,Western,1,Standard retailer,,go card,,,Buy,Top up,Change expiry date,,,,
Published,181,7-Eleven Yeronga,"563 Fairfield Road, Yeronga, Brisbane South",-27.5195,153.015,Brisbane South,1,Standard retailer,,go card,,,Buy,Top up,Change expiry date,,,,
Published,182,7-Eleven Zillmere,"Zillmere Road, corner Handford Road, Zillmere, Brisbane North",-27.3595,153.038,Brisbane North,1,Standard retailer,,go card,,,Buy,Top up,Change expiry date,,,,
Published,412,Airtrain Domestic Terminal (Brisbane Airport),"Airport Drive, Airport (Brisbane), Brisbane East",-27.3852,153.119,Brisbane,1,Standard retailer,,go card,SEEQ card,Visitor Information Pack,Buy,Top up,Refund,Change expiry date,,Brisbane,
Published,413,Airtrain International Terminal (Brisbane Airport),"Airport Drive, Airport (Brisbane), Brisbane East",-27.403,153.109,Brisbane,1,Standard retailer,,go card,SEEQ card,Visitor Information Pack,Buy,Top up,Refund,Change expiry date,,Brisbane,
Archived,31,Albert Street News,"80 Albert Street, Brisbane , Brisbane Central",-27.4721,153.028,Brisbane Central,1,Standard retailer,,go card,,,Buy,Top up,Change expiry date,,,,
Published,2,Albion Station,"49 Albion Road, Albion, Brisbane North",-27.429438,153.040021,Brisbane North,5,Rail fare machine,,go card,,,Buy,Top up,Register,Refund,Change expiry date,Brisbane,
Published,196,Albion Station,"49 Albion Road, Albion, Brisbane North",-27.429409,153.040021,Brisbane North,6,Rail ticket office,,,,,Top up,,,,,Brisbane,
Published,534,Alderley Licensed Post Office,"19 Samford Road, Alderley, Queensland, Australia",-27.424959,153.000265,Brisbane North,1,Standard retailer,,go card,,,Buy,,,,,,
Published,391,Alderley Station,"Railway Place, Alderley, Brisbane North",-27.423443,153.000987,Brisbane North,5,Rail fare machine,,go card,,,Buy,Top up,Register,Refund,Change expiry date,Brisbane,
Published,197,Alderley Station,"Railway Place, Alderley, Brisbane North",-27.423433,153.000987,Brisbane North,6,Rail ticket office,,,,,Top up,,,,,Brisbane,
Published,650,Alexpress Mart,"98-110 Alexandra Parade, Alexandra Headland, Sunshine Coast",-26.66553,153.105607,Sunshine Coast,1,Standard retailer,,go card,,,Buy,,,,,,
Published,392,Altandi Station,"125 Mains Road, Sunnybank, Brisbane South",-27.58269,153.063397,Brisbane South,5,Rail fare machine,,go card,,,Buy,Top up,Register,Refund,Change expiry date,Brisbane,
Published,198,Altandi Station,"125 Mains Road, Sunnybank, Brisbane South",-27.582671,153.063376,Brisbane South,6,Rail ticket office,,,,,Top up,,,,,Brisbane,
Published,1006,Aquarius Backpackers,"44 Queen Street, Southport, Queensland, Australia",-27.973494,153.415458,,2,Preloaded reseller,,Gold Coast go explore card,,,Buy,,,,,Gold Coast,
Published,726,Ascot News,"3/71 Racecourse Road, Ascot, Queensland, Australia",-27.436058,153.064916,Brisbane North,1,Standard retailer,,go card,,,Buy,,,,,Brisbane,
Published,199,Ascot Station,"McGill Avenue, Ascot (Brisbane City), Brisbane North",-27.429214,153.063238,Brisbane North,6,Rail ticket office,,,,,Top up,,,,,Brisbane,
Published,4,Ashgrove News,"Ashgrove Shopping Centre, 16 Ashgrove Avenue, Ashgrove, Brisbane North",-27.4447,152.994,Brisbane North,1,Standard retailer,,go card,,,Buy,Top up,Change expiry date,,,,
Published,701,Ashmore City News,"Shop 10, Ashmore City Shopping Centre, Southport-Nerang and Currumburra Roads, Ashmore, Gold Coast",-27.977936,153.38047,Gold Coast,1,Standard retailer,,go card,,,Buy,,,,,,
Published,1166,Ashmore Newsextra,"160 Cotlew Street, Ashmore, Queensland, Australia",-27.9871,153.383257,,2,Preloaded reseller,,go card,Gold Coast go explore card,,Buy,,,,,Gold Coast,
Published,601,Aspley Bus Interchange,"Pick n Pay Hypermarket, Albany Creek Rd, Aspley, Brisbane North",-27.363956,153.012848,Brisbane North,4,Bus fare machine,,go card,,,Buy,Top up,,,,,
Published,373,Auchenflower Station,"Auchenflower Terrace, Auchenflower , Brisbane West",-27.476547,152.996732,Brisbane West,5,Rail fare machine,,go card,,,Buy,Top up,Register,Refund,Change expiry date,Brisbane,
Published,200,Auchenflower Station,"Auchenflower Terrace, Auchenflower, Brisbane West",-27.476557,152.996743,Brisbane West,6,Rail ticket office,,,,,Top up,,,,,Brisbane,
Published,671,Australia Fair News,"Shop G112 Australia Fair Shopping Centre, Marine Parade, Southport, Gold Coast",-27.968746,153.415815,Gold Coast,1,Standard retailer,,go card,Gold Coast go explore card,,Buy,Top up,Register,Refund,Change expiry date,Gold Coast,
Published,1671,Australia Post Office Coopers Plains,"896 Boundary Road, Coopers Plains, QLD, 4108, Australia",-27.569609,153.036245,Brisbane,2,Preloaded reseller,,,,,,,,,,Brisbane,
Published,377,Bald Hills Station,"Cullimore Street, Bald Hills, Brisbane North",-27.321372,153.011644,Brisbane North,5,Rail fare machine,,go card,,,Buy,Top up,Register,Refund,Change expiry date,Brisbane,
Published,201,Bald Hills Station,"Cullimore Street, Bald Hills, Brisbane North",-27.321362,153.011654,Brisbane North,6,Rail ticket office,,,,,Top up,,,,,Brisbane,
Published,390,Banoon Station,"82 Breton Street, Sunnybank, Brisbane South",-27.576024,153.046161,Brisbane South,5,Rail fare machine,,go card,,,Buy,Top up,Register,Refund,Change expiry date,Brisbane,
Published,202,Banoon Station,"82 Breton Street, Sunnybank, Brisbane South",-27.576019,153.046177,Brisbane South,6,Rail ticket office,,,,,Top up,,,,,Brisbane,
Published,194,Banyo News and Officesmart,"276 St Vincents Road, Banyo, Brisbane North",-27.3749,153.077,Brisbane North,1,Standard retailer,,go card,,,Buy,,,,,,
Published,203,Banyo Station,"268 St Vincents Road, Banyo, Brisbane North",-27.374986,153.077279,Brisbane North,5,Rail fare machine,,,,,Top up,,,,,Brisbane,
Published,570,Banyo Station,"268 St Vincents Road, Banyo, Brisbane North",-27.374995,153.077268,Brisbane North,6,Rail ticket office,,go card,,,Buy,Top up,Register,Refund,Change expiry date,Brisbane,
Published,1086,Baronnet Apartments,"12 Enderley Avenue, Surfers Paradise, Queensland, Australia",-28.009103,153.430639,,2,Preloaded reseller,,Gold Coast go explore card,,,Buy,,,,,Gold Coast,
Published,696,Bay Island Transit Ticket Office,"Weinam Creek Marina, Banana St, Redland Bay, Eastern",-27.615168,153.308834,Eastern,1,Standard retailer,,go card,SEEQ card,,Buy,Top up,Refund,Change expiry date,,Moreton Bay,
Published,1011,Bay Lodge Apartments,"35 Palm Avenue, Surfers Paradise, Queensland, Australia",-27.995222,153.426284,,2,Preloaded reseller,,Gold Coast go explore card,,,Buy,,,,,Gold Coast,
Published,816,Beaudesert News,"97 Brisbane Street, Beaudesert, Queensland, Australia",-27.98768,152.995942,,1,Standard retailer,,go card,,,Buy,,,,,Brisbane,
Published,204,Beenleigh Station,"Alamein Street, Beenleigh, Southern",-27.717115,153.204236,Southern,5,Rail fare machine,,,,,Top up,,,,,Logan,
Published,9,Beenleigh Station,"Alamein Street, Beenleigh, Southern",-27.717125,153.204215,Southern,6,Rail ticket office,,go card,,,Buy,Top up,Register,Refund,Change expiry date,Logan,
Published,205,Beerburrum Station,"Church Street, Beerburrum, Northern",-26.959839,152.959021,Northern,6,Rail ticket office,,,,,Top up,,,,,Sunshine Coast,
Published,408,Beerwah Station,"Beerwah Parade, Beerwah, Northern",-26.857889,152.958349,Northern,5,Rail fare machine,,go card,,,Buy,Top up,Register,Refund,Change expiry date,Sunshine Coast,
Published,206,Beerwah Station,"Beerwah Parade, Beerwah, Northern",-26.857894,152.958386,Northern,6,Rail ticket office,,,,,Top up,,,,,Sunshine Coast,
Archived,339,Belvedere News,"4 Diamond Street, Cooroy, Sunshine Coast",-26.4171,152.912,Sunshine Coast,1,Standard retailer,,go card,,,Buy,,,,,,
Published,409,Bethania Station,"Station Road, Bethania, Southern",-27.688452,153.158762,Southern,5,Rail fare machine,,go card,,,Buy,Top up,Register,Refund,Change expiry date,Logan,
Published,207,Bethania Station,"Station Road, Bethania, Southern",-27.688471,153.158762,Southern,6,Rail ticket office,,,,,Top up,,,,,Logan,
Published,208,Bindha Station,"Park Street, Banyo, Brisbane North",-27.382901,153.07245,Brisbane,5,Rail fare machine,,,,,Top up,,,,,Brisbane,
Published,396,Biota Street News,"155 Biota Street, Inala, Brisbane West",-27.5874,152.973,Brisbane West,1,Standard retailer,,go card,,,Buy,,,,,,
Published,410,Birkdale station,"Napier Street, Birkdale, Eastern",-27.493943,153.218472,Eastern,5,Rail fare machine,,go card,,,Buy,Top up,Register,Refund,Change expiry date,Redlands,
Published,209,Birkdale Station,"Napier Street, Birkdale, Eastern",-27.493933,153.218483,Eastern,6,Rail ticket office,,,,,Top up,,,,,Redlands,
Published,193,Bli Bli News,"Shop 5, River Markets, David Low Way, Bli Bli, Sunshine Coast",-26.6221,153.044,Sunshine Coast,1,Standard retailer,,go card,,,Buy,,,,,,
Published,67,Bloomfield Street News,"115 - 117 Bloomfield Street, Cleveland, Eastern",-27.5275,153.267,Eastern,1,Standard retailer,,go card,SEEQ card,Visitor Information Pack,Buy,Top up,Register,Refund,Change expiry date,Moreton Bay,
Published,347,Blunder Road Newsagency,"146 Blunder Road, Oxley, Queensland, Australia",-27.575481,152.983028,Brisbane South,1,Standard retailer,,go card,,,Buy,,,,,,
Published,593,Boggo Road Busway,"Quarry Street, Woolloongabba, Brisbane South",-27.492742,153.030513,Brisbane South,1,Standard retailer,,go card,,,Buy,Top up,,,,,
Published,501,Bond University Bookshop,"Shop 5-6, Commercial Centre, Bond University, Robina, Gold Coast",-28.0465,153.409,Gold Coast,1,Standard retailer,,go card,,,Buy,,,,,,
Published,340,Boondall News and Casket,"Sues Korner, 2128 Sandgate Road, Boondall, Brisbane North",-27.3527,153.06,Brisbane North,1,Standard retailer,,go card,,,Buy,,,,,,
Published,210,Boondall Station,"Aberdeen Parade, Boondall, Brisbane North",-27.346405,153.067622,Brisbane North,5,Rail fare machine,,,,,Top up,,,,,Brisbane,
Published,411,Boondall station,"Aberdeen Parade, Boondall, Brisbane North",-27.346377,153.067633,Brisbane North,6,Rail ticket office,,go card,,,Buy,Top up,Register,Refund,Change expiry date,Brisbane,
Published,211,Booval Station,"South Station Road, Booval, Western",-27.609357,152.789791,Western,5,Rail fare machine,,,,,Top up,,,,,Ipswich,
Published,11,Booval Station,"South Station Road, Booval, Western",-27.609357,152.789796,Western,6,Rail ticket office,,go card,,,Buy,Top up,Register,Refund,Change expiry date,Ipswich,
Published,13,Bowen Hills Station,"Abbotsford Road, Bowen Hills, Brisbane Central",-27.445181,153.03756,Brisbane Central,5,Rail fare machine,,go card,,,Buy,Top up,Register,Refund,Change expiry date,Brisbane,
Published,212,Bowen Hills Station,"Abbotsford Road, Bowen Hills, Brisbane Central",-27.445162,153.037549,Brisbane Central,6,Rail ticket office,,,,,Top up,,,,,Brisbane,
Published,525,BP Cooroy Supermart,"28 Elm Street, Cooroy, Sunshine Coast",-26.4184,152.912,Sunshine Coast,1,Standard retailer,,go card,,,Buy,,,,,,
Published,615,BP Yandina Food Stop,"24 Farrell Street, Yandina, Sunshine Coast",-26.559987,152.956586,Sunshine Coast,1,Standard retailer,,go card,,,Buy,,,,,,
Published,17,Bray Park Station,"Railway Avenue, Bray Park (Moreton Bay Regional), Northern",-27.299367,152.986032,Moreton Bay,5,Rail fare machine,,go card,,,Buy,Top up,Register,Refund,Change expiry date,Moreton Bay,
Published,213,Bray Park Station,"Railway Avenue, Bray Park (Moreton Bay Regional), Northern",-27.299357,152.986145,Moreton Bay,6,Rail ticket office,,,,,Top up,,,,,Moreton Bay,
Published,1091,Breakfree Acapulco,"2 Thornton Street, Surfers Paradise, Queensland, Australia",-28.010543,153.431904,,2,Preloaded reseller,,Gold Coast go explore card,,,Change expiry date,,,,,Gold Coast,
Published,1096,Breakfree Beachpoint,"Staghorn Avenue and The Esplanade, Surfers Paradise, Queensland, Australia",-27.995515,153.430342,,2,Preloaded reseller,,Gold Coast go explore card,,,Buy,,,,,Gold Coast,
Published,1101,Breakfree Cosmpolitan,"3142 Surfers Paradise Boulevard, Surfers Paradise, Queensland, Australia",-28.003255,153.428659,,2,Preloaded reseller,,Gold Coast go explore card,,,Buy,,,,,Gold Coast,
Published,1106,Breakfree Diamond Beach,"10-16 Alexandra Avenue, Mermaid Beach, Queensland, Australia",-28.036277,153.434403,,2,Preloaded reseller,,Gold Coast go explore card,,,Buy,,,,,Gold Coast,
Published,1111,Breakfree Longbeach,"28 Northcliffe Terrace, Surfers Paradise, Queensland, Australia",-28.00749,153.430861,,2,Preloaded reseller,,Gold Coast go explore card,,,Buy,,,,,Gold Coast,
Published,1016,Breakfree Morrocan,"14 View Avenue, Surfers Paradise, Queensland, Australia",-27.997806,153.429731,,2,Preloaded reseller,,Gold Coast go explore card,,,Buy,,,,,Gold Coast,
Published,604,Bribie Island Park n Ride,"Cnr Village and Victory Road, Bongaree, Bribie Island, Northern",-27.06552,153.158635,Northern,4,Bus fare machine,,go card,,,Buy,Top up,,,,,
Published,677,Brisbane Convenience Centre,"183 Ann Street, Brisbane, Brisbane Central",-27.467113,153.025228,Brisbane Central,1,Standard retailer,,go card,,,Buy,,,,,,
Archived,698,Broadbeach Central IGA,"2719 Gold Coast Highway, Broadbeach, Gold Coast",-28.02804,153.42991,Gold Coast,1,Standard retailer,,go card,,,Buy,,,,,Airlie Beach,
Published,559,Broadbeach News and Casket,"2703 Gold Coast Highway, Broadbeach, Gold Coast",-28.029247,153.430453,Gold Coast,1,Standard retailer,,go card,Gold Coast go explore card,,Buy,,,,,Gold Coast,
Published,941,Broadbeach North Tram Station,"Corner Gold Coast Highway and Queensland Avenue, Broadbeach, Queensland, Australia",-28.028599,153.429787,,5,Rail fare machine,,go card,,,Buy,Top up,,,,Gold Coast,
Published,1541,Broadbeach Oasis News ,"Victoria Avenue, Broadbeach, Queensland, Australia",-28.029567,153.432791,,2,Preloaded reseller,,,,,,,,,,Gold Coast,
Published,946,Broadbeach South Tram Station,"Corner Gold Coast Highway and Hooker Boulevard, Broadbeach, Queensland, Australia",-28.035763,153.431112,,5,Rail fare machine,,go card,,,Buy,Top up,,,,Gold Coast,
Published,539,Broadcast News,"Shop 1, 39 Sherwood Road, Toowong, Brisbane West",-27.4854,152.992,Brisbane West,1,Standard retailer,,go card,,,Buy,Top up,Change expiry date,,,,
Published,951,Broadwater Parklands Tram Station,"Corner Queen Street and Ada Bell Way, Southport, Queensland, Australia",-27.97349,153.418964,,5,Rail fare machine,,go card,,,Buy,,,,,Gold Coast,
Archived,660,Brook News and Casket,"Brookside Shopping Centre, Osborne Road, Mitchelton, Brisbane North",-27.409867,152.9788,Brisbane North,1,Standard retailer,,go card,,,Buy,,,,,,
Published,602,Brookside Bus Interchange,"Brookside Shopping Centre, Mitchelton, Brisbane North",-27.410027,152.978784,Brisbane North,1,Standard retailer,,go card,,,Buy,Top up,,,,,
Archived,614,Buderim Newsagency,"2/67 Burnett Street, Buderim, Sunshine Coast",-26.687894,153.048923,Sunshine Coast,1,Standard retailer,,go card,,,Buy,,,,,Airlie Beach,
Published,414,Bundamba Station,"Mining Street, Bundamba, Western",-27.6075,152.804571,Western,5,Rail fare machine,,go card,,,Buy,Top up,Register,Refund,Change expiry date,Ipswich,
Published,215,Bundamba Station,"Mining Street, Bundamba, Western",-27.607519,152.804549,Western,6,Rail ticket office,,,,,Top up,,,,,Ipswich,
Published,481,Buranda Busway Station,"OKeefe Street, Buranda, Brisbane South",-27.497029,153.039182,Brisbane South,4,Bus fare machine,,go card,,,Buy,Top up,,,,Brisbane,
Published,415,Buranda Station,"Gillingham Street, Buranda, Brisbane South",-27.496576,153.040386,Brisbane South,5,Rail fare machine,,go card,,,Buy,Top up,Register,Refund,Change expiry date,Brisbane,
Published,216,Buranda Station,"Gillingham Street, Buranda, Brisbane South",-27.496571,153.040397,Brisbane South,6,Rail ticket office,,,,,Top up,,,,,Brisbane,
Published,623,Burpengary News,"Shop 22 Burpengary Plaza, Station Road, Burpengary, Northern",-27.154338,152.97469,Northern,1,Standard retailer,,go card,,,Buy,,,,,,
Published,59,Burpengary Station,"Burpengary Road, Burpengary, Northern",-27.163078,152.957113,Northern,5,Rail fare machine,,go card,,,Buy,Top up,Register,Refund,Change expiry date,Moreton Bay,
Published,217,Burpengary Station,"Burpengary Road, Burpengary, Northern",-27.163063,152.957107,Northern,6,Rail ticket office,,,,,Top up,,,,,Moreton Bay,
Published,645,Burstall Avenue News,"Belmont Shopping Plaza, Cnr Burstall Ave and Belmont Road, Belmont, Brisbane East",-27.484423,153.126052,Brisbane East,1,Standard retailer,,go card,,,Buy,Top up,Change expiry date,,,,
Published,60,Caboolture Station,"Matthew Terrace, Caboolture, Northern",-27.083347,152.954011,Northern,5,Rail fare machine,,go card,,,Top up,,,,,Brisbane,
Published,218,Caboolture Station Ticket Office,"Matthew Terrace, Caboolture, Northern",-27.083338,152.954021,Northern,6,Rail ticket office,,go card,,,Buy,Top up,Register,Refund,Change expiry date,Brisbane,
Published,655,Caloundra Newsagency,"72 Bulcock Street, Caloundra, Sunshine Coast",-26.80477,153.131188,Sunshine Coast,1,Standard retailer,,go card,SEEQ card,Visitor Information Pack,Buy,Top up,Register,Refund,Change expiry date,Brisbane,
Published,517,Camp Hill Newsagency,"569 Old Cleveland Road, Camp Hill, Brisbane East",-27.493,153.075,Brisbane East,1,Standard retailer,,go card,,,Buy,,,,,,
Published,1431,Camp Hill Newsagency,"569 Old Cleveland Road, Camp Hill, Queensland, Australia",-27.492889,153.075345,,1,Standard retailer,,,,,,,,,,Brisbane,
Published,1531,Campus Book Shop,"Building G.40, Griffith University Gold Coast Campus, Parklands Drive, Southport, Queensland, Australia",-27.962918,153.380708,,2,Preloaded reseller,,,,,,,,,,Gold Coast,
Published,675,Campus Bookshop,"The Link Building (G07) Griffith University Gold Coast Campus , Southport, Gold Coast",-27.962054,153.379764,Gold Coast,1,Standard retailer,,go card,,,Buy,,,,,,
Published,156,Campus News,"Staffhouse Road, Union Complex, University Of Queensland (building 4), St Lucia, Brisbane West",-27.4982,153.014,Brisbane West,1,Standard retailer,,go card,SEEQ card,Visitor Information Pack,Buy,Top up,Register,Refund,Change expiry date,Brisbane,
Published,595,Cannon Hill Bus Interchange,"Cannon Hill Shopping Centre, Creek Road, Cannon Hill, Brisbane East",-27.470755,153.096887,Brisbane East,1,Standard retailer,,go card,,,Buy,Top up,,,,,
Archived,493,Cannon Hill Friendly Grocer,"73 Molloy Road, Cannon Hill, Brisbane East",-27.471,153.083,Brisbane East,1,Standard retailer,,go card,,,Buy,,,,,Brisbane,
Published,382,Cannon Hill Station,"60 Barracks Road, Cannon Hill, Brisbane East",-27.465376,153.088099,Brisbane East,5,Rail fare machine,,go card,,,Buy,Top up,Register,Refund,Change expiry date,Brisbane,
Published,219,Cannon Hill Station,"60 Barracks Road, Cannon Hill, Brisbane East",-27.465367,153.088115,Brisbane East,6,Rail ticket office,,,,,Top up,,,,,Brisbane,
Published,351,Carina Newsagency,"836 Old Cleveland Rd, Carina, Brisbane East",-27.4955,153.089,Brisbane East,1,Standard retailer,,go card,,,Buy,Top up,Change expiry date,,,Brisbane,
Published,594,Carindale Bus Interchange,"Westfield Carindale Shopping Centre, Carindale, Brisbane East",-27.503369,153.102971,Brisbane East,1,Standard retailer,,go card,,,Buy,Top up,,,,,
Published,364,Carseldine Station,"Beams Road, Carseldine, Brisbane North",-27.348448,153.029161,Brisbane North,5,Rail fare machine,,go card,,,Buy,Top up,Register,Refund,Change expiry date,Brisbane,
Published,220,Carseldine Station,"Beams Road, Carseldine, Brisbane North",-27.348448,153.029145,Brisbane North,6,Rail ticket office,,,,,Top up,,,,,Brisbane,
Published,741,Casino News,"131 George Street, Brisbane, Queensland, Australia",-27.472178,153.025012,Brisbane Central,1,Standard retailer,,go card,,,Buy,Top up,Change expiry date,,,,
Archived,72,Cavendish Road News,"157 Cavendish Road, Coorparoo, Brisbane East",-27.4936,153.059,Brisbane East,1,Standard retailer,,go card,,,Buy,Top up,Change expiry date,,,,
Published,1241,Cavill Avenue Tram Station,"Corner Surfers Paradise Boulevard and Cavill Avenue, Surfers Paradise, Queensland, Australia",-28.001657,153.428313,,5,Rail fare machine,,go card,,,Buy,Top up,,,,Gold Coast,
Published,32,Central station,"Ann Street, Brisbane , Brisbane Central",-27.465905,153.025936,Brisbane Central,5,Rail fare machine,,go card,SEEQ card,,Buy,Top up,Register,Refund,Change expiry date,Brisbane,
Published,221,Central station,"Cnr Edward and Ann Street, Brisbane , Brisbane Central",-27.465905,153.025936,Brisbane Central,6,Rail ticket office,,,,,Top up,,,,,Brisbane,
Published,1021,Centrepoint Apartments,"67 Ferny Avenue, Surfers Paradise, Queensland, Australia",-27.998162,153.427801,,2,Preloaded reseller,,Gold Coast go explore card,,,Buy,,,,,Gold Coast,
Published,637,Chapel Hill News,"8/620 Moggill Rd, Chapel Hill, Brisbane West",-27.505594,152.960821,Brisbane West,1,Standard retailer,,go card,,,Buy,,,,,,
Published,352,Chatswood Hills News,"Shop 34 Chatswood Central, Chatswood Rd, Springwood, Southern ",-27.6334,153.139,Southern ,1,Standard retailer,,go card,,,Buy,,,,,,
Published,416,Chelmer station,"140 Honour Avenue, Chelmer, Brisbane South",-27.511648,152.972882,Brisbane South,5,Rail fare machine,,go card,,,Buy,Top up,Register,Refund,Change expiry date,Brisbane,
Published,222,Chelmer station,"140 Honour Avenue, Chelmer, Brisbane South",-27.511648,152.972871,Brisbane South,6,Rail ticket office,,,,,Top up,,,,,Brisbane,
Published,485,Chermside Bus Interchange,"corner Gympie and Hamilton Roads, Chermside, Brisbane North",-27.3854,153.031,Brisbane North,4,Bus fare machine,,go card,,,Buy,Top up,,,,,
Published,680,Chevron 7 Day Express Food Store,"46 Thomas Drive, Surfers Paradise, Gold Coast",-27.998069,153.419628,Gold Coast,2,Preloaded reseller,,go card,Gold Coast go explore card,,Buy,,,,,Gold Coast,
Published,1116,Chevron Palms,"48 - 54 Stanhill Drive, Surfers Paradise, Queensland, Australia",-27.997265,153.422847,,2,Preloaded reseller,,Gold Coast go explore card,,,Buy,,,,,Gold Coast,
Published,1026,Chevron Towers Tour Desk,"23 Ferny Avenue, Surfers Paradise, Queensland, Australia",-27.999546,153.427723,,2,Preloaded reseller,,Gold Coast go explore card,,,Buy,,,,,Gold Coast,
Published,344,Chris Supa IGA,"881 Old Cleveland Road, Carina, Brisbane East",-27.4963,153.095,Brisbane East,1,Standard retailer,,go card,,,Buy,,,,,,
Published,629,Christines Corner Newsagency,"5/221 Christine Avenue, Varsity Lakes, Gold Coast",-28.085385,153.42483,Gold Coast,1,Standard retailer,,go card,,,Buy,,,,,,
Archived,687,Circle News,"3184 Surfers Paradise Boulevards, Surfers Paradise, Gold Coast",-28.001165,153.426998,Gold Coast,1,Standard retailer,,go card,,,Buy,,,,,,
Published,33,City Mall News,"Queen Street Kiosk, Brisbane , Brisbane Central",-27.4685,153.027,Brisbane Central,1,Standard retailer,,go card,SEEQ card,Visitor Information Pack,Buy,Top up,Register,Refund,Change expiry date,Brisbane,
Published,34,City News,"10 Eagle Street, Brisbane , Brisbane Central",-27.4694,153.03,Brisbane Central,1,Standard retailer,,go card,,,Buy,Top up,Change expiry date,,,,
Published,487,Clarks Logan City Bus ticket kiosk Loganholme,"Logan Hyperdome, corner Pacific Highway and Bryants Road, Loganholme, Southern",-27.6606,153.173,Southern,1,Standard retailer,,go card,,,Buy,,,,,,
Published,488,Clarks Logan City Bus ticket kiosk Springwood,"Springwood bus station, Springwood, Southern",-27.6144,153.126,Southern,1,Standard retailer,,go card,,,Buy,,,,,,
Published,223,Clayfield station,"761 Sandgate Road, Clayfield, Brisbane North",-27.4175,153.057,Brisbane North,5,Rail fare machine,,,,,Top up,,,,,Brisbane,
Published,224,Cleveland station,"Shore Street, Cleveland, Eastern",-27.524219,153.265667,Eastern,5,Rail fare machine,,,,,Top up,,,,,Brisbane,
Published,68,Cleveland station,"Shore Street, Cleveland, Eastern",-27.52421,153.265657,Eastern,6,Rail ticket office,,go card,,,Buy,Top up,Register,Refund,Change expiry date,Brisbane,
Published,576,Clock Corner Convenience Store & Take-Away,"13/521 Beams Rd, Carseldine, Brisbane North",-27.3482,153.028,Brisbane North,1,Standard retailer,,go card,,,Buy,,,,,,
Published,609,Co-op Bookshop (USC),"University of Sunshine Coast, Sippy Downs Drive, Sippy Downs, Queensland, Australia",-26.718071,153.062414,Sunshine Coast,1,Standard retailer,,go card,SEEQ card,,Buy,Top up,Register,Refund,Change expiry date,Sunshine Coast,
Published,630,Co-Op Bookshop ACU,"Aust Catholic University, Nudgee Rd, Banyo, Brisbane North",-27.379966,153.148047,Brisbane North,1,Standard retailer,,go card,,,Buy,,,,,,
Published,631,Co-Op Bookshop GU Logan,"Griffith Uni Logan Campus, University Drive, Meadowbrook, Southern",-27.664398,153.148047,Southern,1,Standard retailer,,go card,,,Buy,,,,,,
Published,632,Co-Op Bookshop GU Mt Gravatt,"Griffith Uni Mt Gravatt Campus, Messines Ridge Rd, Mount Gravatt, Brisbane South",-27.543289,153.052821,Brisbane South,1,Standard retailer,,go card,,,Buy,,,,,,
Published,633,Co-Op Bookshop QCM ,"Qld Conservatorium of Music, 140 Grey Street, South Brisbane, Brisbane South",-27.477569,153.021132,Brisbane South,1,Standard retailer,,go card,,,Buy,,,,,,
Published,638,Co-op Bookshop UQ Gatton,"Building 8123, Morrison Hall, Inner Ring Road, Gatton, Western",-27.555737,152.337285,Western,1,Standard retailer,,go card,,,Buy,,,,,,
Published,639,Co-op Bookshop UQ Ipswich,"Building 12, Room 108, Salisbury Road, Ipswich, Western",-27.628126,152.756307,Western,1,Standard retailer,,go card,,,Buy,,,,,,
Published,353,Collingwood Park News,"Shop 1, Redbank Plaza Shopping Centre, Collingwood Drive, Redbank, Western",-27.6059,152.868,Western,1,Standard retailer,,go card,,,Buy,,,,,,
Archived,536,Colmslie Plaza News,"38 Junction Road, Morningside, Brisbane East",-27.4653,153.079,Brisbane East,1,Standard retailer,,go card,,,Buy,,,,,,
Published,1471,Colonial Village 4 Espresso,"351 Beams Road, Taigum, Queensland, Australia",-27.349545,153.041259,,2,Preloaded reseller,,,,,,,,,,Brisbane,
Published,556,Commercial Road News,"52 Commercial Road, Fortitude Valley, Brisbane Central",-27.4533,153.044,Brisbane Central,1,Standard retailer,,go card,,,Buy,,,,,,
Archived,191,Coolum News & Minimart,"1786 David Low Way, Coolum Beach, Sunshine Coast",-26.5309,153.091,Sunshine Coast,1,Standard retailer,,go card,,,Buy,,,,,,
Published,225,Coomera station,"Railway Reserve 11 Foxwell Road, Coomera, Gold Coast",-27.8535,153.318,Gold Coast,2,Preloaded reseller,,,,,Top up,,,,,,
Published,385,Coomera station,"Railway Reserve 11 Foxwell Road, Coomera, Gold Coast",-27.8535,153.318,Gold Coast,5,Rail fare machine,,go card,,,Buy,Top up,Register,Refund,Change expiry date,,
Published,226,Coopers Plains station,"Henley Street, Coopers Plains, Brisbane South",-27.5684,153.036,Brisbane South,2,Preloaded reseller,,,,,Top up,,,,,,
Published,417,Coopers Plains station,"Henley Street, Coopers Plains, Brisbane South",-27.5684,153.036,Brisbane South,5,Rail fare machine,,go card,,,Buy,Top up,Register,Refund,Change expiry date,,
Published,227,Cooroy  station,"Elm Street, Cooroy, Sunshine Coast",-26.4187,152.911,Sunshine Coast,2,Preloaded reseller,,,,,Top up,,,,,,
Archived,515,Cooroy Newsagency,"28 Maple Street, Cooroy, Sunshine Coast",-26.4177,152.91,Sunshine Coast,1,Standard retailer,,go card,,,Buy,,,,,Airlie Beach,
Published,418,Cooroy station,"Elm Street, Cooroy, Sunshine Coast",-26.4187,152.911,Sunshine Coast,5,Rail fare machine,,go card,,,Buy,Top up,Register,Refund,Change expiry date,,
Published,586,Coorparoo News,"Shop 6, Coorparoo Convenience Centre, 208 Old Cleveland Road, Coorparoo, Brisbane East",-27.497168,153.054055,Brisbane East,1,Standard retailer,,go card,,,Buy,Top up,Change expiry date,,,,
Published,366,Coorparoo station ,"Cavendish Road, Coorparoo, Brisbane East",-27.4897,153.055,Brisbane East,5,Rail fare machine,,go card,,,Buy,Top up,Register,Refund,Change expiry date,Brisbane,
Published,228,Coorparoo station,"Cavendish Road, Coorparoo, Brisbane East",-27.4897,153.055,Brisbane East,6,Rail ticket office,,,,,Top up,,,,,Brisbane,
Published,229,Corinda station,"Cnr Watt &amp; Ruthven Street, Corinda, Brisbane South",-27.5396,152.98,Brisbane South,2,Preloaded reseller,,,,,Top up,,,,,,
Published,73,Corinda station,"Watt Street, corner Ruthven Street, Corinda, Brisbane South",-27.5396,152.98,Brisbane South,5,Rail fare machine,,go card,,,Buy,Top up,Register,Refund,Change expiry date,,
Published,116,Cotton Tree News,"9 King Street, Maroochydore, Sunshine Coast",-26.6547,153.101,Sunshine Coast,1,Standard retailer,,go card,,,Buy,Top up,Change expiry date,,,,
Published,1121,Crown Towers Resort,"5-19 Palm Avenue, Surfers Paradise, Queensland, Australia",-27.995758,153.427978,,2,Preloaded reseller,,Gold Coast go explore card,,,Buy,,,,,Gold Coast,
Published,480,Cultural Centre busway station,"corner of Grey and Melbourne Streets, South Brisbane, Brisbane Central",-27.4732,153.019,Brisbane Central,1,Standard retailer,,go card,,,Buy,Top up,,,,,
Published,617,Currimundi News,"Cnr Nicklin Way and Bellara Drive, Currimundi, Sunshine Coast",-26.773831,153.124299,Sunshine Coast,1,Standard retailer,,go card,,,Buy,,,,,,
Published,756,Currumbin Creek Newsagency,"52 Currumbin Creek Road, Currumbin Waters, Queensland, Australia",-28.14411,153.472662,Gold Coast,1,Standard retailer,,go card,,,Buy,,,,,,
Published,956,Cypress Avenue tram station,"Corner Surfers Paradise Boulevard and Cypress Avenue, Surfers Paradise, Queensland, Australia",-27.996461,153.427522,,1,Standard retailer,,go card,,,Buy,Top up,,,,Gold Coast,
Published,621,Daisy Hill News,"Shop 7, Cnr Daisy Hill Rd and Cupania Street, Daisy Hill , Southern",-27.642944,153.153712,Southern,1,Standard retailer,,go card,,,Buy,,,,,,
Published,230,Dakabin station,"Narangba Road, Dakabin, Northern",-27.2285,152.975,Northern,2,Preloaded reseller,,,,,Top up,,,,,,
Published,231,Darra station,"Darra Station Road, Darra, Brisbane West",-27.5659,152.952,Brisbane West,2,Preloaded reseller,,,,,Top up,,,,,,
Published,74,Darra station,"Darra Station Road, Darra, Brisbane West",-27.5659,152.952,Brisbane West,5,Rail fare machine,,go card,,,Buy,Top up,Register,Refund,Change expiry date,,
Published,688,David Low Way News,"Centro North Shore, David Low Way, Pacific Paradise, Sunshine Coast",-26.61413,153.083234,Sunshine Coast,1,Standard retailer,,go card,,,Buy,,,,,,
Archived,530,Deagon News,"138 Braun Street, Deagon, Brisbane North",-27.3324,153.059,Brisbane North,1,Standard retailer,,go card,,,Buy,,,,,,
Published,232,Deagon station,"Adams Street, Deagon, Brisbane North",-27.3273,153.063,Brisbane North,2,Preloaded reseller,,,,,Top up,,,,,,
Published,419,Deagon station,"Adams Street, Deagon, Northern",-27.3273,153.063,Northern,5,Rail fare machine,,go card,,,Buy,Top up,Register,Refund,Change expiry date,,
Published,233,Dinmore station,"Mason Street, Dinmore, Western",-27.5964,152.833,Western,2,Preloaded reseller,,,,,Top up,,,,,,
Published,420,Dinmore station,"Mason Street, Dinmore, Western",-27.5964,152.833,Western,5,Rail fare machine,,go card,,,Buy,Top up,Register,Refund,Change expiry date,,
Published,616,Dockside Convenience Store,"Shop 5, 35 Ferry Street, Kangaroo Point, Brisbane East",-27.472558,153.038964,Brisbane East,1,Standard retailer,,go card,,,Buy,,,,,,
Published,234,Domestic Terminal station,"Airport Drive, Airport (Brisbane), Brisbane East",-27.3852,153.119,Brisbane East,2,Preloaded reseller,,,,,Top up,,,,,,
Published,235,Doomben station,"Lamington Avenue, Doomben, Brisbane North",-27.4314,153.075,Brisbane North,2,Preloaded reseller,,,,,Top up,,,,,,
Published,421,Doomben station,"Lamington Avenue, Doomben, Brisbane North",-27.4314,153.075,Brisbane North,5,Rail fare machine,,go card,,,Buy,Top up,Register,Refund,Change expiry date,,
Published,236,Dutton Park station,"Railway Terrace, Dutton Park, Brisbane South",-27.4998,153.029,Brisbane South,2,Preloaded reseller,,,,,Top up,,,,,,
Published,359,Dutton Park station,"Railway Terrace, Dutton Park, Brisbane South",-27.4998,153.029,Brisbane South,5,Rail fare machine,,go card,,,Buy,Top up,Register,Refund,Change expiry date,,
Published,702,Eagle Junction News,"272 Junction Road, Eagle Junction, Brisbane North",-27.415092,153.050647,Brisbane North,1,Standard retailer,,go card,,,Buy,,,,,,
Published,237,Eagle Junction station,"Junction Road, Eagle Junction, Brisbane North",-27.4151,153.05,Brisbane North,2,Preloaded reseller,,,,,Top up,,,,,,
Published,78,Eagle Junction station,"Junction Road, Eagle Junction, Brisbane North",-27.4151,153.05,Brisbane North,5,Rail fare machine,,go card,,,Buy,Top up,Register,Refund,Change expiry date,,
Published,35,Eagle Street News,"Ground Floor, 70 Eagle Street, Brisbane , Brisbane Central",-27.4671,153.03,Brisbane Central,1,Standard retailer,,go card,SEEQ card,Visitor Information Pack,Buy,Top up,Register,Refund,Change expiry date,Brisbane,
Published,1631,Earls Court Serviced Apartments,"131 Nerang Street, Southport, Queensland, Australia",-27.971204,153.407014,Gold Coast,2,Preloaded reseller,,,,,,,,,,Gold Coast,
Published,238,East Ipswich station,"Merton Street, East Ipswich, Western",-27.61,152.775,Western,2,Preloaded reseller,,,,,Top up,,,,,,
Published,389,East Ipswich station,"Merton Street, East Ipswich, Western",-27.61,152.775,Western,5,Rail fare machine,,go card,,,Buy,Top up,Register,Refund,Change expiry date,,
Published,239,Ebbw Vale station,"Brisbane Road, Ebbw Vale, Western",-27.6033,152.822,Western,2,Preloaded reseller,,,,,Top up,,,,,,
Published,422,Ebbw Vale station,"Brisbane Road, Ebbw Vale, Western",-27.6033,152.822,Western,5,Rail fare machine,,go card,,,Buy,Top up,Register,Refund,Change expiry date,,
Archived,354,Edens Landing News,"Shop 5 125-127 Castile Cresent, Edens Landing, Southern",-27.7008,153.169,South East Queensland,1,Standard retailer,,go card,,,Buy,,,,,South East Queensland,
Published,240,Edens Landing station,"Eddy Avenue, Edens Landing, Southern ",-27.6982,153.171,Southern ,2,Preloaded reseller,,,,,Top up,,,,,,
Published,589,Eight Mile Plains Busway,"Eight Mile Plains Busway Station, Eight Mile Plains, Brisbane South",-27.57848,153.101739,Brisbane South,1,Standard retailer,,go card,,,Buy,Top up,,,,,
Published,241,Elimbah station,"English Street, Elimbah, Northern",-27.0113,152.946,Northern,2,Preloaded reseller,,,,,Top up,,,,,,
Published,668,Enoggera Newsagency,"Shop 2B, 318 Wardell Street, Enoggera, Brisbane North",-27.422652,152.990315,Brisbane North,1,Standard retailer,,go card,,,Buy,,,,,,
Published,242,Enoggera station,"Glenalva Terrace, Enoggera, Brisbane North",-27.4203,152.992,Brisbane North,2,Preloaded reseller,,,,,Top up,,,,,,
Published,423,Enoggera station,"Glenalva Terrace, Enoggera, Brisbane North",-27.4203,152.992,Brisbane North,5,Rail fare machine,,go card,,,Buy,Top up,Register,Refund,Change expiry date,,
Published,243,Eudlo station,"Rosebed Street, Eudlo, Sunshine Coast",-26.7259,152.957,Sunshine Coast,2,Preloaded reseller,,,,,Top up,,,,,,
Published,613,Eumundi Village Pharmacy,"1 / 2 - 6 Ethridge Street, Eumundi, Sunshine Coast",-26.475572,152.950648,Sunshine Coast,1,Standard retailer,,go card,,,Buy,,,,,,
Published,36,Exchange Casket Agency,"360 Queen Street, Brisbane , Brisbane Central",-27.4664,153.029,Brisbane Central,1,Standard retailer,,go card,Visitor Information Pack,,Buy,Top up,Change expiry date,,,Brisbane,
Archived,401,Ezy Shop,"Shop 2, 108 Wickham Street, Fortitude Valley, Brisbane Central",-27.4601,153.032021,Brisbane Central,1,Standard retailer,,go card,,,Buy,,,,,,
Published,424,Fairfield station,"Mildmay Street, Fairfield, Brisbane South",-27.5095,153.028,Brisbane South,5,Rail fare machine,,go card,,,Buy,Top up,Register,Refund,Change expiry date,,
Published,244,Farifield station,"Midway Street, Fairfield, Brisbane South",-27.5095,153.028,Brisbane South,2,Preloaded reseller,,,,,Top up,,,,,,
Published,245,Ferny Grove station,"Conavalla Street, Ferny Grove, Brisbane North",-27.4013,152.935,Brisbane North,2,Preloaded reseller,,,,,Top up,,,,,,
Published,82,Ferny Grove station,"Conavalla Street, Ferny Grove, Brisbane North",-27.4013,152.935,Brisbane North,5,Rail fare machine,,go card,,,Buy,Top up,Register,Refund,Change expiry date,,
Published,464,Ferny Hills News & Casket,"Shop 11, 126 Ferny Way, Ferny Hills, Brisbane North",-27.4003,152.939,Brisbane North,1,Standard retailer,,go card,,,Buy,,,,,,
Published,931,Florida Gardens tram station,"Corner Gold Coast Highway and Monaco Street, Surfers Paradise, Queensland, Australia",-28.017705,153.429349,,1,Standard retailer,,go card,,,Buy,Top up,,,,Gold Coast,
Published,663,Foodworks Heathwood,"137 Parkwood Drive, Heathwood, Brisbane West",-27.637003,152.986997,Brisbane West,1,Standard retailer,,go card,,,Buy,,,,,,
Published,1181,Foodworks Jindalee,"Shop 1, 66 Curragundi Road, Jindalee, Queensland, Australia",-27.53513,152.935947,,2,Preloaded reseller,,go card,,,Buy,,,,,Brisbane,
Published,622,Foodworks Salisbury,"Shop 4 / 660 Toohey Road, Salisbury, Brisbane South",-27.545804,153.039488,Brisbane South,1,Standard retailer,,go card,,,Buy,,,,,,
Published,1536,Foodworks Wishart,"590 Mount Gravatt-Capalaba Road, Wishart, Queensland, 4122, Australia",-27.549068,153.106621,,1,Standard retailer,,,,,,,,,,Brisbane,
Published,83,Forest Lake Village News,"Forest Lake Village Shopping Centre, Forest Lake Boulevard, Forest Lake, Brisbane West",-27.6255,152.968,Brisbane West,1,Standard retailer,,go card,,,Buy,Top up,Change expiry date,,,,
Published,85,Fortitude Valley station,"Brunswick Street, Fortitude Valley, Brisbane Central",-27.4567,153.033,Brisbane Central,5,Rail fare machine,,go card,SEEQ card,,Buy,Top up,Register,Refund,Change expiry date,Brisbane,
Published,214,Fortitude Valley station,"Brunswick Street, Fortitude Valley, Brisbane Central",-27.4567,153.033,Brisbane Central,6,Rail ticket office,,,,,Top up,,,,,Brisbane,
Published,184,Four Square ,"18 Cracknell Road, Annerley, Brisbane South",-27.5184,153.03,Brisbane South,1,Standard retailer,,go card,,,Buy,,,,,,
Published,581,Friendly Grocer Broadbeach,"Shop 10, Belair Retail Centre, Gold Coast Highway,Broadbeach, Broadbeach, Gold Coast",-28.035828,153.431953,Gold Coast,2,Preloaded reseller,,go card,Gold Coast go explore card,,Buy,,,,,Gold Coast,
Archived,699,Friendly Grocer Crestmead,"5/13 Julie Street, Crestmead, Southern",-27.696258,153.083098,Southern,1,Standard retailer,,go card,,,Buy,,,,,Airlie Beach,
Published,246,Fruitgrove station,"Beenleigh Road, Runcorn, Brisbane South",-27.5983,153.08,Brisbane South,2,Preloaded reseller,,,,,Top up,,,,,,
Published,425,Fruitgrove station,"Beenleigh Road, Runcorn, Brisbane South",-27.5983,153.08,Brisbane South,5,Rail fare machine,,go card,,,Buy,Top up,Register,Refund,Change expiry date,,
Published,247,Gailes station,"Wilruna Street, Gailes, Western",-27.6018,152.919,Western,2,Preloaded reseller,,,,,Top up,,,,,,
Published,387,Gailes station,"Wilruna Street, Gailes, Western",-27.6018,152.919,Western,5,Rail fare machine,,go card,,,Buy,Top up,Register,Refund,Change expiry date,,
Published,492,Garden City bus interchange,"South East Freeway near Garden City Shopping Centre (access via current bus interchange), Upper Mount Gravatt, Brisbane South",-27.5631,153.081,Brisbane South,4,Bus fare machine,,go card,,,Buy,Top up,,,,,
Published,1651,Gasworks News,"The Gasworks, Skyring Terrace, Newstead, Queensland, Australia",-27.450247,153.044459,Brisbane,1,Standard retailer,,,,,,,,,,Brisbane,
Published,577,Gatton Plaza Newsagency ,"7/8 Plaza Shopping Centre Spencer St, Gatton, Western",-27.558271,152.279529,Western,1,Standard retailer,,go card,,,Buy,,,,,,
Published,248,Gaythorne station,"30 Station Avenue, Enoggera, Brisbane North",-27.4193,152.986,Brisbane North,2,Preloaded reseller,,,,,Top up,,,,,,
Published,426,Gaythorne Station,"30 Station Avenue, Enoggera, Brisbane North",-27.4193,152.986,Brisbane North,5,Rail fare machine,,go card,,,Buy,Top up,Register,Refund,Change expiry date,,
Published,249,Geebung station,"Railway Parade, Geebung, Brisbane North",-27.3689,153.047,Brisbane North,2,Preloaded reseller,,,,,Top up,,,,,,
Published,367,Geebung station,"Railway Parade, Geebung, Brisbane North",-27.3689,153.047,Brisbane North,5,Rail fare machine,,go card,,,Buy,Top up,Register,Refund,Change expiry date,,
Archived,618,Gem News and Casket,"18 Racecourse Road, Hamilton, Brisbane North",-27.438428,153.064185,Brisbane North,1,Standard retailer,,go card,,,Buy,,,,,,
Published,37,George Street News,"370 George Street, Brisbane , Brisbane Central",-27.4689,153.021,Brisbane Central,1,Standard retailer,,go card,Visitor Information Pack,,Buy,Top up,Change expiry date,,,Brisbane,
Archived,583,Get Hummered,"10 Transit Centre, Beach Rd, Surfers Paradise, Gold Coast",-28.002304,153.426632,Gold Coast,1,Standard retailer,,go card,,,Buy,,,,,,
Published,537,Given Terrace Newsagency,"Shop 1/209 Given Terrace, Paddington, Brisbane North",-27.4616,153.006,Brisbane North,1,Standard retailer,,go card,,,Buy,,,,,,
Published,250,Glasshouse Mountains station,"Reed Street, Glasshouse Mountains, Northern",-26.8997,152.957,Northern,2,Preloaded reseller,,,,,Top up,,,,,,
Published,427,Glasshouse Mountains station,"Reed Street, Glasshouse Mountains, Northern",-26.8997,152.957,Northern,5,Rail fare machine,,go card,,,Buy,Top up,Register,Refund,Change expiry date,,
Published,801,Gold Coast Tourism Information Desk,"Gold Coast Airport, Eastern Avenue, Bilinga, Queensland, Australia",-28.165645,153.509074,,1,Standard retailer,,go card,Gold Coast go explore card,,Buy,Top up,Change expiry date,,,Gold Coast,
Published,521,Gold Coast Tourism Visitor Information Booth,"2 Cavill Avenue, Surfers Paradise, Queensland, Australia",-28.001927,153.428923,Gold Coast,1,Standard retailer,,go card,Gold Coast go explore card,,Buy,Top up,Register,Refund,Change expiry date,Gold Coast,
Published,646,Gold Coast Tourist Shuttle Desk,"Gold Coast Airport, Airport (Gold Coast - Coolangatta), Gold Coast",-28.16626,153.512886,Gold Coast,1,Standard retailer,"Refunds not available from this agent.  

Customers are able to apply for an EFT refund to an Australian bank account by filling in the 'go card guide to Balance Transfers and Refunds' Form available from the agent.",go card,Gold Coast go explore card,,Buy,Top up,Refund,Change expiry date,,Gold Coast,
Published,886,Gold Coast University Hospital tram station,"Corner Parklands Drive and University Drive, Southport, Queensland, Australia",-27.96055,153.380514,,1,Standard retailer,,go card,,,Buy,Top up,,,,Gold Coast,
Published,781,Golden Beach News,"Shop 6, 46 Landsborough Parade, Golden Beach, Queensland, Australia",-26.821495,153.120058,Sunshine Coast,2,Preloaded reseller,,go card,,,Buy,,,,,,
Published,541,Goodes Newsagency,"771 Stanley Street, Woolloongabba, Brisbane South",-27.4864,153.034,Brisbane South,1,Standard retailer,,go card,,,Buy,,,,,,
Archived,683,Goodna Newsagency,"Shop 19B, 2 Smiths Road, Goodna, Western",-27.610074,152.897662,Western,1,Standard retailer,,go card,,,Buy,,,,,,
Published,251,Goodna station,"Ryan Street, Goodna, Western",-27.6088,152.902,Western,2,Preloaded reseller,,,,,Top up,,,,,,
Published,375,Goodna station,"Ryan Street, Goodna, Western",-27.6088,152.902,Western,5,Rail fare machine,,go card,,,Buy,Top up,Register,Refund,Change expiry date,,
Published,38,GPO News,"Shop 1, 40 Creek Street, Brisbane , Brisbane Central",-27.4671,153.029,Brisbane Central,1,Standard retailer,,go card,SEEQ card,Visitor Information Pack,Buy,Top up,Register,Refund,Change expiry date,Brisbane,
Published,252,Graceville station,"Honour Avenue, Graceville, Brisbane South",-27.5213,152.976,Brisbane South,2,Preloaded reseller,,,,,Top up,,,,,,
Published,370,Graceville station,"Honour Avenue, Graceville, Brisbane South",-27.5213,152.976,Brisbane South,5,Rail fare machine,,go card,,,Buy,Top up,Register,Refund,Change expiry date,,
Published,505,Greenbank Plaza News,"Shop 3, 15 Pub Lane, Greenbank, Southern",-27.7383,152.983,Southern,1,Standard retailer,,go card,,,Buy,,,,,,
Published,591,Greenslopes Busway,"Barnsdale Place, Greenslopes, Brisbane South",-27.510946,153.040493,Brisbane South,1,Standard retailer,,go card,,,Buy,Top up,,,,,
Published,88,Greenslopes Newsagency,"Shop 19, Greenslopes Mall, 700 Logan Road, Greenslopes, Brisbane South",-27.5121,153.054,Brisbane South,1,Standard retailer,,go card,,,Buy,Top up,Change expiry date,,,,
Published,477,Griffith University busway station,"access to Plaza from roundabout at bottom of Sports Road , Mount Gravatt, Brisbane South",-27.5466,153.064,Brisbane South,1,Standard retailer,,go card,,,Buy,Top up,,,,,
Published,876,Griffith University tram station,"Corner Parklands Drive and Engineering Drive, Southport, Queensland, Australia",-27.962972,153.384389,,1,Standard retailer,,go card,,,Buy,Top up,,,,Gold Coast,
Published,253,Grovely station,"Blaker road, Grovely, Brisbane North",-27.405,152.962,Brisbane North,2,Preloaded reseller,,,,,Top up,,,,,,
Published,428,Grovely station,"Blaker Road, Grovely, Brisbane North",-27.405,152.962,Brisbane North,5,Rail fare machine,,go card,,,Buy,Top up,Register,Refund,Change expiry date,,
Published,151,GUGC Student Guild,"Griffith University, Parklands Drive, The Link Building, Gold Coast Campus, Southport, Gold Coast",-27.96094,153.382255,Gold Coast,1,Standard retailer,,go card,Gold Coast go explore card,,Buy,Top up,Change expiry date,,,Gold Coast,
Published,254,Gympie North station,"Sandy Creek Road, Gympie North, Sunshine Coast",-26.1627,152.686,Sunshine Coast,2,Preloaded reseller,,,,,Top up,,,,,,
Published,362,Gympie North station,"Sandy Creek Road, Gympie North, Sunshine Coast",-26.1627,152.686,Sunshine Coast,5,Rail fare machine,,go card,,,Buy,Top up,Register,Refund,Change expiry date,,
Published,255,Helensvale station,"Town Centre Drive, Helensvale, Gold Coast",-27.9258,153.339,Gold Coast,2,Preloaded reseller,,,,,Top up,,,,,,
Published,91,Helensvale station,"Town Centre Drive, Helensvale, Gold Coast",-27.9258,153.339,Gold Coast,5,Rail fare machine,,go card,SEEQ card,,Buy,Top up,Register,Refund,Change expiry date,,
Published,256,Hemmant station,"38 Hemmant-Tingalpa Road, Hemmant, Brisbane East",-27.4475,153.127,Brisbane East,2,Preloaded reseller,,,,,Top up,,,,,,
Published,429,Hemmant station,"38 Hemmant-Tingalpa Road, Hemmant, Brisbane East",-27.4475,153.127,Brisbane East,5,Rail fare machine,,go card,,,Buy,Top up,Register,Refund,Change expiry date,,
Published,257,Hendra station,"Chermside Street, Hendra, Brisbane North",-27.4222,153.063,Brisbane North,2,Preloaded reseller,,,,,Top up,,,,,,
Published,1126,Hi Surf Apartments,"150 The Esplanade, Burleigh Heads, Queensland, Australia",-28.080915,153.448477,,2,Preloaded reseller,,Gold Coast go explore card,,,Buy,,,,,Gold Coast,
Archived,479,Highland Park News,"104 Alexander Drive (corner Explorers Way), Highland Park, Gold Coast",-27.5217,153.074,Gold Coast,1,Standard retailer,,go card,,,Buy,,,,,Gold Coast,
Published,596,Holland Park Busway,"Holland Park Busway Station, Holland Park, Brisbane South",-27.523145,153.054915,Brisbane South,1,Standard retailer,,go card,,,Buy,Top up,,,,,
Published,1436,Holland Park Newsagency,"1/109 Seville Road, Holland Park, Queensland, Australia",-27.521484,153.074011,Brisbane,1,Standard retailer,,,,,,,,,,Brisbane,
Published,258,Holmview station,"Spanns Road, Beenleigh, Southern",-27.7095,153.187,Southern,2,Preloaded reseller,,,,,Top up,,,,,,
Published,430,Holmview station,"Spanns Road, Beenleigh, Southern",-27.7095,153.187,Southern,5,Rail fare machine,,go card,,,Buy,Top up,Register,Refund,Change expiry date,,
Published,463,IGA Acacia Ridge,"28 Elizabeth Street, Acacia Ridge, Brisbane South",-27.5902,153.027,Brisbane South,1,Standard retailer,,go card,,,Buy,,,,,Brisbane,
Published,647,IGA East Brisbane,"33 Lytton Road, East Brisbane, Brisbane East",-27.47948,153.04446,Brisbane East,1,Standard retailer,,go card,,,Buy,Top up,Change expiry date,,,,
Archived,692,IGA Express Alexandra Headlands,"Shop 1, 152 Alexandra Parade, Alexandra Headlands, Sunshine Coast",-26.668315,153.106435,Sunshine Coast,1,Standard retailer,,go card,,,Buy,,,,,Airlie Beach,
Archived,535,IGA Express Cannon Hill,"965 Wynnum Road, Cannon Hill, Brisbane East",-27.4689,153.09,Brisbane East,1,Standard retailer,,go card,,,Buy,,,,,,
Archived,491,IGA Express Upper Mt Gravatt,"1722 Logan Road, Upper Mount Gravatt, Brisbane South",-27.5481,153.081,Brisbane South,1,Standard retailer,,go card,,,Buy,,,,,Airlie Beach,
Published,542,IGA Express Woolloongabba,"14 Annerley Road, Woolloongabba, Brisbane South",-27.4875,153.029,Brisbane South,1,Standard retailer,,go card,,,Buy,,,,,,
Published,348,IGA Forest Lake,"Corner Forest Lake Boulevard and Woogaroo Street, Forest Lake, Brisbane West",-27.6112,152.959,Brisbane West,1,Standard retailer,,go card,,,Buy,,,,,,
Published,96,Inala Plaza News,"Shop 4, Inala Civic Centre, Corsair Avenue, Inala, Brisbane West",-27.599,152.975,Brisbane West,1,Standard retailer,,go card,,,Buy,Top up,Change expiry date,,,,
Published,259,Indooroopilly station,"Railway Avenue, Indooroopilly, Brisbane West",-27.503,152.976,Brisbane West,2,Preloaded reseller,,,,,Top up,,,,,,
Published,361,Indooroopilly station,"Railway Avenue, Indooroopilly, Brisbane West",-27.503,152.976,Brisbane West,5,Rail fare machine,,go card,,,Buy,Top up,Register,Refund,Change expiry date,,
Published,169,Infinity News,"3215 Logan Road, Underwood, Southern",-27.607,153.11,Southern,1,Standard retailer,,go card,,,Buy,Top up,Change expiry date,,,,
Published,260,International Terminal station,"Airport Drive, Airport (Brisbane), Brisbane East",-27.403,153.109,Brisbane East,2,Preloaded reseller,,,,,Top up,,,,,,
Published,261,Ipswich station,"Bell Street, Ipswich, Western",-27.6129,152.761,Western,2,Preloaded reseller,,,,,Top up,,,,,,
Published,99,Ipswich station,"Bell Street, Ipswich, Western",-27.6129,152.761,Western,5,Rail fare machine,,go card,SEEQ card,,Buy,Top up,Register,Refund,Change expiry date,,
Archived,791,Jetty Newsagency,"95 Redcliffe Parade, Redcliffe, Queensland, Australia",-27.227944,153.115019,Moreton Bay,2,Preloaded reseller,,go card,,,Buy,,,,,Moreton Bay,
Published,560,Jindalee News,"Shop 5, 86 Curragundi Road, Jindalee, Brisbane West",-27.534681,152.935247,Brisbane West,1,Standard retailer,,go card,,,Buy,,,,,Brisbane,
Published,185,Josies and Leo Convenience Store,"212 Cracknell Road, Tarragindi, Brisbane South",-27.5199,153.041,Brisbane South,1,Standard retailer,,go card,,,Buy,,,,,,
Published,1416,JTB Lounge,"3191 Surfers Paradise Boulevard, Surfers Paradise, Queensland, Australia",-27.999085,153.428729,,2,Preloaded reseller,,,,,,,,,,Gold Coast,
Published,336,Junction News and Casket,"Shop 2, 500 Ipswich Road, Annerley, Brisbane South",-27.5112,153.032,Brisbane South,1,Standard retailer,,go card,,,Buy,,,,,,
Published,509,Kallangur Fair News,"1473 Anzac Avenue, Kallangur, Northern",-27.2501,152.999,Northern,1,Standard retailer,,go card,,,Buy,,,,,,
Published,1506,Kallangur News,"1406 Anzac Avenue, Kallangur, Queensland, Australia",-27.250229,152.993461,,1,Standard retailer,,,,,,,,,,Brisbane,
Published,1031,Karana Palms Resort,"40-42 Tarcoola Crescent, Surfers Paradise, Queensland, Australia",-27.999348,153.423854,,2,Preloaded reseller,,Gold Coast go explore card,,,Buy,,,,,Gold Coast,
Published,262,Karrabin station,"Karrabin-Rosewood Road, Karrabin, Western",-27.6045,152.709,Western,2,Preloaded reseller,,,,,Top up,,,,,,
Draft,1521,Kawana Bus Station,"Point Cartwright Drive, Buddina, Queensland, Australia",-26.703187,153.129027,,4,Bus fare machine,,,,,,,,,,Sunshine Coast,
Published,403,Kedron Newsagency and Casket Shop,"359 Gympie Road (cnr Castle Road), Kedron, Brisbane North",-27.4045,153.032,Brisbane North,1,Standard retailer,,go card,,,Buy,,,,,Brisbane,
Published,102,Kelvin Grove News & Post Office,"Victoria Park Road, Queensland University of Technology (C block), Kelvin Grove, Brisbane North",-27.4518,153.015,Brisbane North,1,Standard retailer,,go card,,,Buy,Top up,Change expiry date,,,,
Published,186,Kenmore News & Casket,"2069 Moggill Road , Kenmore, Brisbane West",-27.5085,152.938,Brisbane West,1,Standard retailer,,go card,,,Buy,,,,,Brisbane,
Published,1556,Kenmore Tavern Plaza News,"4/841 Moggill Road, Kenmore, Queensland, Australia",-27.506749,152.948024,,2,Preloaded reseller,,,,,,,,,,Brisbane,
Published,263,Keperra station,"Silvertop Street, Keperra, Brisbane North",-27.409,152.957,Brisbane North,2,Preloaded reseller,,,,,Top up,,,,,,
Published,386,Keperra station,"Silvertop Street, Keperra, Brisbane North",-27.409,152.957,Brisbane North,5,Rail fare machine,,go card,,,Buy,Top up,Register,Refund,Change expiry date,,
Published,474,King George Square busway station,"corner Ann and Roma Streets, access also available from Adelaide Street, Brisbane , Brisbane Central",-27.4669,153.022,Brisbane Central,1,Standard retailer,,go card,,,Buy,Top up,,,,,
Archived,498,Kings Circle News / Caboolture Officesmart,"287 King Street, Caboolture, Northern",-27.076,152.929,Northern,1,Standard retailer,,go card,,,Buy,,,,,Brisbane,
Archived,667,Kingston News,"Kingston Palms Shopping Centre, Cnr Kingston Road and Juers Street, Kingston, Southern",-27.660306,153.117566,Southern,1,Standard retailer,,go card,,,Buy,,,,,Airlie Beach,
Published,264,Kingston station,"Milky Way Street, Kingston, Southern",-27.6574,153.118,Southern,2,Preloaded reseller,,,,,Top up,,,,,,
Published,431,Kingston station,"Milky Way Street, Kingston, Southern",-27.6574,153.118,Southern,5,Rail fare machine,,go card,,,Buy,Top up,Register,Refund,Change expiry date,,
Published,265,Kuraby station,"1370 Beenleigh Road, Kuraby, Southern",-27.6049,153.091,Southern,2,Preloaded reseller,,,,,Top up,,,,,,
Published,381,Kuraby station,"1370 Beenleigh Road, Kuraby, Southern",-27.6049,153.091,Southern,5,Rail fare machine,,go card,,,Buy,Top up,Register,Refund,Change expiry date,,
Archived,546,Kwikimart (a Friendly Grocer Store),"Shop 69, 158 Moray Street, New Farm, Brisbane Central",-27.4701,153.043,Brisbane Central,1,Standard retailer,,go card,,,Buy,,,,,,
Archived,584,Labrador Park Newsagency,"100 Brisbane Road, Labrador, Gold Coast",-27.931558,153.377048,Airlie Beach,1,Standard retailer,,go card,,,Buy,,,,,Airlie Beach,
Published,1616,Landsborough Newsagency,"1/1 Maleny Street, Landsborough, Queensland, Australia",-26.808765,152.964943,Sunshine Coast,2,Preloaded reseller,,,,,,,,,,Sunshine Coast,
Published,266,Landsborough station,"Cribb Street, Landsborough, Sunshine Coast",-26.8084,152.966,Sunshine Coast,2,Preloaded reseller,,,,,Top up,,,,,,
Published,384,Landsborough station,"Cribb Street, Landsborough, Sunshine Coast",-26.8084,152.966,Sunshine Coast,5,Rail fare machine,,go card,,,Buy,Top up,Register,Refund,Change expiry date,,
Published,642,Langlands Busway,"Cnr Old Cleveland Rd and Mains Road, Coorparoo, Brisbane East",-27.498635,153.050149,Brisbane East,1,Standard retailer,,go card,,,Buy,Top up,,,,,
Published,267,Lawnton station,"Station Road, Lawnton, Northern",-27.2816,152.981,Northern,2,Preloaded reseller,,,,,Top up,,,,,,
Published,360,Lawnton station,"Station Road, Lawnton, Northern",-27.2816,152.981,Northern,5,Rail fare machine,,go card,,,Top up,,,,,Brisbane,
Published,268,Lindum station,"Sibley Road, Lindum, Brisbane East",-27.4421,153.145,Brisbane East,2,Preloaded reseller,,,,,Top up,,,,,,
Published,432,Lindum station,"Sibley Road, Lindum, Brisbane East",-27.4421,153.145,Brisbane East,5,Rail fare machine,,go card,,,Buy,Top up,Register,Refund,Change expiry date,,
Published,605,Lockyer Valley Tourist Information Centre,"Lake Apex Drive, Gatton, Western",-27.570008,152.270886,Western,1,Standard retailer,,go card,,,Buy,,,,,,
Archived,544,Logan City News,"Shop 66, Logan City Centre, corner Kingston Road and Wembley Road, Logan Central, Southern",-27.6427,153.119,Southern,1,Standard retailer,,go card,,,Buy,,,,,,
Archived,470,Logan Road News,"1303 Logan Road, Mount Gravatt, Brisbane South",-27.5341,153.075,Brisbane South,1,Standard retailer,,go card,,,Buy,,,,,Airlie Beach,
Published,495,Logandale Plaza News,"Shop 10, Logandale Plaza, Cnr Beenleigh-Redland Bay Road and Logandale Boulevard, Loganholme, Southern",-27.6735,153.211,Southern,1,Standard retailer,,go card,,,Buy,,,,,,
Published,588,Loganholme Bus Interchange,"Cnr Service Rd and Mandew St, Loganholme, Southern",-27.660298,153.173541,Southern,4,Bus fare machine,,go card,,,Buy,Top up,,,,,
Published,269,Loganlea station,"Station Road, Loganlea, Southern",-27.671,153.139,Southern,2,Preloaded reseller,,,,,Top up,,,,,,
Published,374,Loganlea station,"Station Road, Loganlea , Southern",-27.671,153.139,Southern,5,Rail fare machine,,go card,,,Buy,Top up,Register,Refund,Change expiry date,,
Published,270,Lota station,"Railway Terrace, Lota, Brisbane East",-27.4701,153.188,Brisbane East,2,Preloaded reseller,,,,,Top up,,,,,,
Published,433,Lota station,"Railway Terrace, Lota, Brisbane East",-27.4701,153.188,Brisbane East,5,Rail fare machine,,go card,,,Buy,Top up,Register,Refund,Change expiry date,,
Published,706,Lucky 7 Broadwater,"5 Nind Street, Southport, Queensland, Australia",-27.963057,153.413301,Gold Coast,2,Preloaded reseller,,go card,Gold Coast go explore card,,Buy,,,,,Gold Coast,
Published,1406,Lucky 7 Circle,"3184 Surfers Paradise Boulevard, Surfers Paradise, Queensland, Australia",-28.000986,153.42705,,2,Preloaded reseller,,,,,,,,,,Gold Coast,
Published,659,Lucky 7 Edward Street,"Shop 2, 160 Edward Street, Brisbane, Brisbane Central",-27.469461,153.027863,Brisbane Central,1,Standard retailer,,go card,,,Buy,,,,,,
Published,766,Lucky 7 Scarborough Street Convenience,"Shop 3, 34 Scarborough Street, Southport, Queensland, Australia",-27.970686,153.414785,Gold Coast,2,Preloaded reseller,,go card,Gold Coast go explore card,,Buy,,,,,Gold Coast,
Published,796,Lucky 7 Shores,"Shop 414, 1 Como Crescent, Southport, Queensland, Australia",-27.973923,153.418525,,2,Preloaded reseller,,go card,Gold Coast go explore card,,Buy,,,,,Gold Coast,
Published,528,Lucky 7 South Bank,"Shop 4, 166 Grey Street, South Bank, Brisbane Central",-27.4781,153.021,Brisbane Central,1,Standard retailer,,go card,,,Buy,,,,,,
Archived,665,Lucky 7 Southport,"40 Nerang Street, Southport, Gold Coast",-27.967624,153.414542,Gold Coast,1,Standard retailer,,go card,,,Buy,,,,,Gold Coast,
Published,1611,Lucky 7 ?? View Convenience,Shop G38 - Corner of View Avenue and Surfers Paradise Boulevard,-27.997786,153.42889,Gold Coast,2,Preloaded reseller,Shop G38 - Corner of View Avenue and Surfers Paradise Boulevard,,,,,,,,,Gold Coast,
Published,571,Lucky Charm Noosa,"Shop 1069A, Noosa Civic, 28 eenie Creek Road, Noosaville, Sunshine Coast",-26.4158,153.049,Sunshine Coast,1,Standard retailer,,go card,,,Buy,,,,,,
Published,751,Lucky Dragon Newsagency,"Australia Fair, 42 Marine Parade, Southport, Queensland, Australia",-27.969082,153.415665,Gold Coast,2,Preloaded reseller,,go card,Gold Coast go explore card,,Buy,,,,,Gold Coast,
Published,806,Lucky Mermaid News & Gifts,"3/2453 Gold Coast Highway, Mermaid Beach, Queensland, Australia",-28.045714,153.435431,,2,Preloaded reseller,,go card,,,Buy,,,,,Gold Coast,
Published,681,Lytton Road News,"83 Lytton Road, East Brisbane, Brisbane East",-27.479865,153.046272,Brisbane East,1,Standard retailer,,go card,,,Buy,,,,,,
Published,46,Macarthur News,"259 Queen Street, Macarthur Central Building, Brisbane , Brisbane Central",-27.4683,153.027,Brisbane Central,1,Standard retailer,,go card,Visitor Information Pack,,Buy,Top up,Change expiry date,,,Brisbane,
Published,1636,Macgregor News,"342 McCullough Street, Macgregor, Queensland, Australia",-27.571407,153.065128,Brisbane,2,Preloaded reseller,,,,,,,,,,Brisbane,
Published,694,Macleay Island Post Office,"Shop 2, 36 Southsea Terrace, Macleay Island, Eastern",-27.629638,153.364813,Eastern,1,Standard retailer,,go card,,,Buy,,,,,,
Archived,1496,Main Beach News and Supermarket,"19 Tedder Avenue, Main Beach, Queensland, Australia",-27.979344,153.424967,Gold Coast,1,Standard retailer,,,,,,,,,,Gold Coast,
Published,891,Main Beach tram station,"Corner Gold Coast Highway and Tedder Avenue, Main Beach, Queensland, Australia",-27.9821,153.423886,,1,Standard retailer,,go card,,,Buy,Top up,,,,Gold Coast,
Published,736,Manly Harbour Newsagency,"Shop 12, 222 Stratton Terrace, Manly, Queensland, Australia",-27.454744,153.185659,Eastern,1,Standard retailer,,go card,,,Buy,,,,,Brisbane,
Published,271,Manly station,"Ernest Street, Manly, Brisbane East",-27.457,153.18,Brisbane East,2,Preloaded reseller,,,,,Top up,,,,,,
Published,112,Manly station,"Ernest Street, Manly, Brisbane East",-27.457,153.18,Brisbane East,5,Rail fare machine,,go card,,,Buy,Top up,Register,Refund,Change expiry date,,
Published,1036,Mantra Broadbeach on the Park,"2685 Gold Coast Highway, Broadbeach, Queensland, Australia",-28.030702,153.430424,,2,Preloaded reseller,,Gold Coast go explore card,,,Buy,,,,,Gold Coast,
Published,1041,Mantra Sun City,"Ocean Avenue, Surfers Paradise, Queensland, Australia",-27.993107,153.428985,,1,Standard retailer,,Gold Coast go explore card,,,Buy,,,,,Gold Coast,
Published,1466,Margate News and Casket,"270 Oxley Avenue, Margate, Queensland, Australia",-27.244551,153.107871,,2,Preloaded reseller,,,,,,,,,,Brisbane,
Published,1046,Mari Court Resort,"23 Wharf Road, Surfers Paradise, Queensland, Australia",-28.015495,153.430599,,2,Preloaded reseller,,Gold Coast go explore card,,,Buy,,,,,Gold Coast,
Published,1131,Markham Court,"36 Australia Avenue, Broadbeach, Queensland, Australia",-28.024987,153.43078,,2,Preloaded reseller,,Gold Coast go explore card,,,Buy,,,,,Gold Coast,
Published,821,Maroochydore Bus Station,"Horton Parade, Maroochydore, Queensland, Australia",-26.654875,153.091151,,4,Bus fare machine,,go card,,,Buy,,,,,Sunshine Coast,
Published,562,Mary Ryans Bookstore,"40 Park Road, Milton, Brisbane West",-27.4713,153.005,Brisbane West,1,Standard retailer,,go card,,,Buy,,,,,Brisbane,
Published,39,Mary Street News,"Shop 4, 100 Edward Street , Brisbane , Brisbane Central",-27.4704,153.029,Brisbane Central,1,Standard retailer,,go card,Visitor Information Pack,,Buy,Top up,Change expiry date,,,Brisbane,
Published,473,Mater Hill busway station,"Stanley Street, opposite Mater Public Hospital, South Brisbane, Brisbane Central",-27.4842,153.028,Brisbane Central,1,Standard retailer,,go card,,,Buy,Top up,,,,,
Published,178,Mater News Central,"550 Stanley Street, Woolloongabba, Brisbane South",-27.4848,153.028,Brisbane South,1,Standard retailer,,go card,SEEQ card,Visitor Information Pack,Buy,Top up,Register,Refund,Change expiry date,Brisbane,
Published,672,Matilda Broadbeach,"75 T.E. Peters Drive , Broadbeach, Gold Coast",-28.026559,153.420625,Gold Coast,1,Standard retailer,,go card,,,Buy,,,,,,
Published,98,Metro News Indooroopilly,"Level 3, Indooroopilly Shoppingtown, Indooroopilly, Brisbane West",-27.4976,152.974,Brisbane West,1,Standard retailer,,go card,SEEQ card,Visitor Information Pack,Buy,Top up,Register,Refund,Change expiry date,Brisbane,
Published,1481,Metro News On 1st (Level 1),"Indooroopilly Shopping Centre, Moggill Road, Indooroopilly, Queensland, Australia",-27.499652,152.972679,,1,Standard retailer,,,,,,,,,,Brisbane,
Archived,508,Metropolitan South Institute of TAFE - Alexandra Hills Campus,"Customer Service Centre, A block, Windemere Road, Alexandra Hills, Eastern",-27.5311,153.216,Eastern,1,Standard retailer,,go card,,,Buy,,,,,South East Queensland,
Archived,678,Metropolitan South Institute of TAFE - Browns Plains,"61 Grand Plaza Drive, Browns Plains, Brisbane South",-27.664773,153.04178,Brisbane South,1,Standard retailer,,go card,,,Buy,,,,,Airlie Beach,
Archived,507,Metropolitan South Institute of TAFE - Mt Gravatt Campus,"Customer Service Centre, F block, 1030 Cavendish Road, Mount Gravatt, Brisbane South",-27.5253,153.091,Brisbane South,1,Standard retailer,,go card,,,Buy,,,,,Airlie Beach,
Archived,40,Midas News and Casket,"363 Adelaide Street, Brisbane , Brisbane Central",-27.4649,153.03,Brisbane Central,1,Standard retailer,,go card,,,Buy,Top up,Change expiry date,,,,
Published,561,Middle Park News,"Park Village Shopping Centre, 92 Horizon Drive, Middle Park, Brisbane West",-27.555213,152.923094,Brisbane West,1,Standard retailer,,go card,,,Buy,,,,,Brisbane,
Published,398,Midway News and Casket,"Shop 2, 544 Oxley Avenue, Redcliffe, Northern",-27.2173,153.112,Northern,1,Standard retailer,,go card,,,Buy,,,,,,
Published,119,Milton News Centre,"Shop 3, Milton Shopping Centre, Baroona Road, Milton, Brisbane West",-27.4685,153.003,Brisbane West,1,Standard retailer,,go card,,,Buy,Top up,Change expiry date,,,,
Published,365,Milton station ,"Milton Road, Milton, Brisbane West",-27.4686,153.006,Brisbane West,5,Rail fare machine,,go card,,,Buy,Top up,Register,Refund,Change expiry date,Brisbane,
Published,272,Milton station,"Milton Road, Milton, Brisbane West",-27.4686,153.006,Brisbane West,6,Rail ticket office,,,,,Top up,,,,,Brisbane,
Published,41,Mineral House News,"41 George Street, Brisbane , Brisbane Central",-27.473771,153.026526,Brisbane Central,1,Standard retailer,,go card,Visitor Information Pack,,Buy,Top up,Change expiry date,,,Brisbane,
Published,120,Mitchelton station,"McConaghy Street, Mitchelton, Brisbane North",-27.4115,152.976,Brisbane North,5,Rail fare machine,,go card,,,Buy,Top up,Register,Refund,Change expiry date,Brisbane,
Published,273,Mitchelton station,"McConaghy Street, Mitchelton, Brisbane North",-27.4115,152.976,Brisbane North,6,Rail ticket office,,,,,Top up,,,,,Brisbane,
Published,532,Moffat Beach News,"6 Seaview Terrace, Moffat Beach, Sunshine Coast",-26.7899,153.142,Sunshine Coast,1,Standard retailer,,go card,,,Buy,,,,,,
Published,274,Mooloolah station," Mooloolah Connection Road, Mooloolah Valley, Sunshine Coast",-26.7653,152.963,Sunshine Coast,2,Preloaded reseller,,,,,Top up,,,,,,
Published,664,Moorooka Foodstore and News,"419 Beaudesert Road, Moorooka, Brisbane South",-27.543033,153.020663,Brisbane South,1,Standard retailer,,go card,,,Buy,,,,,,
Archived,465,Moorooka News,"1131 Ipswich Rd, Moorooka, Brisbane South",-27.535,153.014,Brisbane South,1,Standard retailer,,go card,,,Buy,,,,,,
Published,275,Moorooka station,"1151 Ipswich Road, Moorooka, Brisbane South",-27.5355,153.014,Brisbane South,2,Preloaded reseller,,,,,Top up,,,,,,
Published,434,Moorooka station,"1151 Ipswich Road, Moorooka, Brisbane South",-27.5355,153.014,Brisbane South,5,Rail fare machine,,go card,,,Buy,Top up,Register,Refund,Change expiry date,,
Published,187,Moorvale News,"186 Beaudesert Road, Moorooka, Brisbane South",-27.5326,153.025,Brisbane,1,Standard retailer,,go card,,,Buy,,,,,Brisbane,
Published,276,Morayfield station,"Visentin Road, Morayfield, Northern",-27.1098,152.952,Northern,2,Preloaded reseller,,,,,Top up,,,,,,
Published,123,Morayfield station,"Visentin Road, Morayfield, Northern",-27.1098,152.952,Northern,5,Rail fare machine,,go card,,,Buy,Top up,Register,Refund,Change expiry date,,
Published,1681,Morningside Central News,"Shop 11, 25 Junction Road, Morningside, Queensland, Australia",-27.466104,153.080204,Brisbane,1,Standard retailer,,,,,,,,,,Brisbane,
Published,689,Morningside News and Casket,"595 Wynnum Road, Morningside, Brisbane East",-27.468872,153.071304,Brisbane,2,Preloaded reseller,,go card,,,Buy,,,,,Brisbane,
Published,277,Morningside station,"Waminda Street, Morningside, Brisbane East",-27.4705,153.07,Brisbane East,2,Preloaded reseller,,,,,Top up,,,,,,
Published,376,Morningside station,"Waminda Street, Morningside, Brisbane East",-27.4705,153.07,Brisbane East,5,Rail fare machine,,go card,,,Buy,Top up,Register,Refund,Change expiry date,,
Published,1666,Mountain View News,"967 Logan Road, Holland Park West, Queensland, Australia",-27.519645,153.061564,Brisbane,2,Preloaded reseller,,,,,,,,,,Brisbane,
Archived,522,Mt Gravatt East Post Office,"Shop 3, 8 Carrara Street, Mount Gravatt East, Brisbane South",-27.5239,153.081,Brisbane,1,Standard retailer,,go card,,,Buy,,,,,Brisbane,
Published,278,Murarrie station,"Murrarie Road, Murarrie, Brisbane East",-27.4648,153.105,Brisbane East,2,Preloaded reseller,,,,,Top up,,,,,,
Published,435,Murarrie station,"Murarrie Road, Murarrie, Brisbane East",-27.4648,153.105,Brisbane East,5,Rail fare machine,,go card,,,Buy,Top up,Register,Refund,Change expiry date,,
Published,502,Nambour News and Casket,"Centenary Square, Currie St, Nambour, Sunshine Coast",-26.6278,152.959,Sunshine Coast,1,Standard retailer,,go card,,,Buy,,,,,,
Published,279,Nambour station,"Civic Way, Nambour, Sunshine Coast",-26.6258,152.958,Sunshine Coast,2,Preloaded reseller,,,,,Top up,,,,,,
Published,125,Nambour station,"Civic Way, Nambour, Sunshine Coast",-26.6258,152.958,Sunshine Coast,5,Rail fare machine,,go card,SEEQ card,,Buy,Top up,Register,Refund,Change expiry date,,
Published,1661,Narangba Licensed Post Office,"36 Main Street, Narangba, Queensland, Australia",-27.202777,152.959402,Brisbane,2,Preloaded reseller,,,,,,,,,,Brisbane,
Published,280,Narangba station,"448 Burpengary Road, Narangba, Northern",-27.2029,152.961,Northern,2,Preloaded reseller,,,,,Top up,,,,,,
Published,436,Narangba station,"448 Burpengary Road, Narangba, Northern",-27.2029,152.961,Northern,5,Rail fare machine,,go card,,,Buy,Top up,Register,Refund,Change expiry date,,
Published,580,Narangba Valley News,"Shop 6, 212 Young Road, Narangba, Northern",-27.173203,152.936888,Northern,1,Standard retailer,,go card,,,Buy,,,,,,
Published,126,Nathan Post Office,"Kessels Road, Community Centre, Griffith University, Nathan, Brisbane South",-27.5529,153.054,Brisbane South,1,Standard retailer,,go card,SEEQ card,Visitor Information Pack,Buy,Top up,Register,Refund,Change expiry date,Brisbane,
Published,1051,Neptune Resort,"32 Surf Parade, Broadbeach, Queensland, Australia",-28.033787,153.431294,,2,Preloaded reseller,,Gold Coast go explore card,,,Buy,,,,,Gold Coast,
Published,281,Nerang station,"Warrener Street, Nerang, Gold Coast",-27.9943,153.35,Gold Coast,2,Preloaded reseller,,,,,Top up,,,,,,
Published,127,Nerang station,"Warrener Street, Nerang, Gold Coast",-27.9943,153.35,Gold Coast,5,Rail fare machine,,go card,,,Buy,Top up,Register,Refund,Change expiry date,,
Published,836,Nerang Street tram station,"Corner Nerang Street and Cougal Street, Southport, Queensland, Australia",-27.971077,153.407677,,1,Standard retailer,,go card,,,Buy,Top up,,,,Gold Coast,
Published,569,Newmarket Post Office,"Shop 123, 400 Newmarket Road, Newmarket, Brisbane North",-27.4371,153.007,Brisbane North,1,Standard retailer,,go card,,,Buy,,,,,,
Published,282,Newmarket station,"Abuklea Street, Newmarket, Brisbane North",-27.4328,153.011,Brisbane North,2,Preloaded reseller,,,,,Top up,,,,,,
Published,437,Newmarket station,"Abuklea Street, Newmarket, Brisbane North",-27.4328,153.011,Brisbane North,5,Rail fare machine,,go card,,,Buy,Top up,Register,Refund,Change expiry date,,
Published,1451,News Bulletin,"6/75 Braun Street, Deagon, Queensland, Australia",-27.330283,153.057646,,1,Standard retailer,,,,,,,,,,Brisbane,
Archived,355,News Extra Central Plaza,"Shop 59, Logan Central Plaza, Wembley Rd, Logan Central, Southern",-27.6429,153.114,Southern,1,Standard retailer,,go card,,,Buy,,,,,Airlie Beach,
Published,499,News Extra Gumdale,"Shop 4, 696 New Cleveland Road, Gumdale, Eastern",-27.4905,153.153,Eastern,1,Standard retailer,,go card,,,Buy,,,,,Brisbane,
Archived,543,News on Kameruka,"corner Beaudesert Road and Kameruka Street, Calamvale, Brisbane South",-27.624,153.049,Brisbane South,1,Standard retailer,,go card,,,Buy,,,,,,
Published,63,NewsExtra Capalaba,"Shop 77, Capalaba Central Shopping Centre, Moreton Bay Road, Capalaba, Eastern",-27.5231,153.194,Eastern,1,Standard retailer,,go card,,,Buy,,,,,,
Published,682,NewsExtra Everton Park,"Shop 2/801 Stafford Road , Everton Park, Brisbane North",-27.406636,152.992052,Brisbane North,1,Standard retailer,,go card,,,Buy,,,,,,
Archived,468,NewsXpress Albany Creek,"Corner Old Northern Rd and Albany Forest Drive, Albany Creek, Brisbane North",-27.3581,152.969,Brisbane North,1,Standard retailer,,go card,,,Buy,,,,,Brisbane,
Published,356,NewsXpress Alexandra Hills,"Shop 9, Alexandra Hills Shopping Centre, Cnr Finucane Road and Cambridge Drive, Alexandra Hills, Eastern",-27.5246,153.221,Eastern,1,Standard retailer,,go card,,,Buy,,,,,,
Published,531,NewsXpress Arana Hills,"Shop 13B, Kmart Plaza, corner Patricks Road and Dawsons Parade, Arana Hills, Brisbane North",-27.3973,152.961,Brisbane North,1,Standard retailer,,go card,,,Buy,,,,,Brisbane,
Published,61,NewsXpress Caboolture,"Matthew Terrace, corner James Street, Caboolture, Northern",-27.0833,152.953,Northern,1,Standard retailer,,go card,SEEQ card,Visitor Information Pack,Buy,Top up,Register,Refund,Change expiry date,,
Published,147,NewsXpress Chancellor Park ,"Shop 7, Chancellor Park, Marketplace University Way, Sippy Downs, Sunshine Coast",-26.7152,153.055,Sunshine Coast,1,Standard retailer,,go card,,,Buy,Top up,Change expiry date,,,,
Published,1176,Newsxpress Coomera,"133 Finnegan Way, Coomera, Queensland, Australia",-27.84369,153.32816,,2,Preloaded reseller,,go card,Gold Coast go explore card,,Buy,,,,,Gold Coast,
Published,585,NewsXpress Deception Bay,"Shop 16 Deception Bay SC, Bay Avenue, Deception Bay, Northern",-27.19383,153.029327,Northern,1,Standard retailer,,go card,SEEQ card,Visitor Information Pack,Buy,Top up,Register,Refund,Change expiry date,,
Published,607,NewsXpress Gatton,"6/6 Railway Street, Gatton, Western",-27.555952,152.277841,Western,1,Standard retailer,,go card,,,Buy,,,,,,
Published,357,NewsXpress Harbour Town,"Shop M2 Harbour Town Shopping Centre, Cnr Brisbane Road &amp; Oxley Drive, Biggera Waters, Gold Coast",-27.931705,153.387871,Gold Coast,1,Standard retailer,,go card,Gold Coast go explore card,,Buy,Top up,Register,Refund,Change expiry date,Gold Coast,
Published,572,NewsXpress Jimboomba,"Shop 10, Junction Shopping Centre, Cusack Lane, Jimboomba, Southern",-27.830644,153.026739,Southern,1,Standard retailer,,go card,,,Buy,,,,,,
Published,670,NewsXpress Kawana,"Shop 353 Kawana Shopping World, Point Cartwright Drive, Kawana, Sunshine Coast",-26.70291,153.128403,Sunshine Coast,1,Standard retailer,,go card,SEEQ card,Visitor Information Pack,Buy,Top up,Register,Refund,Change expiry date,,
Published,608,NewsXpress Manly,"Shop 9 Mayfair on Manly SC, Cnr Manly and Hargreaves Rd, Manly West, Eastern",-27.475372,153.154778,Eastern,1,Standard retailer,,go card,,,Buy,,,,,,
Archived,656,NewsXpress Middle Park,"Shop 27-28 Park Village Shops, Middle Park, Brisbane West",-27.55529,152.923292,Brisbane West,1,Standard retailer,,go card,,,Buy,,,,,,
Published,50,NewsXpress Myer Centre Level E,"Queen Street Mall, Myer Centre (level E), Brisbane , Brisbane Central",-27.4709,153.024,Brisbane Central,1,Standard retailer,,go card,Visitor Information Pack,,Buy,Top up,Change expiry date,,,Brisbane,
Archived,343,NewsXpress Nerang,"74 Nerang-Beaudesert Road, Nerang, Gold Coast",-27.9933,153.332,Gold Coast,1,Standard retailer,,go card,,,Buy,,,,,,
Published,731,NewsXpress Noosa Heads,"Shop 18, 20 Hastings Street, Noosa Heads, Queensland, Australia",-26.386933,153.089098,Sunshine Coast,2,Preloaded reseller,,go card,,,Buy,,,,,,
Published,503,Newsxpress Noosaville,"Shop 2, 199 Gympie Terrace , Noosaville, Sunshine Coast",-26.3986,153.062,Sunshine Coast,1,Standard retailer,,go card,,,Buy,,,,,,
Published,776,NewsXpress North Lakes,"Lakefield Drive, North Lakes, Queensland, Australia",-27.238184,153.015968,Northern,2,Preloaded reseller,,go card,,,Buy,,,,,,
Published,685,NewsXpress Redcliffe,"20 Anzac Avenue, Redcliffe, Northern",-27.230745,153.115212,Northern,1,Standard retailer,,go card,,,Buy,,,,,,
Published,652,NewsXpress Robina Town Centre,"Market Hall Robina Town Centre, Robina Town Centre Drive, Robina, Queensland, Australia",-28.077591,153.385406,Gold Coast,1,Standard retailer,,go card,Gold Coast go explore card,,Buy,Top up,Register,Refund,Change expiry date,Gold Coast,
Published,761,NewsXpress Southport Park,"Shop 20, Southport Park Shopping Centre, Ferry Road, Southport, Queensland, Australia",-27.985951,153.410518,Gold Coast,2,Preloaded reseller,,go card,,,Buy,,,,,,
Published,166,NewsXpress The Gap,"The Gap Village, 1000 Waterworks Road, The Gap (Brisbane City), Brisbane North",-27.445,152.952,Brisbane North,1,Standard retailer,,go card,,,Buy,Top up,Change expiry date,,,,
Published,619,NewsXpress The Pines,"Shop 29 The Pines Shopping Centre, Guineas Creek Road, Elanora, Gold Coast",-28.135343,153.469333,Gold Coast,1,Standard retailer,,go card,,,Buy,,,,,,
Published,610,Newsxpress Toowong Village,"9 Sherwood Road, Toowong, Brisbane West",-27.48533,152.99154,Brisbane West,1,Standard retailer,,go card,,,Buy,,,,,,
Published,648,NewsXpress Westpoint,"Westpoint Plaza, Browns Plains Road, Browns Plains, Brisbane South",-27.660573,153.040452,Brisbane South,1,Standard retailer,,go card,SEEQ card,Visitor Information Pack,Buy,Top up,Register,Refund,Change expiry date,Brisbane,
Published,1211,Newtons Newsagency,"49 Wharf Street, Tweed Heads, New South Wales, Australia",-28.171647,153.542848,,2,Preloaded reseller,,go card,,,Buy,,,,,Gold Coast,
Archived,504,Nextra Beenleigh Marketplace,"Shop 31, Beenleigh Marketplace, George Street, Beenleigh, Southern",-27.7162,153.201,Southern,1,Standard retailer,,go card,,,Buy,,,,,,
Published,1501,Nextra Booval,"Booval Fair, Brisbane Road, Booval, Queensland, Australia",-27.61511,152.789748,,1,Standard retailer,,,,,,,,,,Ipswich,
Published,469,Nextra Bribie Island News,"Bribie Island Shopping Centre, Bongaree, Queensland, Australia",-27.064302,153.157087,Northern,1,Standard retailer,,go card,SEEQ card,,Buy,Top up,Register,Refund,Change expiry date,Brisbane,
Published,1461,Nextra Browns Plains,"Grand Plaza Shopping Centre, Browns Plains Road, Browns Plains, Queensland, Australia",-27.662644,153.040967,,1,Standard retailer,,,,,,,,,,Brisbane,
Published,524,Nextra Burleigh Heads,"Stockland Burleigh Shopping Centre, West Burleigh Road, Burleigh Heads, Gold Coast",-28.096893,153.442285,Gold Coast,1,Standard retailer,,go card,Gold Coast go explore card,,Buy,Top up,Register,Refund,Change expiry date,Gold Coast,
Published,62,Nextra Cannon Hill,"K-Mart Plaza, Creek Road, Cannon Hill, Brisbane East",-27.4711,153.098,Brisbane East,1,Standard retailer,,go card,,,Buy,Top up,Change expiry date,,,,
Published,641,Nextra Capalaba Park News,"Capalaba Park Shopping Centre, Redland Bay Rd, Capalaba, Eastern",-27.524102,153.191099,Eastern,1,Standard retailer,,go card,,,Buy,Top up,Change expiry date,,,,
Published,1441,Nextra Carindale City News,"Lower Level, Westfield Carindale, Creek Road, Carindale, Queensland, Australia",-27.502998,153.101627,,1,Standard retailer,,,,,,,,,,Brisbane,
Published,65,Nextra Carindale News,"Upper Level Westfield Carindale, Creek Road, Carindale, Brisbane East",-27.504137,153.10215,Brisbane East,1,Standard retailer,,go card,SEEQ card,Visitor Information Pack,Buy,Top up,Register,Refund,Change expiry date,Brisbane,
Published,66,Nextra Chermside,"Westfield Shopping Centre, Gympie Road, Chermside, Brisbane North",-27.3854,153.033,Brisbane North,1,Standard retailer,,go card,SEEQ card,Visitor Information Pack,Buy,Top up,Register,Refund,Change expiry date,Brisbane,
Published,7,Nextra Day and Night News,"1374 Gympie Road, Aspley, Brisbane North",-27.3626,153.017,Brisbane North,1,Standard retailer,,go card,,,Buy,Top up,Change expiry date,,,,
Published,1476,Nextra Express Chermside,"Westfield Chermside, Hamilton Road, Chermside, Queensland, Australia",-27.384486,153.032094,,1,Standard retailer,,,,,,,,,,Brisbane,
Published,551,Nextra Garden City Lower Level,"Westfield Garden City (lower level, opposite Coles), Logan Road, Mount Gravatt, Brisbane South",-27.5634,153.082,Brisbane South,1,Standard retailer,,go card,,,Buy,Top up,Change expiry date,,,Brisbane,
Published,695,Nextra Garden City Upper Level,"Westfield Garden City (Upper level, near food court), Logan Road, Mount Gravatt, Brisbane South",-27.5641,153.082,Brisbane South,1,Standard retailer,,go card,SEEQ card,,Buy,Top up,Register,Refund,Change expiry date,Brisbane,
Published,94,Nextra General Hospital News,"Ned Hanlon Building, Royal Brisbane Hospital, Herston, Brisbane North",-27.4475,153.029,Brisbane North,1,Standard retailer,,go card,Visitor Information Pack,,Buy,Top up,Change expiry date,,,Brisbane,
Published,700,Nextra Hyperdome,"Shop 128 Logan Hyperdome, Cnr Pacific Highway and Bryants Road, Loganholme, Southern",-27.6603,153.174,Southern,1,Standard retailer,,go card,SEEQ card,,Buy,Top up,Register,Refund,Change expiry date,,
Published,527,Nextra Kenmore Village News,"Shop 50, Kenmore Village, Brookfield Road, Kenmore, Brisbane West",-27.5072,152.94,Brisbane West,1,Standard retailer,,go card,,,Buy,,,,,,
Published,337,Nextra Lutwyche,"Shop 24, 543 Lutwyche Rd, Lutwyche, Brisbane North",-27.422,153.034,Brisbane North,1,Standard retailer,,go card,,,Buy,,,,,Brisbane,
Published,654,Nextra Mt Ommaney,"Mt Ommaney Shopping Centre, 171 Dandenong Road, Mount Ommaney, Brisbane West",-27.54897,152.938354,Brisbane West,1,Standard retailer,,go card,SEEQ card,Visitor Information Pack,Buy,Top up,Register,Refund,Change expiry date,Brisbane,
Published,520,Nextra Orion Newsagency,"Shop 29, 1 Main Street Orion Springfield, Springfield, Brisbane West",-27.6776,152.902,Brisbane West,1,Standard retailer,,go card,,,Buy,Top up,Change expiry date,,,,
Published,511,Nextra Peninsula Fair News,"Peninsula Fair Shopping Centre, Anzac Ave, Kippa-Ring, Northern",-27.2256,153.088,Northern,1,Standard retailer,,go card,,,Buy,Top up,Change expiry date,,,,
Published,1201,Nextra Riverlink News,"Riverlink Shopping Centre, North Ipswich, Queensland, Australia",-27.608385,152.759836,,2,Preloaded reseller,,go card,,,Buy,,,,,Ipswich,
Published,192,Nextra Toombul,"Sandgate Road, Toombul, Brisbane North",-27.4086,153.061,Brisbane North,1,Standard retailer,,go card,,,Buy,,,,,Brisbane,
Published,407,Nextra Wynnum Plaza,"Shop 20, Wynnum Plaza Shopping Centre, 2021 Wynnum Road, Wynnum West, Eastern",-27.4568,153.156,Eastern,1,Standard retailer,,go card,,,Buy,Top up,Change expiry date,,,,
Archived,497,Nibble Coffee and Convenience Store,"83 Hardgrave Road, West End (Brisbane City), Brisbane South",-27.4827,153.007,Brisbane South,1,Standard retailer,,go card,,,Buy,,,,,Brisbane,
Published,512,Night Owl ,"660 Brunswick Street, New Farm, Brisbane Central",-27.4632,153.042,Brisbane Central,1,Standard retailer,,go card,,,Buy,Top up,Change expiry date,,,,
Published,1196,Night Owl Boondall,"1968 Sandgate Road, Boondall, Queensland, Australia",-27.363933,153.061561,,2,Preloaded reseller,,go card,,,Buy,,,,,Brisbane,
Archived,565,Night Owl Brunswick Street,"Shop 2B, Valley Mall, 312-318 Brunswick Street, Fortitude Valley, Brisbane Central",-27.458,153.035,Brisbane Central,1,Standard retailer,,go card,,,Buy,,,,,,
Published,579,Night Owl Highgate Hill,"Shop 2, 34 B Gladstone Road, Highgate Hill, Brisbane South",-27.4845,153.02,Brisbane South,1,Standard retailer,,go card,,,Buy,,,,,,
Published,1216,Night Owl Mermaid Beach,"2375 Gold Coast Highway, Mermaid Beach, Queensland, Australia",-28.049584,153.436301,,2,Preloaded reseller,,go card,Gold Coast go explore card,,Buy,,,,,Gold Coast,
Published,1186,Night Owl North Lakes,"Shop 1, 3 College Street, North Lakes, Queensland, Australia",-27.232057,153.022332,,2,Preloaded reseller,,go card,,,Buy,,,,,Brisbane,
Archived,636,Night Owl Palm Beach,"1160 Gold Coast Highway, Palm Beach, Gold Coast",-28.119505,153.471363,Gold Coast,1,Standard retailer,,go card,,,Buy,,,,,Airlie Beach,
Published,1221,Night Owl Robina,"Easy T Shopping Centre, Scottsdale Drive & Christine Avenue, Robina, Queensland, Australia",-28.084951,153.391622,,2,Preloaded reseller,,go card,Gold Coast go explore card,,Buy,,,,,Gold Coast,
Archived,1226,Night Owl Southport,"201 Ferry Road, Southport, Queensland, Australia",-27.989739,153.412273,Gold Coast,2,Preloaded reseller,,go card,Gold Coast go explore card,,Buy,,,,,Gold Coast,
Published,1191,Night Owl Stones Corner,"476 Logan Road, Greenslopes, Queensland, Australia",-27.503265,153.04764,,2,Preloaded reseller,,go card,,,Buy,,,,,Brisbane,
Published,1231,Night Owl Surfers South,"3031 Gold Coast Highway, Surfers Paradise, Queensland, Australia",-28.005486,153.429112,,2,Preloaded reseller,,go card,Gold Coast go explore card,,Buy,,,,,Gold Coast,
Published,578,Night Owl West End,"Shop 1, 158 Boundary St, West End (Brisbane City), Brisbane South",-27.4814,153.012,Brisbane South,1,Standard retailer,,go card,,,Buy,,,,,,
Archived,549,Night Owl Wickham Street,"Chopstix Arcade, 210 Wickham Street, Fortitude Valley, Brisbane Central",-27.4574,153.033,Brisbane Central,1,Standard retailer,,go card,,,Buy,,,,,,
Published,545,Nobby Beach Newsagency,"Shop 1, 2239 Gold Coast Highway, Mermaid Beach, Gold Coast",-28.0587,153.438,Gold Coast,2,Preloaded reseller,,go card,Gold Coast go explore card,,Buy,,,,,Gold Coast,
Published,649,Noosa Junction Bus Interchange,"Sunshine Beach Rd and Lanyana Way, Noosa Heads, Sunshine Coast",-26.399192,153.093399,Sunshine Coast,4,Bus fare machine,,go card,,,Buy,Top up,,,,,
Archived,575,Noosa Junction Newsagency,"Shop 1/26 Sunshine Beach Rd, Noosa Heads, Sunshine Coast",-26.398385,153.091521,Sunshine Coast,1,Standard retailer,,go card,,,Buy,,,,,Airlie Beach,
Archived,651,Noosa Plaza Newsagency,"Shop 3, Noosa Junction Plaza, Noosa Heads, Sunshine Coast",-26.39659,153.089624,Sunshine Coast,1,Standard retailer,,go card,,,Buy,,,,,Airlie Beach,
Published,397,Noosa Village News,"Shop 12, Noosa Village Shopping Centre, Gibson Road, Noosaville, Sunshine Coast",-26.4014,153.065,Sunshine Coast,1,Standard retailer,,go card,,,Buy,,,,,,
Archived,684,Noosa Visitor Information Centre,"61 Hastings Street, Noosa Heads, Sunshine Coast",-26.386766,153.091411,Sunshine Coast,1,Standard retailer,,go card,,,Buy,,,,,Airlie Beach,
Published,550,Norfolk News,"Norfolk Village Shopping Centre, 174-178 Pascoe Road, Ormeau, Southern",-27.7639,153.245,Southern,1,Standard retailer,,go card,,,Buy,,,,,,
Published,563,Norman Park Central News,"Shop 1, 183 Bennetts Road, Norman Park, Brisbane East",-27.4759,153.066,Brisbane East,1,Standard retailer,,go card,,,Buy,,,,,,
Published,1446,Norman Park Central News,"1/183 Bennetts Road, Morningside, Queensland, Australia",-27.483568,153.064402,,1,Standard retailer,,,,,,,,,,Brisbane,
Published,283,Norman Park station,"Waite Street, Norman Park, Brisbane East",-27.4818,153.062,Brisbane East,2,Preloaded reseller,,,,,Top up,,,,,,
Published,438,Norman Park station,"Waite Street, Norman Park, Brisbane East",-27.4818,153.062,Brisbane East,5,Rail fare machine,,go card,,,Buy,Top up,Register,Refund,Change expiry date,,
Published,597,Normanby Busway,"Normanby Busway Station, Red Hill (Brisbane City), Brisbane North",-27.458927,153.01509,Brisbane North,1,Standard retailer,,go card,,,Buy,Top up,,,,,
Published,284,North Boondall station,"Aberdeen Street North, Boondall, Brisbane North",-27.339,153.061,Brisbane North,2,Preloaded reseller,,,,,Top up,,,,,,
Published,439,North Boondall station,"Aberdeen Street North, Boondall, Brisbane North",-27.339,153.061,Brisbane North,5,Rail fare machine,,go card,,,Buy,Top up,Register,Refund,Change expiry date,,
Archived,393,North Greenslopes News,"Shop 1, 589 Logan Road, Greenslopes, Brisbane South",-27.5074,153.051,Brisbane South,1,Standard retailer,,go card,,,Buy,,,,,,
Published,721,North Lakes Bus Interchange,"Endeavour Boulevard and The Corso, North Lakes, Queensland, Australia",-27.238653,153.017466,Northern,4,Bus fare machine,,go card,,,Buy,Top up,,,,,
Published,472,North Wavell News,"151 Hamilton Road, Wavell Heights, Brisbane North",-27.3893,153.05,Brisbane North,1,Standard retailer,,go card,,,Buy,,,,,,
Published,926,Northcliffe tram station,"Corner Surfers Paradise Boulevard and Vista Street, Surfers Paradise, Queensland, Australia",-28.009639,153.42946,,1,Standard retailer,,go card,,,Buy,Top up,,,,Gold Coast,
Published,405,Northgate News,"111 Ridge Street, Northgate, Brisbane North",-27.3903,153.066,Brisbane North,1,Standard retailer,,go card,,,Buy,,,,,,
Published,285,Northgate station,"Cnr Ryan &amp; Holland Street, Northgate, Brisbane North",-27.3936,153.069,Brisbane North,2,Preloaded reseller,,,,,Top up,,,,,,
Published,130,Northgate station,"Ryan Street, corner Holland Street, Northgate, Brisbane North",-27.3936,153.069,Brisbane North,5,Rail fare machine,,go card,,,Buy,Top up,Register,Refund,Change expiry date,,
Published,1676,Nottingham Road News,"Shop 8, 2605 Beaudesert Road, Calamvale, Queensland, Australia",-27.630829,153.045734,Brisbane,1,Standard retailer,,,,,,,,,,Brisbane,
Published,286,Nudgee station,"Railway Street, Nudgee, Brisbane North",-27.3656,153.084,Brisbane North,2,Preloaded reseller,,,,,Top up,,,,,,
Published,440,Nudgee station,"Railway Street, Nudgee, Brisbane North",-27.3656,153.084,Brisbane North,5,Rail fare machine,,go card,,,Buy,Top up,Register,Refund,Change expiry date,,
Published,287,Nundah station,"Station Street, Nundah, Brisbane North",-27.4009,153.062,Brisbane North,2,Preloaded reseller,,,,,Top up,,,,,,
Published,369,Nundah station,"Station Street, Nundah, Brisbane North",-27.4009,153.062,Brisbane North,5,Rail fare machine,,go card,,,Buy,Top up,Register,Refund,Change expiry date,,
Published,288,Ormeau station,"200 Mirambeena Drive, Pimpama, Southern",-27.7991,153.282,Southern,2,Preloaded reseller,,,,,Top up,,,,,,
Published,441,Ormeau station,"200 Mirambeena Drive, Pimpama, Southern",-27.7991,153.282,Southern,5,Rail fare machine,,go card,,,Buy,Top up,Register,Refund,Change expiry date,,
Published,289,Ormiston station,"Wellington Street, Ormiston, Eastern",-27.5146,153.256,Eastern,2,Preloaded reseller,,,,,Top up,,,,,,
Published,442,Ormiston station,"Wellington Street, Ormiston, Eastern",-27.5146,153.256,Eastern,5,Rail fare machine,,go card,,,Buy,Top up,Register,Refund,Change expiry date,,
Published,1056,Outrigger Twin Towns Resort,"Griffith Street, Coolangatta, Queensland, Australia",-28.169044,153.542908,,2,Preloaded reseller,,Gold Coast go explore card,,,Buy,,,,,Gold Coast,
Published,290,Oxford Park station,"Scanlan Road, Mitchelton, Brisbane North",-27.4042,152.968,Brisbane North,2,Preloaded reseller,,,,,Top up,,,,,,
Published,443,Oxford Park station,"Scanlan Road, Mitchelton, Brisbane North",-27.4042,152.968,Brisbane North,5,Rail fare machine,,go card,,,Buy,Top up,Register,Refund,Change expiry date,,
Published,691,Oxford Street News,"134 Oxford Street, Bulimba, Brisbane South",-27.451,153.058,Brisbane South,1,Standard retailer,,go card,,,Buy,Top up,Change expiry date,,,,
Archived,466,Oxley Newsagency,"94 Cook Street, Oxley, Brisbane South",-27.5527,152.974,Brisbane South,1,Standard retailer,,go card,,,Buy,,,,,Brisbane,
Published,133,Oxley Rail Station Fare Machine,"Ardoyne Road, Oxley, Brisbane South",-27.5525,152.974,Brisbane South,5,Rail fare machine,,go card,,,Top up,,,,,,
Published,291,Oxley Rail Station Ticket Office,"140 Ardoyne Road, Oxley, Brisbane South",-27.5525,152.974,Brisbane South,5,Rail fare machine,,go card,,,Buy,Top up,Register,Refund,Change expiry date,,
Published,592,PA Hospital Busway,"PA Hospital, Ipswich Road, Woolloongabba, Brisbane South",-27.496863,153.033977,Brisbane South,1,Standard retailer,,go card,,,Buy,Top up,,,,,
Published,335,Pacific Fair News,"Pacific Fair Shopping Centre, Broadbeach Waters, Queensland, Australia",-28.035645,153.426261,Gold Coast,1,Standard retailer,,go card,Gold Coast go explore card,,Buy,Top up,Register,Refund,Change expiry date,Gold Coast,
Published,658,Pacific News and Casket,"4 Bulcock Street, Caloundra, Sunshine Coast",-26.804983,153.135425,Sunshine Coast,1,Standard retailer,,go card,,,Buy,,,,,,
Published,1136,Pacific Views Resort,"Main Beach Parade, Main Beach, Queensland, Australia",-27.982328,153.429105,,2,Preloaded reseller,,Gold Coast go explore card,,,Buy,,,,,Gold Coast,
Published,134,Paddington News ,"Shop 5, 95 Latrobe Terrace, Paddington, Brisbane North",-27.459,152.998,Brisbane North,1,Standard retailer,,go card,,,Buy,Top up,Change expiry date,,,,
Published,547,Palm Beach Newsagency,"Shop 5A, 10 Fifth Avenue, Palm Beach, Gold Coast",-28.1223,153.472,Gold Coast,1,Standard retailer,,go card,,,Buy,,,,,,
Archived,548,Palmdale News,"2120 Logan Road, Upper Mount Gravatt, Brisbane South",-27.5612,153.083,Brisbane South,1,Standard retailer,,go card,,,Buy,,,,,,
Published,292,Palmwoods station,"Chevallum Road, Palmwoods (Sunshine Coast Regional), Sunshine Coast",-26.6886,152.961,Sunshine Coast,2,Preloaded reseller,,,,,Top up,,,,,,
Published,444,Palmwoods station,"Chevallum Road, Palmwoods (Sunshine Coast Regional), Sunshine Coast",-26.6886,152.961,Sunshine Coast,5,Rail fare machine,,go card,,,Buy,Top up,Register,Refund,Change expiry date,,
Published,136,Park Ridge News,"Park Ridge Shopping Village corner Mt Lindesay Hwy and Park Ridge Road, Park Ridge, Southern",-27.6974,153.039,Southern,1,Standard retailer,,go card,,,Buy,Top up,Change expiry date,,,,
Published,293,Park Road station,"Quarry Street, Woolloongabba, Brisbane South",-27.4937,153.031,Brisbane South,2,Preloaded reseller,,,,,Top up,,,,,,
Published,445,Park Road station,"Quarry Street, Woolloongabba, Brisbane South",-27.4937,153.031,Brisbane South,5,Rail fare machine,,go card,,,Buy,Top up,Register,Refund,Change expiry date,,
Archived,490,Peregian Beach Newsagency,"6 Kingfisher Drive, Peregian Beach, Sunshine Coast",-26.4812,153.096,Sunshine Coast,1,Standard retailer,,go card,,,Buy,,,,,,
Published,371,Petrie station ,"Station Street, Petrie, Northern",-27.2678,152.982,Brisbane,5,Rail fare machine,,go card,,,Buy,Top up,Register,Refund,Change expiry date,Brisbane,
Published,294,Petrie station,"Station Street, Petrie, Northern",-27.2678,152.982,Brisbane,6,Rail ticket office,,,,,Top up,,,,,Brisbane,
Published,1486,Pinkeys Convenience Store,"17 Zillman Road, Hendra, Queensland, Australia",-27.422296,153.063761,,1,Standard retailer,,,,,,,,,,Brisbane,
Published,1001,Pit Stop News and Supermarket,"31 Aubrey Street, Surfers Paradise, Queensland, Australia",-28.011257,153.429921,,2,Preloaded reseller,,go card,Gold Coast go explore card,,Buy,,,,,Gold Coast,
Archived,553,Pit Stop News and Supermarket,"3313 Surfers Paradise Boulevard, Surfers Paradise, Queensland, Australia",-27.9936,153.429393,Gold Coast,2,Preloaded reseller,,go card,,,Buy,,,,,Gold Coast,
Published,1061,Platform Tours at Marriott Resort & Spa,"158 Ferny Avenue, Surfers Paradise, Queensland, Australia",-27.991322,153.428026,,2,Preloaded reseller,,Gold Coast go explore card,,,Buy,,,,,Gold Coast,
Archived,612,Pomona Newsagency,"10 Memorial Avenue, Pomona, Sunshine Coast",-26.366181,152.85505,Sunshine Coast,1,Standard retailer,,go card,,,Buy,,,,,,
Published,42,Post Office Square News,"280 Queen Street, Brisbane , Brisbane Central",-27.468,153.028,Brisbane Central,1,Standard retailer,,go card,SEEQ card,Visitor Information Pack,Buy,Top up,Register,Refund,Change expiry date,Brisbane,
Archived,57,Princess Alexandra Area News & Casket,"250 Ipswich Road, Buranda, Brisbane South",-27.498,153.035,Brisbane South,1,Standard retailer,,go card,Visitor Information Pack,,Buy,Top up,Change expiry date,,,,
Published,1656,Q Desk,"Q1 Building, 9 Hamilton Avenue, Surfers Paradise, Queensland, Australia",-28.006222,153.429523,Gold Coast,2,Preloaded reseller,,,,,,,,,,Gold Coast,
Published,1141,Q1 Tour Desk,"9 Hamilton Avenue, Surfers Paradise, Queensland, Australia",-28.006307,153.429727,,2,Preloaded reseller,,Gold Coast go explore card,,,Buy,,,,,Gold Coast,
Published,628,Queen Street Busway,"Lower Level Myer Centre, Queen Street, Brisbane , Brisbane Central",-27.470582,153.025309,Brisbane Central,1,Standard retailer,,go card,,,Buy,Top up,,,,,
Published,851,Queen Street tram station,"Corner Wardoo Street and Queen Street, Southport, Queensland, Australia",-27.970143,153.393909,,1,Standard retailer,,go card,,,Buy,Top up,,,,Gold Coast,
Published,746,Quik-E-Mart,"2/412 Old Cleveland Road, Coorparoo, Queensland, Australia",-27.491928,153.06389,Brisbane East,1,Standard retailer,,go card,,,Buy,Top up,Change expiry date,,,,
Archived,1551,Quikstop Minimart & News,"Hospital Boulevard, Southport, Queensland, Australia",-27.959043,153.381172,Gold Coast,2,Preloaded reseller,,,,,,,,,,Gold Coast,
Published,483,QUT Kelvin Grove busway station,"between University and Victoria Park Golf Course, Kelvin Grove, Brisbane North",-27.452,153.019,Brisbane North,1,Standard retailer,,go card,,,Buy,Top up,,,,,
Published,43,QUT Student Guild,"2 George Street, Queensland University of Technology, Gardens Point campus (L block), Brisbane , Brisbane North",-27.4757,153.027,Brisbane North,1,Standard retailer,,go card,,,Buy,Top up,Change expiry date,,,,
Archived,395,Rainworth News,"198 Boundary Road, Bardon, Brisbane North",-27.4668,152.987,Brisbane North,1,Standard retailer,,go card,,,Buy,,,,,,
Published,44,Rankins on the Mall,"Queen Street, Brisbane , Brisbane Central",-27.4697,153.025,Brisbane Central,1,Standard retailer,,go card,SEEQ card,Visitor Information Pack,Buy,Top up,Register,Refund,Change expiry date,Brisbane,
Published,482,RBWH busway station,"Bowen Bridge Road, Herston, Brisbane North",-27.4474,153.029,Brisbane North,1,Standard retailer,,go card,,,Buy,Top up,,,,,
Published,295,Redbank station,"Cnr Brisbane Tce &amp; Weedman St, Redbank, Western",-27.5995,152.872,Western,2,Preloaded reseller,,,,,Top up,,,,,,
Published,446,Redbank station,"corner Brisbane Terrace and Weedman Street, Redbank, Western",-27.5995,152.872,Western,5,Rail fare machine,,go card,,,Buy,Top up,Register,Refund,Change expiry date,,
Published,1516,Redcliffe Bus Station,"Humpybong Esplanade, Redcliffe, Queensland, Australia",-27.225499,153.11427,,4,Bus fare machine,,,,,,,,,,Redlands,
Published,141,Redland Bay News ,"Shop 29, Redland Bay Shopping Centre, Broadwater Terrace , Redland Bay, Eastern",-27.6047,153.301,Eastern,1,Standard retailer,,go card,,,Buy,Top up,Change expiry date,,,,
Archived,567,Redland Heights News,"30 Cypress Street, Redland Bay, Eastern",-27.6284,153.298,Eastern,1,Standard retailer,,go card,,,Buy,,,,,,
Published,606,Regents Park News,"2/3374 Beaudesert Road, Browns Plains, Brisbane South",-27.666518,153.034598,Brisbane South,1,Standard retailer,,go card,,,Buy,,,,,,
Published,626,Richlands Rail Station,"Progress Road, Richlands, Brisbane West",-27.596442,152.946558,Brisbane West,2,Preloaded reseller,,go card,,,Top up,,,,,,
Published,625,Richlands Rail Station,"Progress Road, Richlands, Brisbane West",-27.596442,152.946558,Brisbane West,5,Rail fare machine,,go card,,,Buy,Top up,Register,Refund,Change expiry date,,
Published,90,Riding Road News,"63 Riding Road, Hawthorne, Brisbane East",-27.4668,153.065,Brisbane East,1,Standard retailer,,go card,,,Buy,Top up,Change expiry date,,,,
Published,620,Riverside Ferry Terminal,"Eagle Street, Brisbane , Brisbane Central",-27.466974,153.030874,Brisbane Central,1,Standard retailer,,go card,SEEQ card,Visitor Information Pack,Buy,Top up,Register,Refund,Change expiry date,Brisbane,
Published,296,Riverview station,"Moggill Ferry road, Riverview (Ipswich City), Western",-27.595,152.851,Western,2,Preloaded reseller,,,,,Top up,,,,,,
Published,447,Riverview station,"Moggill Ferry Road, Riverview (Ipswich City), Western",-27.595,152.851,Western,5,Rail fare machine,,go card,,,Buy,Top up,Register,Refund,Change expiry date,,
Published,143,Robina station,"Bayberry Lane, Robina, Gold Coast",-28.0714,153.378,Gold Coast,5,Rail fare machine,,go card,,,Buy,Top up,Register,Refund,Change expiry date,Gold Coast,
Published,297,Robina station,"Bayberry Lane, Robina, Gold Coast",-28.0714,153.378,Gold Coast,6,Rail ticket office,,,,,Top up,,,,,Gold Coast,
Published,1456,Rochedale News,"549 Underwood Road, Rochedale South, Queensland, Australia",-27.595882,153.124881,,1,Standard retailer,,,,,,,,,,Brisbane,
Published,298,Rocklea station,"Brooke Street, Rocklea, Brisbane South",-27.5447,153.014,Brisbane South,2,Preloaded reseller,,,,,Top up,,,,,,
Published,448,Rocklea station,"Brooke Street, Rocklea, Brisbane South",-27.5447,153.014,Brisbane South,5,Rail fare machine,,go card,,,Buy,Top up,Register,Refund,Change expiry date,,
Published,195,Rode Newsagency,"Shop 22 Rode Shopping Centre, Appleby Road, Stafford Heights, Brisbane North",-27.3917,153.012,Brisbane North,1,Standard retailer,,go card,,,Buy,,,,,,
Published,598,Roma Street Busway,"Roma Street Busway Station, Brisbane , Brisbane Central",-27.465434,153.017253,Brisbane Central,4,Bus fare machine,Adult go cards only,go card,,,Buy,Top up,,,,Brisbane,
Published,45,Roma Street station,"Roma Street, Brisbane , Brisbane Central",-27.4652,153.019,Brisbane Central,5,Rail fare machine,,go card,SEEQ card,,Buy,Top up,Register,Refund,Change expiry date,Brisbane,
Published,299,Roma Street station,"171 Roma Street, Brisbane , Brisbane Central",-27.4652,153.019,Brisbane Central,6,Rail ticket office,,,,,Top up,,,,,Brisbane,
Published,496,Rosewood News,"12 John Street, Rosewood, Western",-27.6419,152.593,Western,1,Standard retailer,,go card,,,Buy,,,,,,
Published,300,Rosewood station,"Railway Street, Rosewood, Western",-27.6432,152.593,Western,2,Preloaded reseller,,,,,Top up,,,,,,
Published,144,Rosewood station,"Railway Street, Rosewood, Western",-27.6432,152.593,Western,5,Rail fare machine,,go card,,,Buy,Top up,Register,Refund,Change expiry date,,
Published,599,Royal Childrens Hospital Busway,"Royal Childrens Hospital, Herston, Brisbane North",-27.449758,153.025944,Brisbane North,1,Standard retailer,,go card,,,Buy,Top up,,,,,
Archived,627,Runaway Bay News,"Shop 53 Runaway Bay Village Shopping Centre, Runaway Bay, Gold coast",-27.912639,153.401878,Gold coast,1,Standard retailer,,go card,,,Buy,,,,,,
Published,301,Runcorn station,"800 Beenleigh Road, Runcorn, Brisbane South",-27.5924,153.068,Brisbane South,2,Preloaded reseller,,,,,Top up,,,,,,
Published,388,Runcorn station,"800 Beenleigh Road, Runcorn, Brisbane South",-27.5924,153.068,Brisbane South,5,Rail fare machine,,go card,,,Buy,Top up,Register,Refund,Change expiry date,,
Published,786,Russell Island Licensed Post Office,"69 High Street, Russell Island, Queensland, Australia",-27.651875,153.380854,,1,Standard retailer,,go card,,,Buy,Top up,Change expiry date,,,Moreton Bay,
Archived,635,Russell Island News,"Shop 2 / 29 High Street, Russell Island, Southern",-27.648659,153.382003,Southern,1,Standard retailer,,go card,,,Buy,Top up,Change expiry date,,,,
Archived,1426,Russell Island Pharmacy,"29 High Street, Russell Island, Queensland, Australia",-27.648638,153.381709,,2,Preloaded reseller,,,,,,,,,,Redlands,
Published,302,Salisbury station,"Olivia Avenue, Salisbury, Brisbane South",-27.5532,153.023,Brisbane South,2,Preloaded reseller,,,,,Top up,,,,,,
Published,383,Salisbury station,"Olivia Avenue, Salisbury, Brisbane South",-27.5532,153.023,Brisbane South,5,Rail fare machine,,go card,,,Buy,Top up,Register,Refund,Change expiry date,,
Archived,657,Samford Village Newsagency,"Cnr Main Street and Mary Ring Drive, Samford Village, Brisbane North",-27.372756,152.886495,Brisbane North,1,Standard retailer,,go card,,,Buy,,,,,,
Published,303,Sandgate station,"Rainbow Street, Sandgate, Northern",-27.3222,153.069,Northern,2,Preloaded reseller,,,,,Top up,,,,,,
Published,145,Sandgate station,"Rainbow Street, Sandgate, Northern",-27.3222,153.069,Northern,5,Rail fare machine,,go card,,,Buy,Top up,Register,Refund,Change expiry date,,
Published,1066,Seacrest Apartments,"3448 Main Beach Parade, Surfers Paradise, Queensland, Australia",-27.99073,153.429379,,2,Preloaded reseller,,Gold Coast go explore card,,,Buy,,,,,Gold Coast,
Published,338,Sherwood News and Casket Agency,"Shop 4, 686 Sherwood Road, Sherwood (Brisbane City), Brisbane South",-27.5324,152.981,Brisbane South,1,Standard retailer,,go card,,,Buy,,,,,,
Published,304,Sherwood station,"Honour Avenue, Sherwood (Brisbane City), Brisbane South",-27.5316,152.98,Brisbane South,2,Preloaded reseller,,,,,Top up,,,,,,
Published,449,Sherwood station,"Honour Avenue, Sherwood (Brisbane City), Brisbane South",-27.5316,152.98,Brisbane South,5,Rail fare machine,,go card,,,Buy,Top up,Register,Refund,Change expiry date,,
Archived,686,Shorncliffe News,"52 Pier Avenue, Shorncliffe, Brisbane North",-27.324331,153.08257,Brisbane North,1,Standard retailer,,go card,,,Buy,,,,,,
Published,305,Shorncliffe station,"Railway Parade, Shorncliffe, Brisbane North",-27.3269,153.08,Brisbane North,2,Preloaded reseller,,,,,Top up,,,,,,
Published,450,Shorncliffe station,"Railway Parade, Shorncliffe, Brisbane North",-27.3269,153.08,Brisbane North,5,Rail fare machine,,go card,,,Buy,Top up,Register,Refund,Change expiry date,,
Archived,568,Skylark News,"59 Skylark Street, Inala, Brisbane West",-27.6014,152.98,Brisbane West,1,Standard retailer,,go card,,,Buy,,,,,,
Archived,666,Smilemart Southport,"99 Scarborough Street, Southport, Gold Coast",-27.966594,153.414091,Gold Coast,1,Standard retailer,,go card,,,Buy,,,,,Gold Coast,
Published,149,South Bank Beach News,"Stanley Street Plaza, Stanley Street, South Bank, Brisbane Central",-27.4785,153.023,Brisbane Central,1,Standard retailer,,go card,Visitor Information Pack,,Buy,Top up,Change expiry date,,,Brisbane,
Published,475,South Bank Busway station,"corner of Tribune Street and Colchester Streets, South Brisbane, Brisbane Central",-27.4807,153.022,Brisbane Central,1,Standard retailer,,go card,,,Buy,Top up,,,,,
Published,461,South Bank station,"Grey Street, South Brisbane, Brisbane Central",-27.4818,153.023,Brisbane Central,5,Rail fare machine,,go card,SEEQ card,,Buy,Top up,Register,Refund,Change expiry date,Brisbane,
Published,306,South Bank station,"Grey Street, South Brisbane, Brisbane Central",-27.4818,153.023,Brisbane Central,6,Rail ticket office,,,,,Top up,,,,,Brisbane,
Published,640,South Bank Visitor Centre,"South Bank House, Ground Floor, Stanley Street Plaza, South Bank, Brisbane Central",-27.47966,153.02326,Brisbane Central,1,Standard retailer,,go card,Visitor Information Pack,,Buy,,,,,,
Published,148,South Brisbane Station,"Grey Street, South Brisbane, Brisbane Central",-27.474857,153.018268,Brisbane Central,5,Rail fare machine,,go card,SEEQ card,,Buy,Top up,Register,Refund,Change expiry date,Brisbane,
Published,307,South Brisbane Station - Ticket Office,"Grey Street, South Brisbane, Brisbane Central",-27.4744,153.018,Brisbane Central,6,Rail ticket office,,,,,Top up,Change expiry date,,,,Brisbane,
Published,811,Southport RSL,"36 Scarborough Street, Southport, Queensland, Australia",-27.970573,153.414436,,2,Preloaded reseller,,go card,,,Buy,,,,,Gold Coast,
Published,846,Southport South tram station,"Corner Scarborough Street and Queen Street, Southport, Queensland, Australia",-27.973236,153.415717,,1,Standard retailer,,go card,,,Buy,Top up,,,,Gold Coast,
Published,841,Southport tram station,"Corner Nerang Street and Scarborough Street, Southport, Queensland, Australia",-27.967446,153.414237,,1,Standard retailer,,go card,,,Buy,Top up,,,,Gold Coast,
Published,494,Spar Express,"503 St Pauls Terrace, Fortitude Valley, Brisbane Central",-27.454,153.034,Brisbane Central,1,Standard retailer,,go card,,,Buy,,,,,,
Published,676,Spar Express Eight Mile Plains,"5/218 Padstow Road, Eight Mile Plains, Brisbane South",-27.574419,153.087227,Brisbane South,1,Standard retailer,,go card,,,Buy,Top up,Change expiry date,,,,
Published,1606,SPAR Express Marsden,"Cnr Third Avenue and Macarthy Road, Marsden",-27.674482,153.089572,Brisbane,2,Preloaded reseller,,,,,,,,,,Brisbane,
Published,1411,SPC Mini Mart,"56 Scarborough Street, Southport, Queensland, Australia",-27.970411,153.412793,,1,Standard retailer,,,,,,,,,,Gold Coast,
Archived,554,Spring Hill News,"Shop 3, 74 Little Edward Street, Spring Hill, Brisbane North",-27.4611,153.024,Brisbane North,1,Standard retailer,,go card,,,Buy,,,,,,
Published,1601,Springfield Central Rail Station,"Springfield Central, Brookwater, Queensland, Australia",-27.674276,152.902834,Ipswich,5,Rail fare machine,,,,,,,,,,Ipswich,
Published,153,Springfield Fair News,"Springfield Fair Shopping Centre , Springfield, Brisbane West",-27.6533,152.918,Brisbane West,1,Standard retailer,,go card,,,Buy,Top up,Change expiry date,,,,
Published,1596,Springfield Rail Station,"Springfield Station (future), Springfield Lakes, Queensland, Australia",-27.660548,152.921474,Ipswich,5,Rail fare machine,,,,,,,,,,Ipswich,
Published,590,Springwood Busway Station,"Springwood Busway Station, Springwood, Southern",-27.614579,153.125323,Southern,1,Standard retailer,,go card,,,Buy,Top up,,,,,
Published,155,Springwood Mall Newsagency ,"Shop 9, Centro Shopping Centre, Fitzgerald Avenue, Springwood, Southern",-27.6147,153.125,Southern,1,Standard retailer,,go card,,,Buy,Top up,Change expiry date,,,,
Published,157,St Lucia News,"217 Hawken Drive, St Lucia, Brisbane West",-27.5025,153.006,Brisbane West,1,Standard retailer,,go card,,,Buy,Top up,Change expiry date,,,,
Published,513,St Lucia Supermarket,"185  Sir Fred Schonell Drive, St Lucia, Brisbane West",-27.4944,153.003,Brisbane West,1,Standard retailer,,go card,,,Buy,,,,,,
Published,158,Stafford City News,"Stafford City Shopping Centre, 400 Stafford Road, Stafford, Brisbane North",-27.4121,153.013,Brisbane North,1,Standard retailer,,go card,,,Buy,Top up,Change expiry date,,,,
Published,518,Stanley Road News,"182 Stanley Road, North Carina, Brisbane East",-27.488,153.088,Brisbane East,1,Standard retailer,,go card,,,Buy,,,,,,
Archived,399,Stewart Road Newsagency,"Shop 6, 17 Stewart Road, Ashgrove, Brisbane North",-27.4449,152.992,Brisbane North,2,Preloaded reseller,,go card,,,Buy,,,,,Brisbane,
Published,643,Stones Corner Busway,"Gladys Street, Coorparoo, Brisbane East",-27.497963,153.0452,Brisbane East,1,Standard retailer,,go card,,,Buy,Top up,,,,,
Published,538,Stones Corner News,"347 Logan Road, Stones Corner, Brisbane South",-27.4992,153.045,Brisbane South,1,Standard retailer,,go card,SEEQ card,Visitor Information Pack,Buy,Top up,Register,Refund,Change expiry date,Brisbane,
Archived,394,Stones Corner Village News,"Shop 16, 405 Logan Road , Stones Corner, Brisbane South",-27.4998,153.046,Brisbane South,1,Standard retailer,,go card,,,Buy,,,,,Brisbane,
Published,308,Strathpine station,"Station Street, Strathpine, Northern",-27.3118,152.99,Northern,2,Preloaded reseller,,,,,Top up,,,,,,
Published,159,Strathpine station,"Station Street, Strathpine, Northern",-27.3118,152.99,Northern,5,Rail fare machine,,go card,,,Buy,Top up,Register,Refund,Change expiry date,,
Archived,462,Sunbus Customer Service Counter,"Sunshine Plaza, Horton Parade, Maroochydore, Sunshine Coast",-26.6549,153.09,Sunshine Coast,1,Standard retailer,,go card,,,Buy,,,,,,
Published,406,Sunnybank Hills News,"Sunny Hill Shopping Town, cnr Calam and Compton Roads, Sunnybank Hills, Brisbane South",-27.6112,153.054448,Brisbane South,1,Standard retailer,,go card,SEEQ card,Visitor Information Pack,Buy,Top up,Register,Refund,Change expiry date,Brisbane,
Published,486,Sunnybank News and Casket Agency,"Shop 22 Sunnybank Plaza, Mains Road, Sunnybank, Brisbane South",-27.5706,153.062,Brisbane South,1,Standard retailer,,go card,SEEQ card,Visitor Information Pack,Buy,Top up,Register,Refund,Change expiry date,Brisbane,
Published,309,Sunnybank station,"Dixon Street, Sunnybank, Brisbane South",-27.5808,153.054,Brisbane South,2,Preloaded reseller,,,,,Top up,,,,,,
Published,368,Sunnybank station,"Dixon Street, Sunnybank, Brisbane South",-27.5808,153.054,Brisbane South,5,Rail fare machine,,go card,,,Buy,Top up,Register,Refund,Change expiry date,,
Published,404,Sunshine News,"Shop 15, Mt Gravatt Plaza, Mount Gravatt, Brisbane South",-27.5388,153.081,Brisbane South,1,Standard retailer,,go card,,,Buy,Top up,Change expiry date,,,,
Published,310,Sunshine station,"357 Bilsen Road, Geebung, Brisbane North",-27.3753,153.056,Brisbane North,2,Preloaded reseller,,,,,Top up,,,,,,
Published,451,Sunshine Station,"357 Bilsen Road, Geebung, Brisbane North",-27.3753,153.056,Brisbane North,5,Rail fare machine,,go card,,,Buy,Top up,Register,Refund,Change expiry date,,
Published,557,Supanews Bracken Ridge,"Bracken Ridge Plaza Shopping Centre, Corner Telegraph and Norris Roads, Bracken Ridge, Brisbane North",-27.330219,153.026505,Brisbane North,1,Standard retailer,,go card,,,Buy,,,,,,
Archived,47,Supanews Brisbane Square,"Brisbane Square, George Street, Brisbane , Brisbane Central",-27.4709,153.023,Brisbane Central,1,Standard retailer,,go card,Visitor Information Pack,,Buy,Top up,Change expiry date,,,,
Archived,566,Supanews Carseldine,"Carseldine Central, 735 Beams Road, Carseldine, Brisbane North",-27.3453,153.012,Brisbane North,1,Standard retailer,,go card,,,Buy,,,,,Airlie Beach,
Published,48,Supanews Central Station,"Central Concourse, Central Station, Ann Street , Brisbane , Brisbane Central",-27.466,153.026,Brisbane Central,1,Standard retailer,,go card,SEEQ card,Visitor Information Pack,Buy,Top up,Register,Refund,Change expiry date,Brisbane,
Published,526,Supanews Green Square,"Shop 7 Green Square North Tower, 515 St Pauls Terrace, Fortitude Valley, Brisbane Central",-27.4536,153.035,Brisbane Central,1,Standard retailer,,go card,,,Buy,Top up,Change expiry date,,,,
Published,104,Supanews Keperra,"Settlement Road, Great Western Super Centre, Keperra, Brisbane North",-27.4151,152.949,Brisbane North,1,Standard retailer,,go card,,,Buy,Top up,Change expiry date,,,,
Published,49,Supanews Myer Centre Level A,"Queen Street Mall, Myer Centre (level A), Brisbane , Brisbane Central",-27.4711,153.025,Brisbane Central,1,Standard retailer,,go card,SEEQ card,Visitor Information Pack,Buy,Top up,Register,Refund,Change expiry date,Brisbane,
Published,111,Supanews North Lakes,"Shop 1085, Westfield Shopping Centre, Anzac Avenue, North Lakes, Northern",-27.2398,153.02,Brisbane,1,Standard retailer,,go card,SEEQ card,Visitor Information Pack,Buy,Top up,Register,Refund,Change expiry date,Brisbane,
Archived,574,Supanews North Lakes,"Shop 1104/5 Westfield North Lakes, North Lakes, Northern",-27.2398,153.02,Northern,1,Standard retailer,,go card,,,Buy,,,,,,
Published,555,Supanews Nundah Village,"Shop 9, 1193 Sandgate Road, Nundah, Brisbane North",-27.4028,153.061,Brisbane North,1,Standard retailer,,go card,,,Buy,,,,,Brisbane,
Published,514,Supanews Strathpine,"Westfield Shopping Centre, Gympie Road, Strathpine, Northern",-27.3069,152.993,Northern,1,Standard retailer,,go card,,,Buy,Top up,Change expiry date,,,,
Published,51,Supanews Xpress Central Station Platform 1/2,"Central station (platform 1/2), Ann Street, Brisbane , Brisbane Central",-27.4661,153.026,Brisbane Central,1,Standard retailer,,go card,Visitor Information Pack,,Buy,Top up,Change expiry date,,,Brisbane,
Published,52,Supanews Xpress Central Station Platform 3/4,"Central station (platform 3/4), Ann Street, Brisbane , Brisbane Central",-27.4661,153.026,Brisbane Central,1,Standard retailer,,go card,Visitor Information Pack,,Buy,Top up,Change expiry date,,,Brisbane,
Published,53,Supanews Xpress Central Station Platform 5/6,"Central station (platform 5/6), Ann Street , Brisbane , Brisbane Central",-27.4661,153.026,Brisbane Central,1,Standard retailer,,go card,Visitor Information Pack,,Buy,Top up,Change expiry date,,,Brisbane,
Published,92,Supanews Xpress Helensvale,"Westfield Shopping Centre, Gold Coast Highway, corner Town Centre Drive, Helensvale, Gold Coast",-27.9272,153.336,Gold Coast,1,Standard retailer,,go card,Gold Coast go explore card,,Buy,Top up,Change expiry date,,,Gold Coast,
Published,54,Supanews Xpress Myer Centre Level E,"Queen Street Mall, Myer Centre (level E), Brisbane , Brisbane Central",-27.4712,153.024,Brisbane Central,1,Standard retailer,,go card,,,Buy,Top up,Change expiry date,,,,
Published,1206,Surf Parade Resort,"210 Surf Parade, Surfers Paradise, Queensland, Australia",-28.016508,153.431211,,2,Preloaded reseller,,go card,Gold Coast go explore card,,Buy,,,,,Gold Coast,
Published,1146,Surfers Aquarius,"4 Old Burleigh Road, Surfers Paradise, Queensland, Australia",-28.013906,153.432548,,2,Preloaded reseller,,Gold Coast go explore card,,,Buy,,,,,Gold Coast,
Published,1071,Surfers Paradise Backpackers Resort,"2837 Gold Coast Highway, Surfers Paradise, Queensland, Australia",-28.016302,153.429275,,2,Preloaded reseller,,Gold Coast go explore card,,,Buy,,,,,Gold Coast,
Draft,1586,Surfers Paradise Cruise Terminal,Under Moorings Building Cnr Cavill & Ferny Ave ,0,0,,2,Preloaded reseller,,,,,,,,,,Gold Coast,
Published,1591,Surfers Paradise Cruise Terminal,"Under the Moorings Building, Cnr Cavill & Ferny Ave, Surfers Paradise, Queensland, Australia",-28.001446,153.426385,,2,Preloaded reseller,,,,,,,,,,Gold Coast,
Archived,674,Surfers Paradise Newsagency,"Shop 11, 2 Elkhorn Avenue, Surfers Paradise, Gold Coast",-27.999278,153.430115,Gold Coast,1,Standard retailer,,go card,,,Buy,,,,,Airlie Beach,
Published,901,Surfers Paradise North tram station,"Corner Surfers Paradise Bouelvard and Ocean Avenue, Surfers Paradise, Queensland, Australia",-27.993316,153.429371,,1,Standard retailer,,go card,,,Buy,Top up,,,,Gold Coast,
Published,916,Surfers Paradise tram station,"Corner Surfers Paradise Boulevard and Clifford Street, Surfers Paradise, Queensland, Australia",-28.005792,153.428966,,1,Standard retailer,,go card,,,Buy,Top up,,,,Gold Coast,
Published,1236,Surfers Plaza Resort,"70 Remembrance Drive, Surfers Paradise, Queensland, Australia",-28.003694,153.426351,,2,Preloaded reseller,,go card,Gold Coast go explore card,,Buy,,,,,Gold Coast,
Published,533,Surfside Newsagency,"10 North Street Woorim, Bribie Island, Northern",-27.0683,153.203,Northern,1,Standard retailer,,go card,,,Buy,,,,,,
Published,587,Swan Newsagency,"Shop 137 Sunshine Plaza, Horton Parade, Maroochydore, Sunshine Coast",-26.654877,153.090593,Sunshine Coast,1,Standard retailer,,go card,SEEQ card,Visitor Information Pack,Buy,Top up,Register,Refund,Change expiry date,Sunshine Coast,
Published,188,Taigum News,"Shop 28, Taigum Central Shopping Centre, Beams Road, Taigum, Brisbane North",-27.3507,153.047,Brisbane North,1,Standard retailer,,go card,,,Buy,,,,,,
Published,1491,Tanah Merah News and Casket,"Cnr Drews and Clarks Road, Loganholme, Queensland, Australia",-27.690521,153.177819,,1,Standard retailer,,,,,,,,,,Logan,
Published,489,Target News,"Shop 2 Buranda Village, Ipswich Road, Buranda, Brisbane South",-27.500757,153.036824,Brisbane South,1,Standard retailer,,go card,,,Buy,Top up,Change expiry date,,,,
Published,311,Taringa station,"1 Princess Street, Taringa, Brisbane West",-27.493,152.982,Brisbane West,2,Preloaded reseller,,,,,Top up,,,,,,
Published,452,Taringa station,"1 Princess Street, Taringa, Brisbane West",-27.493,152.982,Brisbane West,5,Rail fare machine,,go card,,,Buy,Top up,Register,Refund,Change expiry date,,
Published,312,Tennyson station,"2 Myla Terrace, Tennyson, Brisbane South",-27.5258,153.005,Brisbane South,2,Preloaded reseller,,,,,Top up,,,,,,
Published,484,Terrace News,"Morris Towers, 149 Wickham Terrace , Spring Hill, Brisbane North",-27.4646,153.025,Brisbane North,1,Standard retailer,,go card,,,Buy,,,,,,
Published,653,Terry White Chemist Bellbowrie,"Shop 29 Bellbowrie Shopping Plaza, Birkin Road, Bellbowrie, Brisbane west",-27.561953,152.886854,Brisbane west,1,Standard retailer,,go card,,,Buy,Top up,Change expiry date,,,,
Published,516,Tewantin Newsagency,"107 Poinciana Avenue, Tewantin, Sunshine Coast",-26.3921,153.038,Sunshine Coast,1,Standard retailer,,go card,,,Buy,Top up,Change expiry date,,,,
Published,313,Thagoona station,"Thagoona-Rosewood Road, Thagoona, Western",-27.6266,152.63,Western,2,Preloaded reseller,,,,,Top up,,,,,,
Published,679,The Bread Basket,"132 Leicester Street, Camp Hill, Brisbane East",-27.497447,153.067783,Brisbane East,1,Standard retailer,,go card,,,Buy,,,,,,
Published,1156,The Crest Apartments,"15 Breaker Street, Main Beach, Queensland, Australia",-27.981359,153.426897,,2,Preloaded reseller,,Gold Coast go explore card,,,Buy,,,,,Gold Coast,
Archived,400,The Fair Casket and Papershop,"Shop 15, Beaudesert Fair, cnr Anna and William Streets, Beaudesert, Southern",-27.9891,152.998,Southern,1,Standard retailer,,go card,,,Buy,,,,,,
Published,1511,The Gap Park and Ride,"1371 Waterworks Road, The Gap, Queensland, Australia",-27.445599,152.930148,,4,Bus fare machine,,,,,,,,,,Brisbane,
Archived,1171,The Greener Grocer,"15/19 Via Roma, Surfers Paradise, Queensland, Australia",-28.012158,153.423689,,2,Preloaded reseller,,go card,Gold Coast go explore card,,Buy,,,,,Gold Coast,
Published,1076,The Islander,"3128 Surfers Paradise Boulevard, Surfers Paradise, Queensland, Australia",-28.003255,153.428659,,2,Preloaded reseller,,Gold Coast go explore card,,,Buy,,,,,Gold Coast,
Published,314,Thomas Street station,"Tallon Street, Sadliers Crossing, Western",-27.6148,152.746,Western,2,Preloaded reseller,,,,,Top up,,,,,,
Published,315,Thorneside station,"Railway Parade, Thorneside, Eastern",-27.4864,153.193,Eastern,2,Preloaded reseller,,,,,Top up,,,,,,
Published,453,Thorneside station,"Railway Parade, Thorneside, Eastern",-27.4864,153.193,Eastern,5,Rail fare machine,,go card,,,Buy,Top up,Register,Refund,Change expiry date,,
Published,1161,Ticketmates Harbour Town,"Oxley Drive, Biggera Waters, Queensland, Australia",-27.931162,153.387762,,2,Preloaded reseller,,Gold Coast go explore card,,,Buy,,,,,Gold Coast,
Archived,519,Tobacco Station Stones Corner,"307 Logan Road, Stones Corner, Brisbane South",-27.499,153.045,Brisbane South,1,Standard retailer,,go card,,,Buy,,,,,,
Published,600,Toombul Bus Interchange,"Toombul Shopping Centre, Toombul, Brisbane North",-27.408392,153.060114,Brisbane North,1,Standard retailer,,go card,,,Buy,Top up,,,,,
Published,316,Toombul station,"Collins Street, Nundah, Brisbane North",-27.4073,153.059,Brisbane North,2,Preloaded reseller,,,,,Top up,,,,,,
Published,131,Toombul station,"Collins Street, Nundah, Brisbane North",-27.4073,153.059,Brisbane North,5,Rail fare machine,,go card,,,Buy,Top up,Register,Refund,Change expiry date,,
Published,317,Toowong station,"Toowong Village Shopping Centre, Toowong, Brisbane West",-27.4857,152.993,Brisbane West,2,Preloaded reseller,,,,,Top up,,,,,,
Published,168,Toowong station,"Sherwood Road, Toowong, Brisbane West",-27.4857,152.993,Brisbane West,5,Rail fare machine,,go card,,,Buy,Top up,Register,Refund,Change expiry date,,
Published,170,Town Centre News,"Town Centre Shopping Centre, 355-369 Colburn Avenue, Victoria Point, Eastern",-27.5865,153.283,Eastern,1,Standard retailer,,go card,,,Buy,Top up,Change expiry date,,,,
Published,669,Town Centre News,"Shop 56, Inala Plaza, 156 Inala Avenue, Inala, Brisbane West",-27.59889,152.97408,Brisbane West,1,Standard retailer,,go card,,,Buy,,,,,,
Published,318,Trinder Park station,"Railway Parade, Trinder Park, Southern",-27.6314,153.098,Southern,2,Preloaded reseller,,,,,Top up,,,,,,
Published,454,Trinder Park station,"Railway Parade, Trinder Park, Southern",-27.6314,153.098,Southern,5,Rail fare machine,,go card,,,Buy,Top up,Register,Refund,Change expiry date,,
Published,673,Tweed Heads Information Centre,"Corner Wharf &amp; Bay Streets, Tweed Heads, Gold Coast",-28.171,153.543691,Gold Coast,1,Standard retailer,,go card,,,Buy,,,,,,
Draft,1526,University of Sunshine Coast Bus Station,"Sippy Downs Drive, Sippy Downs, Queensland, Australia",-26.718545,153.061919,,4,Bus fare machine,,,,,,,,,,Sunshine Coast,
Published,478,Upper Mount Gravatt busway station,"McGregor Street, Upper Mount Gravatt, Brisbane South",-27.5634,153.081,Brisbane South,1,Standard retailer,,go card,,,Buy,Top up,,,,,
Published,603,UQ (Chancellor),"University of Queensland, St Lucia, Brisbane West",-27.498036,153.010862,Brisbane West,4,Bus fare machine,,go card,,,Buy,Top up,,,,,
Published,634,UQ Lakes,"UQ Lakes Busway, Eleanor Schonell Bridge, St Lucia, Brisbane West",-27.498036,153.017093,Brisbane West,1,Standard retailer,,go card,,,Buy,Top up,,,,,
Published,582,Valley Centre News,"Valley Metro Centre, 230 Brunswick St, Fortitude Valley, Brisbane Central",-27.456839,153.03302,Brisbane Central,1,Standard retailer,,go card,,,Buy,,,,,,
Published,350,Varsity Lakes station,"Corner Scottsdale Drive and Cormandel Lane, Varsity Lakes, Gold Coast",-28.094794,153.399531,Gold Coast,2,Preloaded reseller,,,,,Top up,,,,,,
Published,349,Varsity Lakes station,"Corner Scottsdale Drive and Cormandel Lane, Varsity Lakes, Gold Coast",-28.096499,153.399049,Gold Coast,5,Rail fare machine,,go card,,,Buy,Top up,Register,Refund,Change expiry date,,
Published,529,Victoria Point West Licensed Post Office,"Shop 54, Victoria Point Shopping Centre, corner Cleveland Redland Bay Road and Bunker Road, Victoria Point, Eastern",-27.5854,153.281,Eastern,1,Standard retailer,,go card,,,Buy,,,,,,
Archived,342,Village Store Currumbin,"66 Teemangum Street, Currumbin, Gold Coast",-28.1355,153.489,Gold Coast,1,Standard retailer,,go card,,,Buy,,,,,Gold Coast,
Published,319,Virginia  station,"4 Wellington Street, Virginia, Brisbane North",-27.3829,153.063,Brisbane North,2,Preloaded reseller,,,,,Top up,,,,,,
Published,363,Virginia station,"4 Wellington Street, Virginia, Brisbane North",-27.3829,153.063,Brisbane North,5,Rail fare machine,,go card,,,Buy,Top up,Register,Refund,Change expiry date,,
Published,1561,Visitor Information Centre (Regent Theatre),"167 Queen Street, Brisbane, Queensland, Australia",-27.469414,153.026006,,1,Standard retailer,EFTPOS Sales only - VISA and MasterCard accepted.,,,,,,,,,Brisbane,
Published,320,Wacol  station,"Wilruna Street, Wacol, Western",-27.589,152.924,Western,2,Preloaded reseller,,,,,Top up,,,,,,
Published,380,Wacol station,"Wilruna Street, Wacol , Western",-27.589,152.924,Western,5,Rail fare machine,,go card,,,Buy,Top up,Register,Refund,Change expiry date,,
Published,321,Walloon  station,"Station Lane, Walloon, Western",-27.6073,152.668,Western,2,Preloaded reseller,,,,,Top up,,,,,,
Archived,510,Walloon News,"12 Queen Street , Walloon, Western",-27.6061,152.665,Western,1,Standard retailer,,go card,,,Buy,,,,,Airlie Beach,
Published,189,Walton Bridge News,"Shop 10, 974 Waterworks Road , The Gap (Brisbane City), Brisbane North",-27.4451,152.952,Brisbane North,1,Standard retailer,,go card,,,Buy,,,,,,
Published,690,Warrigal Square News,"Warrigal Square Shopping Centre, 16/261 Warrigal Road, Eight Mile Plains, Brisbane South",-27.590132,153.084894,Brisbane South,1,Standard retailer,,go card,,,Buy,Top up,Change expiry date,,,,
Published,523,Waterford Plaza News,"Waterford Plaza, corner Kingston and Taigum Roads , Waterford, Southern",-27.6924,153.136,Southern,1,Standard retailer,,go card,,,Buy,,,,,,
Published,1081,Watermark Hotel & Spa,"3032 Surfers Paradise Boulevard, Surfers Paradise, Queensland, Australia",-28.006013,153.428721,,2,Preloaded reseller,,Gold Coast go explore card,,,Buy,,,,,Gold Coast,
Archived,552,Welcome Express Convenience Store,"243 Brunswick Street, Fortitude Valley, Brisbane Central",-27.4571,153.033,Brisbane Central,1,Standard retailer,,go card,,,Buy,,,,,,
Published,661,Wellington Point News,"Shop 2, 368 Main Road, Wellington Point, Eastern",-27.485334,153.237809,Eastern,1,Standard retailer,,go card,,,Buy,,,,,,
Published,662,Wellington Point Post Office,"Shop 3, 405 Main Road, Wellington Point, Eastern",-27.487198,153.238894,Eastern,1,Standard retailer,,go card,,,Buy,,,,,,
Published,322,Wellington Point station,"Station Street, Wellington Point, Eastern",-27.494284,153.241914,Eastern,2,Preloaded reseller,,,,,Top up,,,,,,
Published,455,Wellington Point station,"Station Street, Wellington Point, Eastern",-27.494284,153.241914,Eastern,5,Rail fare machine,,go card,,,Buy,Top up,Register,Refund,Change expiry date,,
Archived,358,West End Market News Power,"Shop 13, 69 Boundary St, West End (Brisbane City), Brisbane South",-27.4769,153.012,Brisbane South,1,Standard retailer,,go card,SEEQ card,Visitor Information Pack,Buy,Top up,Register,Refund,Change expiry date,Brisbane,
Published,173,West End News,"199 Boundary Street, West End (Brisbane City), Brisbane South",-27.4807,153.012,Brisbane South,1,Standard retailer,,go card,,,Buy,Top up,Change expiry date,,,,
Archived,564,Westside Story Newsagency,"85 Boundary Street, West End (Brisbane City), Brisbane South",-27.4778,153.013,Brisbane South,1,Standard retailer,,go card,,,Buy,,,,,,
Published,323,Wilston  station,"Newmarket Road, Wilston, Brisbane North",-27.4362,153.019,Brisbane North,2,Preloaded reseller,,,,,Top up,,,,,,
Published,540,Wilston News & Post,"Shop 1, 99 Kedron Brook Road, Wilston, Brisbane North",-27.4322,153.02,Brisbane North,1,Standard retailer,,go card,,,Buy,,,,,,
Published,456,Wilston station,"Newmarket Road, Wilston, Brisbane North",-27.4362,153.019,Brisbane North,5,Rail fare machine,,go card,,,Buy,Top up,Register,Refund,Change expiry date,,
Published,324,Windsor  station,"Eildon Road, Windsor, Brisbane North",-27.4352,153.029,Brisbane North,2,Preloaded reseller,,,,,Top up,,,,,,
Published,457,Windsor station,"Eildon Road, Windsor, Brisbane North",-27.4352,153.029,Brisbane North,5,Rail fare machine,,go card,,,Buy,Top up,Register,Refund,Change expiry date,,
Published,611,Winston Glades News,"Shop 9, Ash Street, Flinders View, Western",-27.65422,152.751467,Western,1,Standard retailer,,go card,,,Buy,,,,,,
Published,693,Wirreanda News,"110 King Street, Buderim, Sunshine Coast",-26.682702,153.066338,Sunshine Coast,1,Standard retailer,,go card,,,Buy,,,,,Sunshine Coast,
Published,341,Wishart News,"Civic Fair Shopping Centre, 280 Newnham Rd, Wishart, Brisbane South",-27.547,153.092,Brisbane South,1,Standard retailer,,go card,,,Buy,,,,,,
Archived,500,Wishart Village News,"Shop 3, 590 Mt Gravatt-Capalaba Road, Wishart, Brisbane South",-27.5483,153.108,Brisbane South,1,Standard retailer,,go card,,,Buy,,,,,Airlie Beach,
Archived,345,Wongabel News,"Shop 2, Wongabel St, Kenmore, Brisbane West",-27.509,152.948,Brisbane West,1,Standard retailer,,go card,,,Buy,,,,,Airlie Beach,
Published,325,Woodridge  station,"Station Road, Woodridge, Southern",-27.6382,153.104,Southern,2,Preloaded reseller,,,,,Top up,,,,,,
Published,177,Woodridge station,"Station Road, Woodridge, Southern",-27.6382,153.104,Southern,5,Rail fare machine,,go card,,,Buy,Top up,Register,Refund,Change expiry date,,
Published,476,Woolloongabba busway station,"corner of Main Street and Stanley Streets, Woolloongabba, Brisbane South",-27.486,153.035,Brisbane South,1,Standard retailer,,go card,,,Buy,Top up,,,,,
Archived,346,Woolloongabba News,"7 Logan Rd, Woolloongabba, Brisbane South",-27.487,153.036,Brisbane South,1,Standard retailer,,go card,,,Buy,,,,,Airlie Beach,
Archived,1421,Woolloongabba Post Shop,"8B/803 Stanley Street, Woolloongabba, Queensland, Australia",-27.486614,153.035526,Brisbane,2,Preloaded reseller,,,,,,,,,,Brisbane,
Published,326,Wooloowin  station,"Hudson Street, Wooloowin, Brisbane North",-27.42,153.043,Brisbane North,2,Preloaded reseller,,,,,Top up,,,,,,
Published,378,Wooloowin station ,"Hudson Street, Wooloowin , Brisbane North",-27.42,153.043,Brisbane North,5,Rail fare machine,,go card,,,Buy,Top up,Register,Refund,Change expiry date,,
Published,327,Woombye  station,"Blackall Street, Woombye, Sunshine Coast",-26.6608,152.963,Sunshine Coast,2,Preloaded reseller,,,,,Top up,,,,,,
Published,328,Wulkuraka  station,"Grace Street, Wulkuraka, Western",-27.6135,152.732,Western,2,Preloaded reseller,,,,,Top up,,,,,,
Published,329,Wynnum  station,"Thorn Street, Wynnum, Eastern",-27.4397,153.166,Eastern,2,Preloaded reseller,,,,,Top up,,,,,,
Published,372,Wynnum Central station,"Ronald Street, Wynnum, Eastern",-27.4452,153.17,Eastern,5,Rail fare machine,,go card,,,Buy,Top up,Register,Refund,Change expiry date,,
Published,330,Wynnum Central station,"Ronald Street, Wynnum, Eastern",-27.445752,153.170772,Brisbane,6,Rail ticket office,,,,,Top up,,,,,Brisbane,
Published,190,Wynnum North Newsagency,"Shop 1, 150 Selina Road , Wynnum, Eastern",-27.4368,153.159,Eastern,1,Standard retailer,,go card,,,Buy,,,,,,
Published,331,Wynnum North station,"Cameron Parade, Wynnum, Eastern",-27.4372,153.159,Eastern,2,Preloaded reseller,,,,,Top up,,,,,,
Published,459,Wynnum North station,"Cameron Parade, Wynnum, Eastern",-27.4372,153.159,Eastern,5,Rail fare machine,,go card,,,Buy,Top up,Register,Refund,Change expiry date,,
Published,458,Wynnum station,"Thorn Street, Wynnum, Eastern",-27.4397,153.166,Eastern,5,Rail fare machine,,go card,,,Buy,Top up,Register,Refund,Change expiry date,,
Archived,467,Wynnum Station News,"181 Florence St, Wynnum, Brisbane East",-27.4455,153.171,Brisbane East,1,Standard retailer,,go card,,,Buy,,,,,,
Published,332,Yeerongpilly station,"67 Wilkie Street, Yeerongpilly, Brisbane South",-27.5255,153.014,Brisbane South,2,Preloaded reseller,,,,,Top up,,,,,Brisbane,
Published,460,Yeerongpilly station,"67 Wilkie Street, Yeerongpilly, Brisbane South",-27.5255,153.014,Brisbane South,5,Rail fare machine,,go card,,,Buy,Top up,Register,Refund,Change expiry date,,
Published,333,Yeronga  station,"Fairfield Road, Yeronga, Brisbane South",-27.5178,153.017,Brisbane South,2,Preloaded reseller,,,,,Top up,,,,,,
Archived,506,Yeronga News,"Shop 3, Yeronga Village, 429 Fairfield Road, Yeronga, Brisbane South",-27.5163,153.017,Brisbane South,1,Standard retailer,,go card,,,Buy,,,,,Airlie Beach,
Published,379,Yeronga station,"Fairfield Road, Yeronga, Brisbane South",-27.5178,153.017,Brisbane South,5,Rail fare machine,,go card,,,Buy,Top up,Register,Refund,Change expiry date,,
Published,334,Zillmere  station,"Zillmere Road, Zillmere, Brisbane North",-27.3593,153.037,Brisbane North,2,Preloaded reseller,,,,,Top up,,,,,,
Published,183,Zillmere station,"Zillmere Road, Zillmere, Brisbane North",-27.3593,153.037,Brisbane North,5,Rail fare machine,,go card,,,Buy,Top up,Register,Refund,Change expiry date,,
,,,,,,,,,,225,773,859,87,495,546,,,500,
,,7,,,,,,,,,,,,,,,,,
,,144,,,,,,,,,,,,,,,,,
