id,status,name,address,latitude,longitude,region1,type_id,type_name,notes,product1,product2,product3,service1,service2,service3,service4,service5,region2,region3
2,Published,Albion Station,"49 Albion Road, Albion, Brisbane North",-27.429438,153.040021,Brisbane North,5,Rail fare machine,,go card,,,Buy,Top up,Register,Refund,Change expiry date,Brisbane,
3,Published,7-Eleven Algester,"169 Algester Road, Algester, Brisbane South",-27.6125,153.039,Brisbane South,1,Standard retailer,,go card,,,Buy,Top up,Change expiry date,,,,
4,Published,Ashgrove News,"Ashgrove Shopping Centre, 16 Ashgrove Avenue, Ashgrove, Brisbane North",-27.4447,152.994,Brisbane North,1,Standard retailer,,go card,,,Buy,Top up,Change expiry date,,,,
5,Published,7-Eleven Ashmore,"400 Nerang Road, Southport, Queensland, Australia",-27.979071,153.379559,Gold Coast,1,Standard retailer,,go card,Gold Coast go explore card,,Buy,Top up,Change expiry date,,,Gold Coast,
6,Published,7-Eleven Albany Creek,"70 Albany Creek Road, Albany Creek, Brisbane North",-27.364,153.013,Brisbane North,1,Standard retailer,,go card,,,Buy,Top up,Change expiry date,,,,
7,Published,Nextra Day and Night News,"1374 Gympie Road, Aspley, Brisbane North",-27.3626,153.017,Brisbane North,1,Standard retailer,,go card,,,Buy,Top up,Change expiry date,,,,
8,Published,7-Eleven Beenleigh,"2-6 City Road, Beenleigh, Southern",-27.7078,153.204,Southern,1,Standard retailer,,go card,,,Buy,Top up,Change expiry date,,,,
9,Published,Beenleigh Station,"Alamein Street, Beenleigh, Southern",-27.717125,153.204215,Southern,6,Rail ticket office,,go card,,,Buy,Top up,Register,Refund,Change expiry date,Logan,
10,Published,7-Eleven Birkdale,"Bailey Road, corner Birkdale Road, Birkdale, Eastern",-27.5095,153.206,Eastern,1,Standard retailer,,go card,,,Buy,Top up,Change expiry date,,,,
11,Published,Booval Station,"South Station Road, Booval, Western",-27.609357,152.789796,Western,6,Rail ticket office,,go card,,,Buy,Top up,Register,Refund,Change expiry date,Ipswich,
12,Draft,7-Eleven Boronia Heights,"Cnr Coronation Road and Middle Road, Boronia Heights, Southern",-27.678743,153.021835,Brisbane,1,Standard retailer,,go card,,,Buy,Top up,Change expiry date,,,Brisbane,
13,Published,Bowen Hills Station,"Abbotsford Road, Bowen Hills, Brisbane Central",-27.445181,153.03756,Brisbane Central,5,Rail fare machine,,go card,,,Buy,Top up,Register,Refund,Change expiry date,Brisbane,
14,Published,7-Eleven Bracken Ridge,"Telegraph Road, corner Norris Road, Bracken Ridge, Brisbane North",-27.3307,153.026,Brisbane North,1,Standard retailer,,go card,,,Buy,Top up,Change expiry date,,,,
15,Published,7-Eleven Brassall,"21 Hunter Street, Brassall, Western",-27.5938,152.746,Western,1,Standard retailer,,go card,,,Buy,Top up,Change expiry date,,,,
16,Published,7-Eleven Bray Park,"Samsonvale Road, corner Old North Road, Bray Park (Moreton Bay Regional), Northern",-27.2915,152.953,Northern,1,Standard retailer,,go card,,,Buy,Top up,Change expiry date,,,,
17,Published,Bray Park Station,"Railway Avenue, Bray Park (Moreton Bay Regional), Northern",-27.299367,152.986032,Moreton Bay,5,Rail fare machine,,go card,,,Buy,Top up,Register,Refund,Change expiry date,Moreton Bay,
18,Published,7-Eleven 120 Edward Street Brisbane,"120 Edward Street, Brisbane , Brisbane Central",-27.4702,153.028,Brisbane Central,1,Standard retailer,,go card,,,Buy,Top up,Change expiry date,,,,
19,Published,7-Eleven 136 Queen Street Brisbane,"136 Queen Street (Cnr Albert and Burnett Lane), Brisbane , Brisbane Central",-27.4693,153.025,Brisbane Central,1,Standard retailer,,go card,,,Buy,Top up,Change expiry date,,,,
20,Published,7-Eleven 174 Adelaide Street Brisbane,"174 Adelaide Street, Brisbane , Brisbane Central",-27.4675,153.026,Brisbane Central,1,Standard retailer,,go card,,,Buy,Top up,Change expiry date,,,,
21,Published,7-Eleven 189 George Street Brisbane,"189 George Street, Brisbane , Brisbane Central",-27.4714,153.024,Brisbane Central,1,Standard retailer,,go card,,,Buy,Top up,Change expiry date,,,,
22,Published,7-Eleven 231 George Street Brisbane,"231 George Street, Brisbane , Brisbane Central",-27.4706,153.023,Brisbane Central,1,Standard retailer,,go card,,,Buy,Top up,Change expiry date,,,Brisbane,
23,Draft,7-Eleven 243 Edward Street Brisbane,"243 Edward Street, Brisbane , Brisbane Central",-27.4675,153.027,Brisbane Central,1,Standard retailer,,go card,,,Buy,Top up,Change expiry date,,,Brisbane,
24,Published,7-Eleven 324 Queen Street Brisbane,"324 Queen Street, Brisbane , Brisbane Central",-27.4668,153.029,Brisbane Central,1,Standard retailer,,go card,,,Buy,Top up,Change expiry date,,,Brisbane,
25,Published,7-Eleven 333 George Street Brisbane,"corner George and Turbot Streets, Brisbane , Brisbane Central",-27.4687,153.022,Brisbane Central,1,Standard retailer,,go card,,,Buy,Top up,Change expiry date,,,,
26,Published,7-Eleven Aurora Brisbane,"420 Queen Street, corner Wharf Street, Brisbane , Brisbane Central",-27.4652,153.03,Brisbane Central,1,Standard retailer,,go card,,,Buy,Top up,Change expiry date,,,,
27,Archived,7-Eleven Myer Centre Brisbane,"91 Queen Street, Brisbane , Brisbane Central",-27.4703,153.025,Brisbane Central,1,Standard retailer,,go card,,,Buy,Top up,Change expiry date,,,Airlie Beach,
28,Published,7-Eleven Albert Street Brisbane,"97 Albert Street, Brisbane , Brisbane Central",-27.4715,153.027,Brisbane Central,1,Standard retailer,,go card,,,Buy,Top up,Change expiry date,,,,
29,Published,7-Eleven Creek Street Brisbane,"99 Creek Street, Brisbane , Brisbane Central",-27.4662,153.028,Brisbane Central,1,Standard retailer,,go card,,,Buy,Top up,Change expiry date,,,,
30,Published,7-Eleven Transit Centre,"458 George Street, Brisbane , Brisbane Central",-27.467361,153.019897,Brisbane Central,1,Standard retailer,,go card,,,Buy,Top up,Change expiry date,,,,
31,Archived,Albert Street News,"80 Albert Street, Brisbane , Brisbane Central",-27.4721,153.028,Brisbane Central,1,Standard retailer,,go card,,,Buy,Top up,Change expiry date,,,,
32,Published,Central station,"Ann Street, Brisbane , Brisbane Central",-27.465905,153.025936,Brisbane Central,5,Rail fare machine,,go card,SEEQ card,,Buy,Top up,Register,Refund,Change expiry date,Brisbane,
33,Published,City Mall News,"Queen Street Kiosk, Brisbane , Brisbane Central",-27.4685,153.027,Brisbane Central,1,Standard retailer,,go card,SEEQ card,Visitor Information Pack,Buy,Top up,Register,Refund,Change expiry date,Brisbane,
34,Published,City News,"10 Eagle Street, Brisbane , Brisbane Central",-27.4694,153.03,Brisbane Central,1,Standard retailer,,go card,,,Buy,Top up,Change expiry date,,,,
35,Published,Eagle Street News,"Ground Floor, 70 Eagle Street, Brisbane , Brisbane Central",-27.4671,153.03,Brisbane Central,1,Standard retailer,,go card,SEEQ card,Visitor Information Pack,Buy,Top up,Register,Refund,Change expiry date,Brisbane,
36,Published,Exchange Casket Agency,"360 Queen Street, Brisbane , Brisbane Central",-27.4664,153.029,Brisbane Central,1,Standard retailer,,go card,Visitor Information Pack,,Buy,Top up,Change expiry date,,,Brisbane,
37,Published,George Street News,"370 George Street, Brisbane , Brisbane Central",-27.4689,153.021,Brisbane Central,1,Standard retailer,,go card,Visitor Information Pack,,Buy,Top up,Change expiry date,,,Brisbane,
38,Published,GPO News,"Shop 1, 40 Creek Street, Brisbane , Brisbane Central",-27.4671,153.029,Brisbane Central,1,Standard retailer,,go card,SEEQ card,Visitor Information Pack,Buy,Top up,Register,Refund,Change expiry date,Brisbane,
39,Published,Mary Street News,"Shop 4, 100 Edward Street , Brisbane , Brisbane Central",-27.4704,153.029,Brisbane Central,1,Standard retailer,,go card,Visitor Information Pack,,Buy,Top up,Change expiry date,,,Brisbane,
40,Archived,Midas News and Casket,"363 Adelaide Street, Brisbane , Brisbane Central",-27.4649,153.03,Brisbane Central,1,Standard retailer,,go card,,,Buy,Top up,Change expiry date,,,,
41,Published,Mineral House News,"41 George Street, Brisbane , Brisbane Central",-27.473771,153.026526,Brisbane Central,1,Standard retailer,,go card,Visitor Information Pack,,Buy,Top up,Change expiry date,,,Brisbane,
42,Published,Post Office Square News,"280 Queen Street, Brisbane , Brisbane Central",-27.468,153.028,Brisbane Central,1,Standard retailer,,go card,SEEQ card,Visitor Information Pack,Buy,Top up,Register,Refund,Change expiry date,Brisbane,
43,Published,QUT Student Guild,"2 George Street, Queensland University of Technology, Gardens Point campus (L block), Brisbane , Brisbane North",-27.4757,153.027,Brisbane North,1,Standard retailer,,go card,,,Buy,Top up,Change expiry date,,,,
44,Published,Rankins on the Mall,"Queen Street, Brisbane , Brisbane Central",-27.4697,153.025,Brisbane Central,1,Standard retailer,,go card,SEEQ card,Visitor Information Pack,Buy,Top up,Register,Refund,Change expiry date,Brisbane,
45,Published,Roma Street station,"Roma Street, Brisbane , Brisbane Central",-27.4652,153.019,Brisbane Central,5,Rail fare machine,,go card,SEEQ card,,Buy,Top up,Register,Refund,Change expiry date,Brisbane,
46,Published,Macarthur News,"259 Queen Street, Macarthur Central Building, Brisbane , Brisbane Central",-27.4683,153.027,Brisbane Central,1,Standard retailer,,go card,Visitor Information Pack,,Buy,Top up,Change expiry date,,,Brisbane,
47,Archived,Supanews Brisbane Square,"Brisbane Square, George Street, Brisbane , Brisbane Central",-27.4709,153.023,Brisbane Central,1,Standard retailer,,go card,Visitor Information Pack,,Buy,Top up,Change expiry date,,,,
48,Published,Supanews Central Station,"Central Concourse, Central Station, Ann Street , Brisbane , Brisbane Central",-27.466,153.026,Brisbane Central,1,Standard retailer,,go card,SEEQ card,Visitor Information Pack,Buy,Top up,Register,Refund,Change expiry date,Brisbane,
49,Published,Supanews Myer Centre Level A,"Queen Street Mall, Myer Centre (level A), Brisbane , Brisbane Central",-27.4711,153.025,Brisbane Central,1,Standard retailer,,go card,SEEQ card,Visitor Information Pack,Buy,Top up,Register,Refund,Change expiry date,Brisbane,
50,Published,NewsXpress Myer Centre Level E,"Queen Street Mall, Myer Centre (level E), Brisbane , Brisbane Central",-27.4709,153.024,Brisbane Central,1,Standard retailer,,go card,Visitor Information Pack,,Buy,Top up,Change expiry date,,,Brisbane,
51,Published,Supanews Xpress Central Station Platform 1/2,"Central station (platform 1/2), Ann Street, Brisbane , Brisbane Central",-27.4661,153.026,Brisbane Central,1,Standard retailer,,go card,Visitor Information Pack,,Buy,Top up,Change expiry date,,,Brisbane,
52,Published,Supanews Xpress Central Station Platform 3/4,"Central station (platform 3/4), Ann Street, Brisbane , Brisbane Central",-27.4661,153.026,Brisbane Central,1,Standard retailer,,go card,Visitor Information Pack,,Buy,Top up,Change expiry date,,,Brisbane,
53,Published,Supanews Xpress Central Station Platform 5/6,"Central station (platform 5/6), Ann Street , Brisbane , Brisbane Central",-27.4661,153.026,Brisbane Central,1,Standard retailer,,go card,Visitor Information Pack,,Buy,Top up,Change expiry date,,,Brisbane,
54,Published,Supanews Xpress Myer Centre Level E,"Queen Street Mall, Myer Centre (level E), Brisbane , Brisbane Central",-27.4712,153.024,Brisbane Central,1,Standard retailer,,go card,,,Buy,Top up,Change expiry date,,,,
55,Published,7-Eleven Phoenician Broadbeach,"The Phoenician, 90 Surf Parade, Broadbeach, Gold Coast",-28.027816,153.43085,Gold Coast,1,Standard retailer,,go card,Gold Coast go explore card,,Buy,Top up,Change expiry date,,,Gold Coast,
56,Published,7-Eleven Browns Plains,"264-266 Browns Plains Road, Browns Plains, Brisbane South",-27.6639,153.063,Brisbane South,1,Standard retailer,,go card,,,Buy,Top up,Change expiry date,,,,
57,Archived,Princess Alexandra Area News & Casket,"250 Ipswich Road, Buranda, Brisbane South",-27.498,153.035,Brisbane South,1,Standard retailer,,go card,Visitor Information Pack,,Buy,Top up,Change expiry date,,,,
58,Published,7-Eleven Burleigh Heads,"Gold Coast Highway, corner Fifth Avenue, Burleigh Heads, Gold Coast",-28.078462,153.446451,Gold Coast,1,Standard retailer,,go card,Gold Coast go explore card,,Buy,Top up,Change expiry date,,,Gold Coast,
59,Published,Burpengary Station,"Burpengary Road, Burpengary, Northern",-27.163078,152.957113,Northern,5,Rail fare machine,,go card,,,Buy,Top up,Register,Refund,Change expiry date,Moreton Bay,
60,Published,Caboolture Station,"Matthew Terrace, Caboolture, Northern",-27.083347,152.954011,Northern,5,Rail fare machine,,go card,,,Top up,,,,,Brisbane,
61,Published,NewsXpress Caboolture,"Matthew Terrace, corner James Street, Caboolture, Northern",-27.0833,152.953,Northern,1,Standard retailer,,go card,SEEQ card,Visitor Information Pack,Buy,Top up,Register,Refund,Change expiry date,,
62,Published,Nextra Cannon Hill,"K-Mart Plaza, Creek Road, Cannon Hill, Brisbane East",-27.4711,153.098,Brisbane East,1,Standard retailer,,go card,,,Buy,Top up,Change expiry date,,,,
63,Published,NewsExtra Capalaba,"Shop 77, Capalaba Central Shopping Centre, Moreton Bay Road, Capalaba, Eastern",-27.5231,153.194,Eastern,1,Standard retailer,,go card,,,Buy,,,,,,
64,Published,7-Eleven Carina,"1505 Creek Road, Carina, Brisbane East",-27.4877,153.1,Brisbane,1,Standard retailer,,go card,,,Buy,Top up,Change expiry date,,,Brisbane,
65,Published,Nextra Carindale News,"Upper Level Westfield Carindale, Creek Road, Carindale, Brisbane East",-27.504137,153.10215,Brisbane East,1,Standard retailer,,go card,SEEQ card,Visitor Information Pack,Buy,Top up,Register,Refund,Change expiry date,Brisbane,
66,Published,Nextra Chermside,"Westfield Shopping Centre, Gympie Road, Chermside, Brisbane North",-27.3854,153.033,Brisbane North,1,Standard retailer,,go card,SEEQ card,Visitor Information Pack,Buy,Top up,Register,Refund,Change expiry date,Brisbane,
67,Published,Bloomfield Street News,"115 - 117 Bloomfield Street, Cleveland, Eastern",-27.5275,153.267,Eastern,1,Standard retailer,,go card,SEEQ card,Visitor Information Pack,Buy,Top up,Register,Refund,Change expiry date,Moreton Bay,
68,Published,Cleveland station,"Shore Street, Cleveland, Eastern",-27.52421,153.265657,Eastern,6,Rail ticket office,,go card,,,Buy,Top up,Register,Refund,Change expiry date,Brisbane,
69,Published,7-Eleven Clontarf,"9 Elizabeth Avenue, Clontarf (Moreton Bay Regional), Northern",-27.2609,153.08,Northern,1,Standard retailer,,go card,,,Buy,Top up,Change expiry date,,,,
70,Published,7-Eleven Coolangatta,"18 Griffith Street, Coolangatta (Gold Coast City), Gold Coast",-28.16833,153.536129,Gold Coast,1,Standard retailer,,go card,Gold Coast go explore card,,Buy,Top up,Change expiry date,,,Gold Coast,
71,Published,7-Eleven Coopers Plains,"129 Orange Grove Road, Coopers Plains, Brisbane South",-27.5639,153.04,Brisbane South,1,Standard retailer,,go card,,,Buy,Top up,Change expiry date,,,,
72,Archived,Cavendish Road News,"157 Cavendish Road, Coorparoo, Brisbane East",-27.4936,153.059,Brisbane East,1,Standard retailer,,go card,,,Buy,Top up,Change expiry date,,,,
73,Published,Corinda station,"Watt Street, corner Ruthven Street, Corinda, Brisbane South",-27.5396,152.98,Brisbane South,5,Rail fare machine,,go card,,,Buy,Top up,Register,Refund,Change expiry date,,
74,Published,Darra station,"Darra Station Road, Darra, Brisbane West",-27.5659,152.952,Brisbane West,5,Rail fare machine,,go card,,,Buy,Top up,Register,Refund,Change expiry date,,
75,Published,7-Eleven Deagon,"11 Depot Road, Deagon, Brisbane North",-27.3284,153.054,Brisbane North,1,Standard retailer,,go card,,,Buy,Top up,Change expiry date,,,,
76,Published,7-Eleven Dinmore,"29-31 Brisbane Road, Dinmore, Western",-27.5979,152.832,Western,1,Standard retailer,,go card,,,Buy,Top up,Change expiry date,,,,
77,Published,7-Eleven Durack,"14 Rosemary Street, Durack, Brisbane South",-27.5792,152.975,Brisbane South,1,Standard retailer,,go card,,,Buy,Top up,Change expiry date,,,,
78,Published,Eagle Junction station,"Junction Road, Eagle Junction, Brisbane North",-27.4151,153.05,Brisbane North,5,Rail fare machine,,go card,,,Buy,Top up,Register,Refund,Change expiry date,,
79,Published,7-Eleven East Beenleigh,"79 Logan River Road, East Beenleigh, Southern",-27.7134,153.185,Southern,1,Standard retailer,,go card,,,Buy,Top up,Change expiry date,,,,
80,Published,7-Eleven East Brisbane,"508 Vulture Street, East Brisbane, Brisbane East",-27.4847,153.039,Brisbane East,1,Standard retailer,,go card,,,Buy,Top up,Change expiry date,,,,
81,Published,7-Eleven Fairfield Gardens,"180 Fairfield Road, Fairfield Gardens, Brisbane South",-27.509,153.026,Brisbane South,1,Standard retailer,,go card,,,Buy,Top up,Change expiry date,,,,
82,Published,Ferny Grove station,"Conavalla Street, Ferny Grove, Brisbane North",-27.4013,152.935,Brisbane North,5,Rail fare machine,,go card,,,Buy,Top up,Register,Refund,Change expiry date,,
83,Published,Forest Lake Village News,"Forest Lake Village Shopping Centre, Forest Lake Boulevard, Forest Lake, Brisbane West",-27.6255,152.968,Brisbane West,1,Standard retailer,,go card,,,Buy,Top up,Change expiry date,,,,
84,Published,7-Eleven Fortitude Valley,"376 Brunswick Street, Fortitude Valley, Brisbane Central",-27.4589,153.036,Brisbane Central,1,Standard retailer,,go card,,,Buy,Top up,Change expiry date,,,,
85,Published,Fortitude Valley station,"Brunswick Street, Fortitude Valley, Brisbane Central",-27.4567,153.033,Brisbane Central,5,Rail fare machine,,go card,SEEQ card,,Buy,Top up,Register,Refund,Change expiry date,Brisbane,
86,Published,7-Eleven Graceville,"246 Oxley Road, Graceville, Brisbane South",-27.5219,152.98,Brisbane South,1,Standard retailer,,go card,,,Buy,Top up,Change expiry date,,,,
87,Published,7-Eleven Grange,"Days Road, corner Kedron Brook Road, Grange, Brisbane North",-27.4266,153.019,Brisbane North,1,Standard retailer,,go card,,,Buy,Top up,Change expiry date,,,,
88,Published,Greenslopes Newsagency,"Shop 19, Greenslopes Mall, 700 Logan Road, Greenslopes, Brisbane South",-27.5121,153.054,Brisbane South,1,Standard retailer,,go card,,,Buy,Top up,Change expiry date,,,,
89,Published,7-Eleven Hamilton,"Kingsford Smith Drive, corner and Racecourse Road, Hamilton, Brisbane North",-27.441,153.046,Brisbane North,1,Standard retailer,,go card,,,Buy,Top up,Change expiry date,,,,
90,Published,Riding Road News,"63 Riding Road, Hawthorne, Brisbane East",-27.4668,153.065,Brisbane East,1,Standard retailer,,go card,,,Buy,Top up,Change expiry date,,,,
91,Published,Helensvale station,"Town Centre Drive, Helensvale, Gold Coast",-27.9258,153.339,Gold Coast,5,Rail fare machine,,go card,SEEQ card,,Buy,Top up,Register,Refund,Change expiry date,,
92,Published,Supanews Xpress Helensvale,"Westfield Shopping Centre, Gold Coast Highway, corner Town Centre Drive, Helensvale, Gold Coast",-27.9272,153.336,Gold Coast,1,Standard retailer,,go card,Gold Coast go explore card,,Buy,Top up,Change expiry date,,,Gold Coast,
93,Published,7-Eleven Heritage Park,"118 Waller Road, Heritage Park, Southern",-27.6734,153.053,Southern,1,Standard retailer,,go card,,,Buy,Top up,Change expiry date,,,,
94,Published,Nextra General Hospital News,"Ned Hanlon Building, Royal Brisbane Hospital, Herston, Brisbane North",-27.4475,153.029,Brisbane North,1,Standard retailer,,go card,Visitor Information Pack,,Buy,Top up,Change expiry date,,,Brisbane,
95,Published,7-Eleven Hope Island,"341 Southport-Oxenford Road, Hope Island, Gold Coast",-27.880533,153.334068,Gold Coast,1,Standard retailer,,go card,Gold Coast go explore card,,Buy,Top up,Change expiry date,,,Gold Coast,
96,Published,Inala Plaza News,"Shop 4, Inala Civic Centre, Corsair Avenue, Inala, Brisbane West",-27.599,152.975,Brisbane West,1,Standard retailer,,go card,,,Buy,Top up,Change expiry date,,,,
97,Published,7-Eleven Indooroopilly,"14 Station Road, Indooroopilly, Brisbane West",-27.5026,152.975,Brisbane West,1,Standard retailer,,go card,,,Buy,Top up,Change expiry date,,,,
98,Published,Metro News Indooroopilly,"Level 3, Indooroopilly Shoppingtown, Indooroopilly, Brisbane West",-27.4976,152.974,Brisbane West,1,Standard retailer,,go card,SEEQ card,Visitor Information Pack,Buy,Top up,Register,Refund,Change expiry date,Brisbane,
99,Published,Ipswich station,"Bell Street, Ipswich, Western",-27.6129,152.761,Western,5,Rail fare machine,,go card,SEEQ card,,Buy,Top up,Register,Refund,Change expiry date,,
100,Published,7-Eleven Jindalee,"721 Seventeen Mile Rock Road, Jindalee, Brisbane West",-27.5373,152.95,Brisbane West,1,Standard retailer,,go card,,,Buy,Top up,Change expiry date,,,,
101,Published,7-Eleven Kedron,"Cnr Gympie Road and Nundah Street, Kedron, Brisbane North",-27.4008,153.032,Brisbane North,1,Standard retailer,,go card,,,Buy,Top up,Change expiry date,,,,
102,Published,Kelvin Grove News & Post Office,"Victoria Park Road, Queensland University of Technology (C block), Kelvin Grove, Brisbane North",-27.4518,153.015,Brisbane North,1,Standard retailer,,go card,,,Buy,Top up,Change expiry date,,,,
103,Published,7-Eleven Kenmore,"2058-2062 Moggill Road, Kenmore, Brisbane West",-27.5102,152.938,Brisbane West,1,Standard retailer,,go card,,,Buy,Top up,Change expiry date,,,,
104,Published,Supanews Keperra,"Settlement Road, Great Western Super Centre, Keperra, Brisbane North",-27.4151,152.949,Brisbane North,1,Standard retailer,,go card,,,Buy,Top up,Change expiry date,,,,
105,Published,7-Eleven Kingston,"Kingston Road, corner Wanda Street, Kingston",-27.6449,153.118,South East Queensland,1,Standard retailer,,go card,,,Buy,Top up,Change expiry date,,,South East Queensland,
106,Published,7-Eleven Kirra,"Kirra Beach Plaza, Musgrave Road, corner Douglas Road, Kirra, Gold Coast",-28.1678,153.528,Gold Coast,1,Standard retailer,,go card,Gold Coast go explore card,,Buy,Top up,Change expiry date,,,Gold Coast,
107,Published,7-Eleven Labrador,"78-84 Frank Street, Labrador, Gold Coast",-27.9487,153.408,Gold Coast,1,Standard retailer,,go card,Gold Coast go explore card,,Buy,Top up,Change expiry date,,,Gold Coast,
108,Published,7-Eleven Logan City,"120 Wembley Road, Logan City, Southern",-27.6413,153.107,Southern,1,Standard retailer,,go card,,,Buy,Top up,Change expiry date,,,,
109,Published,7-Eleven Lutwyche,"446 Lutwyche Road, Lutwyche, Brisbane North",-27.4247,153.033,Brisbane North,1,Standard retailer,,go card,,,Buy,Top up,Change expiry date,,,,
110,Published,7-Eleven Mackenzie,"902 Mt Gravatt-Capalaba Road, Mackenzie (Brisbane City), Eastern",-27.5459,153.123,Eastern,1,Standard retailer,,go card,,,Buy,Top up,Change expiry date,,,,
111,Published,Supanews North Lakes,"Shop 1085, Westfield Shopping Centre, Anzac Avenue, North Lakes, Northern",-27.2398,153.02,Brisbane,1,Standard retailer,,go card,SEEQ card,Visitor Information Pack,Buy,Top up,Register,Refund,Change expiry date,Brisbane,
112,Published,Manly station,"Ernest Street, Manly, Brisbane East",-27.457,153.18,Brisbane East,5,Rail fare machine,,go card,,,Buy,Top up,Register,Refund,Change expiry date,,
113,Published,7-Eleven Manly West,"459 Manly Road, Manly West, Eastern",-27.4755,153.166,Eastern,1,Standard retailer,,go card,,,Buy,Top up,Change expiry date,,,,
114,Published,7-Eleven Marcoola,"946-948 David Low Way, Marcoola, Sunshine Coast",-26.6007,153.096,Sunshine Coast,1,Standard retailer,,go card,,,Buy,Top up,Change expiry date,,,,
115,Published,7-Eleven Maroochydore,"Aerodrome Road, corner Wirraway Street, Maroochydore, Sunshine Coast",-26.6624,153.105,Sunshine Coast,1,Standard retailer,,go card,,,Buy,Top up,Change expiry date,,,,
116,Published,Cotton Tree News,"9 King Street, Maroochydore, Sunshine Coast",-26.6547,153.101,Sunshine Coast,1,Standard retailer,,go card,,,Buy,Top up,Change expiry date,,,,
117,Published,7-Eleven Maroochydore North,"53 Aerodrome Road, Maroochydore, Sunshine Coast",-26.6605,153.1,Sunshine Coast,1,Standard retailer,,go card,,,Buy,Top up,Change expiry date,,,,
118,Published,7-Eleven Mermaid Waters,"1 Lakeview Boulevard, Mermaid Waters, Queensland, Australia",-28.040189,153.408303,Gold Coast,1,Standard retailer,,go card,Gold Coast go explore card,,Buy,Top up,Change expiry date,,,Gold Coast,
119,Published,Milton News Centre,"Shop 3, Milton Shopping Centre, Baroona Road, Milton, Brisbane West",-27.4685,153.003,Brisbane West,1,Standard retailer,,go card,,,Buy,Top up,Change expiry date,,,,
120,Published,Mitchelton station,"McConaghy Street, Mitchelton, Brisbane North",-27.4115,152.976,Brisbane North,5,Rail fare machine,,go card,,,Buy,Top up,Register,Refund,Change expiry date,Brisbane,
121,Published,7-Eleven Mooloolaba,"85 The Esplanade, Mooloolaba, Sunshine Coast",-26.6841,153.125,Sunshine Coast,1,Standard retailer,,go card,,,Buy,Top up,Change expiry date,,,,
122,Published,7-Eleven Morayfield,"272 Morayfield Road, Morayfield, Northern",-27.1123,152.951,Northern,1,Standard retailer,,go card,,,Buy,Top up,Change expiry date,,,,
123,Published,Morayfield station,"Visentin Road, Morayfield, Northern",-27.1098,152.952,Northern,5,Rail fare machine,,go card,,,Buy,Top up,Register,Refund,Change expiry date,,
124,Published,7-Eleven Murrumba Downs,"9 Blyth Road, Murrumba Downs, Northern",-27.2732,153.015,Northern,1,Standard retailer,,go card,,,Buy,Top up,Change expiry date,,,,
125,Published,Nambour station,"Civic Way, Nambour, Sunshine Coast",-26.6258,152.958,Sunshine Coast,5,Rail fare machine,,go card,SEEQ card,,Buy,Top up,Register,Refund,Change expiry date,,
126,Published,Nathan Post Office,"Kessels Road, Community Centre, Griffith University, Nathan, Brisbane South",-27.5529,153.054,Brisbane South,1,Standard retailer,,go card,SEEQ card,Visitor Information Pack,Buy,Top up,Register,Refund,Change expiry date,Brisbane,
127,Published,Nerang station,"Warrener Street, Nerang, Gold Coast",-27.9943,153.35,Gold Coast,5,Rail fare machine,,go card,,,Buy,Top up,Register,Refund,Change expiry date,,
128,Published,7-Eleven New Farm,"79 Merthyr Road, New Farm, Brisbane Central",-27.4674,153.046,Brisbane Central,1,Standard retailer,,go card,,,Buy,Top up,Change expiry date,,,,
129,Published,7-Eleven Noosa,"91-97 Noosa Drive, Noosa Heads, Sunshine Coast",-26.3971,153.088,Sunshine Coast,1,Standard retailer,,go card,,,Buy,Top up,Change expiry date,,,,
130,Published,Northgate station,"Ryan Street, corner Holland Street, Northgate, Brisbane North",-27.3936,153.069,Brisbane North,5,Rail fare machine,,go card,,,Buy,Top up,Register,Refund,Change expiry date,,
131,Published,Toombul station,"Collins Street, Nundah, Brisbane North",-27.4073,153.059,Brisbane North,5,Rail fare machine,,go card,,,Buy,Top up,Register,Refund,Change expiry date,,
132,Published,7-Eleven Oxenford,"170 Old Pacific Highway, Oxenford, Gold Coast",-27.885812,153.313517,Gold Coast,1,Standard retailer,,go card,Gold Coast go explore card,,Buy,Top up,Change expiry date,,,Gold Coast,
133,Published,Oxley Rail Station Fare Machine,"Ardoyne Road, Oxley, Brisbane South",-27.5525,152.974,Brisbane South,5,Rail fare machine,,go card,,,Top up,,,,,,
134,Published,Paddington News ,"Shop 5, 95 Latrobe Terrace, Paddington, Brisbane North",-27.459,152.998,Brisbane North,1,Standard retailer,,go card,,,Buy,Top up,Change expiry date,,,,
135,Published,7-Eleven Palm Beach North,"1346-1354 Gold Coast Highway, Palm Beach North, Palm Beach, Gold Coast",-28.109083,153.465528,Gold Coast,1,Standard retailer,,go card,Gold Coast go explore card,,Buy,Top up,Change expiry date,,,Gold Coast,
136,Published,Park Ridge News,"Park Ridge Shopping Village corner Mt Lindesay Hwy and Park Ridge Road, Park Ridge, Southern",-27.6974,153.039,Southern,1,Standard retailer,,go card,,,Buy,Top up,Change expiry date,,,,
137,Published,7-Eleven Parkwood,"236 Napper Road, Parkwood, Gold Coast",-27.947034,153.350839,Gold Coast,1,Standard retailer,,go card,Gold Coast go explore card,,Buy,Top up,Change expiry date,,,Gold Coast,
138,Published,7-Eleven Red Hill,"152 Musgrave Road, Red Hill (Brisbane City), Brisbane North",-27.4554,153.007,Brisbane North,1,Standard retailer,,go card,,,Buy,Top up,Change expiry date,,,,
139,Published,7-Eleven Redbank Plains,"355 Redbanks Plains Road, Redbank Plains, Western",-27.6449,152.871,Western,1,Standard retailer,,go card,,,Buy,Top up,Change expiry date,,,,
140,Published,7-Eleven Redcliffe,"77 Anzac Avenue, Redcliffe, Northern",-27.2305,153.109,Northern,1,Standard retailer,,go card,,,Buy,Top up,Change expiry date,,,,
141,Published,Redland Bay News ,"Shop 29, Redland Bay Shopping Centre, Broadwater Terrace , Redland Bay, Eastern",-27.6047,153.301,Eastern,1,Standard retailer,,go card,,,Buy,Top up,Change expiry date,,,,
142,Published,7-Eleven Riverhills,"Sumners Road, corner Wacol Station Road, Riverhills, Western",-27.5622,152.922,Western,1,Standard retailer,,go card,,,Buy,Top up,Change expiry date,,,,
143,Published,Robina station,"Bayberry Lane, Robina, Gold Coast",-28.0714,153.378,Gold Coast,5,Rail fare machine,,go card,,,Buy,Top up,Register,Refund,Change expiry date,Gold Coast,
144,Published,Rosewood station,"Railway Street, Rosewood, Western",-27.6432,152.593,Western,5,Rail fare machine,,go card,,,Buy,Top up,Register,Refund,Change expiry date,,
145,Published,Sandgate station,"Rainbow Street, Sandgate, Northern",-27.3222,153.069,Northern,5,Rail fare machine,,go card,,,Buy,Top up,Register,Refund,Change expiry date,,
146,Published,7-Eleven Silkstone,"Blackstone Road, corner South Station Road, Silkstone, Western",-27.6109,152.79,Western,1,Standard retailer,,go card,,,Buy,Top up,Change expiry date,,,,
147,Published,NewsXpress Chancellor Park ,"Shop 7, Chancellor Park, Marketplace University Way, Sippy Downs, Sunshine Coast",-26.7152,153.055,Sunshine Coast,1,Standard retailer,,go card,,,Buy,Top up,Change expiry date,,,,
148,Published,South Brisbane Station,"Grey Street, South Brisbane, Brisbane Central",-27.474857,153.018268,Brisbane Central,5,Rail fare machine,,go card,SEEQ card,,Buy,Top up,Register,Refund,Change expiry date,Brisbane,
149,Published,South Bank Beach News,"Stanley Street Plaza, Stanley Street, South Bank, Brisbane Central",-27.4785,153.023,Brisbane Central,1,Standard retailer,,go card,Visitor Information Pack,,Buy,Top up,Change expiry date,,,Brisbane,
150,Archived,7-Eleven Australia Fair,"Australia Fair, Scarborough Street, Southport, Gold Coast",-27.9695,153.414,Gold Coast,1,Standard retailer,,go card,,,Buy,Top up,Change expiry date,,,Airlie Beach,
151,Published,GUGC Student Guild,"Griffith University, Parklands Drive, The Link Building, Gold Coast Campus, Southport, Gold Coast",-27.96094,153.382255,Gold Coast,1,Standard retailer,,go card,Gold Coast go explore card,,Buy,Top up,Change expiry date,,,Gold Coast,
152,Published,7-Eleven Spring Hill,"170 Leichhardt Street, Spring Hill, Brisbane North",-27.462,153.026,Brisbane North,1,Standard retailer,,go card,,,Buy,Top up,Change expiry date,,,,
153,Published,Springfield Fair News,"Springfield Fair Shopping Centre , Springfield, Brisbane West",-27.6533,152.918,Brisbane West,1,Standard retailer,,go card,,,Buy,Top up,Change expiry date,,,,
154,Archived,7-Eleven Springwood,"Springwood Street, corner Pannikin Street, Springwood, Southern",-27.61,153.124,Southern,1,Standard retailer,,go card,,,Buy,Top up,Change expiry date,,,Airlie Beach,
155,Published,Springwood Mall Newsagency ,"Shop 9, Centro Shopping Centre, Fitzgerald Avenue, Springwood, Southern",-27.6147,153.125,Southern,1,Standard retailer,,go card,,,Buy,Top up,Change expiry date,,,,
156,Published,Campus News,"Staffhouse Road, Union Complex, University Of Queensland (building 4), St Lucia, Brisbane West",-27.4982,153.014,Brisbane West,1,Standard retailer,,go card,SEEQ card,Visitor Information Pack,Buy,Top up,Register,Refund,Change expiry date,Brisbane,
157,Published,St Lucia News,"217 Hawken Drive, St Lucia, Brisbane West",-27.5025,153.006,Brisbane West,1,Standard retailer,,go card,,,Buy,Top up,Change expiry date,,,,
158,Published,Stafford City News,"Stafford City Shopping Centre, 400 Stafford Road, Stafford, Brisbane North",-27.4121,153.013,Brisbane North,1,Standard retailer,,go card,,,Buy,Top up,Change expiry date,,,,
159,Published,Strathpine station,"Station Street, Strathpine, Northern",-27.3118,152.99,Northern,5,Rail fare machine,,go card,,,Buy,Top up,Register,Refund,Change expiry date,,
160,Published,7-Eleven Sunnybank,"82 Pinelands Road, Sunnybank, Brisbane South",-27.5915,153.06,Brisbane South,1,Standard retailer,,go card,,,Buy,Top up,Change expiry date,,,,
161,Published,7-Eleven Sunnybank Market Square,"Mains Road, corner McCulloch Street, Sunnybank, Brisbane South",-27.572561,153.065223,Brisbane,1,Standard retailer,,go card,,,Buy,Top up,Change expiry date,,,Brisbane,
162,Published,7-Eleven Sunnybank Hills,"Compton Road, corner Gowan Road, Sunnybank Hills, Brisbane South",-27.6112,153.063,Brisbane South,1,Standard retailer,,go card,,,Buy,Top up,Change expiry date,,,,
163,Published,7-Eleven Surfers Paradise,"3187 Gold Coast Highway, Surfers Paradise, Gold Coast",-27.999044,153.428716,Gold Coast,1,Standard retailer,,go card,Gold Coast go explore card,,Buy,Top up,Change expiry date,,,Gold Coast,
164,Published,7-Eleven Orchid Avenue Surfers Paradise,"7a Cavill Court, Orchid Avenue, Surfers Paradise, Gold Coast",-28.001777,153.429638,Gold Coast,1,Standard retailer,,go card,Gold Coast go explore card,,Buy,Top up,Change expiry date,,,Gold Coast,
165,Published,7-Eleven The Paradise Centre Surfers Paradise,"The Paradise Centre, Cavill Avenue, Surfers Paradise, Gold Coast",-28.00215,153.429242,Gold Coast,1,Standard retailer,,go card,Gold Coast go explore card,,Buy,Top up,Change expiry date,,,Gold Coast,
166,Published,NewsXpress The Gap,"The Gap Village, 1000 Waterworks Road, The Gap (Brisbane City), Brisbane North",-27.445,152.952,Brisbane North,1,Standard retailer,,go card,,,Buy,Top up,Change expiry date,,,,
167,Published,7-Eleven Toowong,"50 Sherwood Road, Toowong, Brisbane West",-27.4857,152.991,Brisbane West,1,Standard retailer,,go card,,,Buy,Top up,Change expiry date,,,,
168,Published,Toowong station,"Sherwood Road, Toowong, Brisbane West",-27.4857,152.993,Brisbane West,5,Rail fare machine,,go card,,,Buy,Top up,Register,Refund,Change expiry date,,
169,Published,Infinity News,"3215 Logan Road, Underwood, Southern",-27.607,153.11,Southern,1,Standard retailer,,go card,,,Buy,Top up,Change expiry date,,,,
170,Published,Town Centre News,"Town Centre Shopping Centre, 355-369 Colburn Avenue, Victoria Point, Eastern",-27.5865,153.283,Eastern,1,Standard retailer,,go card,,,Buy,Top up,Change expiry date,,,,
171,Published,7-Eleven Warana,"Nicklin Way, corner Aquatic Drive, Warana, Sunshine Coast",-26.7197,153.13,Sunshine Coast,1,Standard retailer,,go card,,,Buy,Top up,Change expiry date,,,,
172,Published,7-Eleven West End,"94 Boundary Street, West End (Brisbane City), Brisbane South",-27.4786,153.013,Brisbane South,1,Standard retailer,,go card,,,Buy,Top up,Change expiry date,,,,
173,Published,West End News,"199 Boundary Street, West End (Brisbane City), Brisbane South",-27.4807,153.012,Brisbane South,1,Standard retailer,,go card,,,Buy,Top up,Change expiry date,,,,
174,Published,7-Eleven Windaroo,"159-163 Beenleigh-Beaudesert Road, Windaroo, Southern",-27.7444,153.187,Southern,1,Standard retailer,,go card,,,Buy,Top up,Change expiry date,,,,
175,Published,7-Eleven Wishart,"Mt Gravatt-Capalaba Road, corner Newnham Road, Wishart, Brisbane South",-27.5559,153.09,Brisbane South,1,Standard retailer,,go card,,,Buy,Top up,Change expiry date,,,,
176,Published,7-Eleven Woodridge,"Compton Road, corner North Road, Woodridge, Southern",-27.6187,153.105,Southern,1,Standard retailer,,go card,,,Buy,Top up,Change expiry date,,,,
177,Published,Woodridge station,"Station Road, Woodridge, Southern",-27.6382,153.104,Southern,5,Rail fare machine,,go card,,,Buy,Top up,Register,Refund,Change expiry date,,
178,Published,Mater News Central,"550 Stanley Street, Woolloongabba, Brisbane South",-27.4848,153.028,Brisbane South,1,Standard retailer,,go card,SEEQ card,Visitor Information Pack,Buy,Top up,Register,Refund,Change expiry date,Brisbane,
179,Published,7-Eleven Wynnum,"Edith Road, corner Tingal Road, Wynnum, Eastern",-27.4462,153.172,Eastern,1,Standard retailer,,go card,,,Buy,Top up,Change expiry date,,,,
180,Published,7-Eleven Yamanto,"130 Ash Street, corner Astral Court, Yamanto, Western",-27.6547,152.754,Western,1,Standard retailer,,go card,,,Buy,Top up,Change expiry date,,,,
181,Published,7-Eleven Yeronga,"563 Fairfield Road, Yeronga, Brisbane South",-27.5195,153.015,Brisbane South,1,Standard retailer,,go card,,,Buy,Top up,Change expiry date,,,,
182,Published,7-Eleven Zillmere,"Zillmere Road, corner Handford Road, Zillmere, Brisbane North",-27.3595,153.038,Brisbane North,1,Standard retailer,,go card,,,Buy,Top up,Change expiry date,,,,
183,Published,Zillmere station,"Zillmere Road, Zillmere, Brisbane North",-27.3593,153.037,Brisbane North,5,Rail fare machine,,go card,,,Buy,Top up,Register,Refund,Change expiry date,,
184,Published,Four Square ,"18 Cracknell Road, Annerley, Brisbane South",-27.5184,153.03,Brisbane South,1,Standard retailer,,go card,,,Buy,,,,,,
185,Published,Josies and Leo Convenience Store,"212 Cracknell Road, Tarragindi, Brisbane South",-27.5199,153.041,Brisbane South,1,Standard retailer,,go card,,,Buy,,,,,,
186,Published,Kenmore News & Casket,"2069 Moggill Road , Kenmore, Brisbane West",-27.5085,152.938,Brisbane West,1,Standard retailer,,go card,,,Buy,,,,,Brisbane,
187,Published,Moorvale News,"186 Beaudesert Road, Moorooka, Brisbane South",-27.5326,153.025,Brisbane,1,Standard retailer,,go card,,,Buy,,,,,Brisbane,
188,Published,Taigum News,"Shop 28, Taigum Central Shopping Centre, Beams Road, Taigum, Brisbane North",-27.3507,153.047,Brisbane North,1,Standard retailer,,go card,,,Buy,,,,,,
189,Published,Walton Bridge News,"Shop 10, 974 Waterworks Road , The Gap (Brisbane City), Brisbane North",-27.4451,152.952,Brisbane North,1,Standard retailer,,go card,,,Buy,,,,,,
190,Published,Wynnum North Newsagency,"Shop 1, 150 Selina Road , Wynnum, Eastern",-27.4368,153.159,Eastern,1,Standard retailer,,go card,,,Buy,,,,,,
191,Archived,Coolum News & Minimart,"1786 David Low Way, Coolum Beach, Sunshine Coast",-26.5309,153.091,Sunshine Coast,1,Standard retailer,,go card,,,Buy,,,,,,
192,Published,Nextra Toombul,"Sandgate Road, Toombul, Brisbane North",-27.4086,153.061,Brisbane North,1,Standard retailer,,go card,,,Buy,,,,,Brisbane,
193,Published,Bli Bli News,"Shop 5, River Markets, David Low Way, Bli Bli, Sunshine Coast",-26.6221,153.044,Sunshine Coast,1,Standard retailer,,go card,,,Buy,,,,,,
194,Published,Banyo News and Officesmart,"276 St Vincents Road, Banyo, Brisbane North",-27.3749,153.077,Brisbane North,1,Standard retailer,,go card,,,Buy,,,,,,
195,Published,Rode Newsagency,"Shop 22 Rode Shopping Centre, Appleby Road, Stafford Heights, Brisbane North",-27.3917,153.012,Brisbane North,1,Standard retailer,,go card,,,Buy,,,,,,
196,Published,Albion Station,"49 Albion Road, Albion, Brisbane North",-27.429409,153.040021,Brisbane North,6,Rail ticket office,,,,,Top up,,,,,Brisbane,
197,Published,Alderley Station,"Railway Place, Alderley, Brisbane North",-27.423433,153.000987,Brisbane North,6,Rail ticket office,,,,,Top up,,,,,Brisbane,
198,Published,Altandi Station,"125 Mains Road, Sunnybank, Brisbane South",-27.582671,153.063376,Brisbane South,6,Rail ticket office,,,,,Top up,,,,,Brisbane,
199,Published,Ascot Station,"McGill Avenue, Ascot (Brisbane City), Brisbane North",-27.429214,153.063238,Brisbane North,6,Rail ticket office,,,,,Top up,,,,,Brisbane,
200,Published,Auchenflower Station,"Auchenflower Terrace, Auchenflower, Brisbane West",-27.476557,152.996743,Brisbane West,6,Rail ticket office,,,,,Top up,,,,,Brisbane,
201,Published,Bald Hills Station,"Cullimore Street, Bald Hills, Brisbane North",-27.321362,153.011654,Brisbane North,6,Rail ticket office,,,,,Top up,,,,,Brisbane,
202,Published,Banoon Station,"82 Breton Street, Sunnybank, Brisbane South",-27.576019,153.046177,Brisbane South,6,Rail ticket office,,,,,Top up,,,,,Brisbane,
203,Published,Banyo Station,"268 St Vincents Road, Banyo, Brisbane North",-27.374986,153.077279,Brisbane North,5,Rail fare machine,,,,,Top up,,,,,Brisbane,
204,Published,Beenleigh Station,"Alamein Street, Beenleigh, Southern",-27.717115,153.204236,Southern,5,Rail fare machine,,,,,Top up,,,,,Logan,
205,Published,Beerburrum Station,"Church Street, Beerburrum, Northern",-26.959839,152.959021,Northern,6,Rail ticket office,,,,,Top up,,,,,Sunshine Coast,
206,Published,Beerwah Station,"Beerwah Parade, Beerwah, Northern",-26.857894,152.958386,Northern,6,Rail ticket office,,,,,Top up,,,,,Sunshine Coast,
207,Published,Bethania Station,"Station Road, Bethania, Southern",-27.688471,153.158762,Southern,6,Rail ticket office,,,,,Top up,,,,,Logan,
208,Published,Bindha Station,"Park Street, Banyo, Brisbane North",-27.382901,153.07245,Brisbane,5,Rail fare machine,,,,,Top up,,,,,Brisbane,
209,Published,Birkdale Station,"Napier Street, Birkdale, Eastern",-27.493933,153.218483,Eastern,6,Rail ticket office,,,,,Top up,,,,,Redlands,
210,Published,Boondall Station,"Aberdeen Parade, Boondall, Brisbane North",-27.346405,153.067622,Brisbane North,5,Rail fare machine,,,,,Top up,,,,,Brisbane,
211,Published,Booval Station,"South Station Road, Booval, Western",-27.609357,152.789791,Western,5,Rail fare machine,,,,,Top up,,,,,Ipswich,
212,Published,Bowen Hills Station,"Abbotsford Road, Bowen Hills, Brisbane Central",-27.445162,153.037549,Brisbane Central,6,Rail ticket office,,,,,Top up,,,,,Brisbane,
213,Published,Bray Park Station,"Railway Avenue, Bray Park (Moreton Bay Regional), Northern",-27.299357,152.986145,Moreton Bay,6,Rail ticket office,,,,,Top up,,,,,Moreton Bay,
214,Published,Fortitude Valley station,"Brunswick Street, Fortitude Valley, Brisbane Central",-27.4567,153.033,Brisbane Central,6,Rail ticket office,,,,,Top up,,,,,Brisbane,
215,Published,Bundamba Station,"Mining Street, Bundamba, Western",-27.607519,152.804549,Western,6,Rail ticket office,,,,,Top up,,,,,Ipswich,
216,Published,Buranda Station,"Gillingham Street, Buranda, Brisbane South",-27.496571,153.040397,Brisbane South,6,Rail ticket office,,,,,Top up,,,,,Brisbane,
217,Published,Burpengary Station,"Burpengary Road, Burpengary, Northern",-27.163063,152.957107,Northern,6,Rail ticket office,,,,,Top up,,,,,Moreton Bay,
218,Published,Caboolture Station Ticket Office,"Matthew Terrace, Caboolture, Northern",-27.083338,152.954021,Northern,6,Rail ticket office,,go card,,,Buy,Top up,Register,Refund,Change expiry date,Brisbane,
219,Published,Cannon Hill Station,"60 Barracks Road, Cannon Hill, Brisbane East",-27.465367,153.088115,Brisbane East,6,Rail ticket office,,,,,Top up,,,,,Brisbane,
220,Published,Carseldine Station,"Beams Road, Carseldine, Brisbane North",-27.348448,153.029145,Brisbane North,6,Rail ticket office,,,,,Top up,,,,,Brisbane,
221,Published,Central station,"Cnr Edward and Ann Street, Brisbane , Brisbane Central",-27.465905,153.025936,Brisbane Central,6,Rail ticket office,,,,,Top up,,,,,Brisbane,
222,Published,Chelmer station,"140 Honour Avenue, Chelmer, Brisbane South",-27.511648,152.972871,Brisbane South,6,Rail ticket office,,,,,Top up,,,,,Brisbane,
223,Published,Clayfield station,"761 Sandgate Road, Clayfield, Brisbane North",-27.4175,153.057,Brisbane North,5,Rail fare machine,,,,,Top up,,,,,Brisbane,
224,Published,Cleveland station,"Shore Street, Cleveland, Eastern",-27.524219,153.265667,Eastern,5,Rail fare machine,,,,,Top up,,,,,Brisbane,
225,Published,Coomera station,"Railway Reserve 11 Foxwell Road, Coomera, Gold Coast",-27.8535,153.318,Gold Coast,2,Preloaded reseller,,,,,Top up,,,,,,
226,Published,Coopers Plains station,"Henley Street, Coopers Plains, Brisbane South",-27.5684,153.036,Brisbane South,2,Preloaded reseller,,,,,Top up,,,,,,
227,Published,Cooroy  station,"Elm Street, Cooroy, Sunshine Coast",-26.4187,152.911,Sunshine Coast,2,Preloaded reseller,,,,,Top up,,,,,,
228,Published,Coorparoo station,"Cavendish Road, Coorparoo, Brisbane East",-27.4897,153.055,Brisbane East,6,Rail ticket office,,,,,Top up,,,,,Brisbane,
229,Published,Corinda station,"Cnr Watt &amp; Ruthven Street, Corinda, Brisbane South",-27.5396,152.98,Brisbane South,2,Preloaded reseller,,,,,Top up,,,,,,
230,Published,Dakabin station,"Narangba Road, Dakabin, Northern",-27.2285,152.975,Northern,2,Preloaded reseller,,,,,Top up,,,,,,
231,Published,Darra station,"Darra Station Road, Darra, Brisbane West",-27.5659,152.952,Brisbane West,2,Preloaded reseller,,,,,Top up,,,,,,
232,Published,Deagon station,"Adams Street, Deagon, Brisbane North",-27.3273,153.063,Brisbane North,2,Preloaded reseller,,,,,Top up,,,,,,
233,Published,Dinmore station,"Mason Street, Dinmore, Western",-27.5964,152.833,Western,2,Preloaded reseller,,,,,Top up,,,,,,
234,Published,Domestic Terminal station,"Airport Drive, Airport (Brisbane), Brisbane East",-27.3852,153.119,Brisbane East,2,Preloaded reseller,,,,,Top up,,,,,,
235,Published,Doomben station,"Lamington Avenue, Doomben, Brisbane North",-27.4314,153.075,Brisbane North,2,Preloaded reseller,,,,,Top up,,,,,,
236,Published,Dutton Park station,"Railway Terrace, Dutton Park, Brisbane South",-27.4998,153.029,Brisbane South,2,Preloaded reseller,,,,,Top up,,,,,,
237,Published,Eagle Junction station,"Junction Road, Eagle Junction, Brisbane North",-27.4151,153.05,Brisbane North,2,Preloaded reseller,,,,,Top up,,,,,,
238,Published,East Ipswich station,"Merton Street, East Ipswich, Western",-27.61,152.775,Western,2,Preloaded reseller,,,,,Top up,,,,,,
239,Published,Ebbw Vale station,"Brisbane Road, Ebbw Vale, Western",-27.6033,152.822,Western,2,Preloaded reseller,,,,,Top up,,,,,,
240,Published,Edens Landing station,"Eddy Avenue, Edens Landing, Southern ",-27.6982,153.171,Southern ,2,Preloaded reseller,,,,,Top up,,,,,,
241,Published,Elimbah station,"English Street, Elimbah, Northern",-27.0113,152.946,Northern,2,Preloaded reseller,,,,,Top up,,,,,,
242,Published,Enoggera station,"Glenalva Terrace, Enoggera, Brisbane North",-27.4203,152.992,Brisbane North,2,Preloaded reseller,,,,,Top up,,,,,,
243,Published,Eudlo station,"Rosebed Street, Eudlo, Sunshine Coast",-26.7259,152.957,Sunshine Coast,2,Preloaded reseller,,,,,Top up,,,,,,
244,Published,Farifield station,"Midway Street, Fairfield, Brisbane South",-27.5095,153.028,Brisbane South,2,Preloaded reseller,,,,,Top up,,,,,,
245,Published,Ferny Grove station,"Conavalla Street, Ferny Grove, Brisbane North",-27.4013,152.935,Brisbane North,2,Preloaded reseller,,,,,Top up,,,,,,
246,Published,Fruitgrove station,"Beenleigh Road, Runcorn, Brisbane South",-27.5983,153.08,Brisbane South,2,Preloaded reseller,,,,,Top up,,,,,,
247,Published,Gailes station,"Wilruna Street, Gailes, Western",-27.6018,152.919,Western,2,Preloaded reseller,,,,,Top up,,,,,,
248,Published,Gaythorne station,"30 Station Avenue, Enoggera, Brisbane North",-27.4193,152.986,Brisbane North,2,Preloaded reseller,,,,,Top up,,,,,,
249,Published,Geebung station,"Railway Parade, Geebung, Brisbane North",-27.3689,153.047,Brisbane North,2,Preloaded reseller,,,,,Top up,,,,,,
250,Published,Glasshouse Mountains station,"Reed Street, Glasshouse Mountains, Northern",-26.8997,152.957,Northern,2,Preloaded reseller,,,,,Top up,,,,,,
251,Published,Goodna station,"Ryan Street, Goodna, Western",-27.6088,152.902,Western,2,Preloaded reseller,,,,,Top up,,,,,,
252,Published,Graceville station,"Honour Avenue, Graceville, Brisbane South",-27.5213,152.976,Brisbane South,2,Preloaded reseller,,,,,Top up,,,,,,
253,Published,Grovely station,"Blaker road, Grovely, Brisbane North",-27.405,152.962,Brisbane North,2,Preloaded reseller,,,,,Top up,,,,,,
254,Published,Gympie North station,"Sandy Creek Road, Gympie North, Sunshine Coast",-26.1627,152.686,Sunshine Coast,2,Preloaded reseller,,,,,Top up,,,,,,
255,Published,Helensvale station,"Town Centre Drive, Helensvale, Gold Coast",-27.9258,153.339,Gold Coast,2,Preloaded reseller,,,,,Top up,,,,,,
256,Published,Hemmant station,"38 Hemmant-Tingalpa Road, Hemmant, Brisbane East",-27.4475,153.127,Brisbane East,2,Preloaded reseller,,,,,Top up,,,,,,
257,Published,Hendra station,"Chermside Street, Hendra, Brisbane North",-27.4222,153.063,Brisbane North,2,Preloaded reseller,,,,,Top up,,,,,,
258,Published,Holmview station,"Spanns Road, Beenleigh, Southern",-27.7095,153.187,Southern,2,Preloaded reseller,,,,,Top up,,,,,,
259,Published,Indooroopilly station,"Railway Avenue, Indooroopilly, Brisbane West",-27.503,152.976,Brisbane West,2,Preloaded reseller,,,,,Top up,,,,,,
260,Published,International Terminal station,"Airport Drive, Airport (Brisbane), Brisbane East",-27.403,153.109,Brisbane East,2,Preloaded reseller,,,,,Top up,,,,,,
261,Published,Ipswich station,"Bell Street, Ipswich, Western",-27.6129,152.761,Western,2,Preloaded reseller,,,,,Top up,,,,,,
262,Published,Karrabin station,"Karrabin-Rosewood Road, Karrabin, Western",-27.6045,152.709,Western,2,Preloaded reseller,,,,,Top up,,,,,,
263,Published,Keperra station,"Silvertop Street, Keperra, Brisbane North",-27.409,152.957,Brisbane North,2,Preloaded reseller,,,,,Top up,,,,,,
264,Published,Kingston station,"Milky Way Street, Kingston, Southern",-27.6574,153.118,Southern,2,Preloaded reseller,,,,,Top up,,,,,,
265,Published,Kuraby station,"1370 Beenleigh Road, Kuraby, Southern",-27.6049,153.091,Southern,2,Preloaded reseller,,,,,Top up,,,,,,
266,Published,Landsborough station,"Cribb Street, Landsborough, Sunshine Coast",-26.8084,152.966,Sunshine Coast,2,Preloaded reseller,,,,,Top up,,,,,,
267,Published,Lawnton station,"Station Road, Lawnton, Northern",-27.2816,152.981,Northern,2,Preloaded reseller,,,,,Top up,,,,,,
268,Published,Lindum station,"Sibley Road, Lindum, Brisbane East",-27.4421,153.145,Brisbane East,2,Preloaded reseller,,,,,Top up,,,,,,
269,Published,Loganlea station,"Station Road, Loganlea, Southern",-27.671,153.139,Southern,2,Preloaded reseller,,,,,Top up,,,,,,
270,Published,Lota station,"Railway Terrace, Lota, Brisbane East",-27.4701,153.188,Brisbane East,2,Preloaded reseller,,,,,Top up,,,,,,
271,Published,Manly station,"Ernest Street, Manly, Brisbane East",-27.457,153.18,Brisbane East,2,Preloaded reseller,,,,,Top up,,,,,,
272,Published,Milton station,"Milton Road, Milton, Brisbane West",-27.4686,153.006,Brisbane West,6,Rail ticket office,,,,,Top up,,,,,Brisbane,
273,Published,Mitchelton station,"McConaghy Street, Mitchelton, Brisbane North",-27.4115,152.976,Brisbane North,6,Rail ticket office,,,,,Top up,,,,,Brisbane,
274,Published,Mooloolah station," Mooloolah Connection Road, Mooloolah Valley, Sunshine Coast",-26.7653,152.963,Sunshine Coast,2,Preloaded reseller,,,,,Top up,,,,,,
275,Published,Moorooka station,"1151 Ipswich Road, Moorooka, Brisbane South",-27.5355,153.014,Brisbane South,2,Preloaded reseller,,,,,Top up,,,,,,
276,Published,Morayfield station,"Visentin Road, Morayfield, Northern",-27.1098,152.952,Northern,2,Preloaded reseller,,,,,Top up,,,,,,
277,Published,Morningside station,"Waminda Street, Morningside, Brisbane East",-27.4705,153.07,Brisbane East,2,Preloaded reseller,,,,,Top up,,,,,,
278,Published,Murarrie station,"Murrarie Road, Murarrie, Brisbane East",-27.4648,153.105,Brisbane East,2,Preloaded reseller,,,,,Top up,,,,,,
279,Published,Nambour station,"Civic Way, Nambour, Sunshine Coast",-26.6258,152.958,Sunshine Coast,2,Preloaded reseller,,,,,Top up,,,,,,
280,Published,Narangba station,"448 Burpengary Road, Narangba, Northern",-27.2029,152.961,Northern,2,Preloaded reseller,,,,,Top up,,,,,,
281,Published,Nerang station,"Warrener Street, Nerang, Gold Coast",-27.9943,153.35,Gold Coast,2,Preloaded reseller,,,,,Top up,,,,,,
282,Published,Newmarket station,"Abuklea Street, Newmarket, Brisbane North",-27.4328,153.011,Brisbane North,2,Preloaded reseller,,,,,Top up,,,,,,
283,Published,Norman Park station,"Waite Street, Norman Park, Brisbane East",-27.4818,153.062,Brisbane East,2,Preloaded reseller,,,,,Top up,,,,,,
284,Published,North Boondall station,"Aberdeen Street North, Boondall, Brisbane North",-27.339,153.061,Brisbane North,2,Preloaded reseller,,,,,Top up,,,,,,
285,Published,Northgate station,"Cnr Ryan &amp; Holland Street, Northgate, Brisbane North",-27.3936,153.069,Brisbane North,2,Preloaded reseller,,,,,Top up,,,,,,
286,Published,Nudgee station,"Railway Street, Nudgee, Brisbane North",-27.3656,153.084,Brisbane North,2,Preloaded reseller,,,,,Top up,,,,,,
287,Published,Nundah station,"Station Street, Nundah, Brisbane North",-27.4009,153.062,Brisbane North,2,Preloaded reseller,,,,,Top up,,,,,,
288,Published,Ormeau station,"200 Mirambeena Drive, Pimpama, Southern",-27.7991,153.282,Southern,2,Preloaded reseller,,,,,Top up,,,,,,
289,Published,Ormiston station,"Wellington Street, Ormiston, Eastern",-27.5146,153.256,Eastern,2,Preloaded reseller,,,,,Top up,,,,,,
290,Published,Oxford Park station,"Scanlan Road, Mitchelton, Brisbane North",-27.4042,152.968,Brisbane North,2,Preloaded reseller,,,,,Top up,,,,,,
291,Published,Oxley Rail Station Ticket Office,"140 Ardoyne Road, Oxley, Brisbane South",-27.5525,152.974,Brisbane South,5,Rail fare machine,,go card,,,Buy,Top up,Register,Refund,Change expiry date,,
292,Published,Palmwoods station,"Chevallum Road, Palmwoods (Sunshine Coast Regional), Sunshine Coast",-26.6886,152.961,Sunshine Coast,2,Preloaded reseller,,,,,Top up,,,,,,
293,Published,Park Road station,"Quarry Street, Woolloongabba, Brisbane South",-27.4937,153.031,Brisbane South,2,Preloaded reseller,,,,,Top up,,,,,,
294,Published,Petrie station,"Station Street, Petrie, Northern",-27.2678,152.982,Brisbane,6,Rail ticket office,,,,,Top up,,,,,Brisbane,
295,Published,Redbank station,"Cnr Brisbane Tce &amp; Weedman St, Redbank, Western",-27.5995,152.872,Western,2,Preloaded reseller,,,,,Top up,,,,,,
296,Published,Riverview station,"Moggill Ferry road, Riverview (Ipswich City), Western",-27.595,152.851,Western,2,Preloaded reseller,,,,,Top up,,,,,,
297,Published,Robina station,"Bayberry Lane, Robina, Gold Coast",-28.0714,153.378,Gold Coast,6,Rail ticket office,,,,,Top up,,,,,Gold Coast,
298,Published,Rocklea station,"Brooke Street, Rocklea, Brisbane South",-27.5447,153.014,Brisbane South,2,Preloaded reseller,,,,,Top up,,,,,,
299,Published,Roma Street station,"171 Roma Street, Brisbane , Brisbane Central",-27.4652,153.019,Brisbane Central,6,Rail ticket office,,,,,Top up,,,,,Brisbane,
300,Published,Rosewood station,"Railway Street, Rosewood, Western",-27.6432,152.593,Western,2,Preloaded reseller,,,,,Top up,,,,,,
301,Published,Runcorn station,"800 Beenleigh Road, Runcorn, Brisbane South",-27.5924,153.068,Brisbane South,2,Preloaded reseller,,,,,Top up,,,,,,
302,Published,Salisbury station,"Olivia Avenue, Salisbury, Brisbane South",-27.5532,153.023,Brisbane South,2,Preloaded reseller,,,,,Top up,,,,,,
303,Published,Sandgate station,"Rainbow Street, Sandgate, Northern",-27.3222,153.069,Northern,2,Preloaded reseller,,,,,Top up,,,,,,
304,Published,Sherwood station,"Honour Avenue, Sherwood (Brisbane City), Brisbane South",-27.5316,152.98,Brisbane South,2,Preloaded reseller,,,,,Top up,,,,,,
305,Published,Shorncliffe station,"Railway Parade, Shorncliffe, Brisbane North",-27.3269,153.08,Brisbane North,2,Preloaded reseller,,,,,Top up,,,,,,
306,Published,South Bank station,"Grey Street, South Brisbane, Brisbane Central",-27.4818,153.023,Brisbane Central,6,Rail ticket office,,,,,Top up,,,,,Brisbane,
307,Published,South Brisbane Station - Ticket Office,"Grey Street, South Brisbane, Brisbane Central",-27.4744,153.018,Brisbane Central,6,Rail ticket office,,,,,Top up,Change expiry date,,,,Brisbane,
308,Published,Strathpine station,"Station Street, Strathpine, Northern",-27.3118,152.99,Northern,2,Preloaded reseller,,,,,Top up,,,,,,
309,Published,Sunnybank station,"Dixon Street, Sunnybank, Brisbane South",-27.5808,153.054,Brisbane South,2,Preloaded reseller,,,,,Top up,,,,,,
310,Published,Sunshine station,"357 Bilsen Road, Geebung, Brisbane North",-27.3753,153.056,Brisbane North,2,Preloaded reseller,,,,,Top up,,,,,,
311,Published,Taringa station,"1 Princess Street, Taringa, Brisbane West",-27.493,152.982,Brisbane West,2,Preloaded reseller,,,,,Top up,,,,,,
312,Published,Tennyson station,"2 Myla Terrace, Tennyson, Brisbane South",-27.5258,153.005,Brisbane South,2,Preloaded reseller,,,,,Top up,,,,,,
313,Published,Thagoona station,"Thagoona-Rosewood Road, Thagoona, Western",-27.6266,152.63,Western,2,Preloaded reseller,,,,,Top up,,,,,,
314,Published,Thomas Street station,"Tallon Street, Sadliers Crossing, Western",-27.6148,152.746,Western,2,Preloaded reseller,,,,,Top up,,,,,,
315,Published,Thorneside station,"Railway Parade, Thorneside, Eastern",-27.4864,153.193,Eastern,2,Preloaded reseller,,,,,Top up,,,,,,
316,Published,Toombul station,"Collins Street, Nundah, Brisbane North",-27.4073,153.059,Brisbane North,2,Preloaded reseller,,,,,Top up,,,,,,
317,Published,Toowong station,"Toowong Village Shopping Centre, Toowong, Brisbane West",-27.4857,152.993,Brisbane West,2,Preloaded reseller,,,,,Top up,,,,,,
318,Published,Trinder Park station,"Railway Parade, Trinder Park, Southern",-27.6314,153.098,Southern,2,Preloaded reseller,,,,,Top up,,,,,,
319,Published,Virginia  station,"4 Wellington Street, Virginia, Brisbane North",-27.3829,153.063,Brisbane North,2,Preloaded reseller,,,,,Top up,,,,,,
320,Published,Wacol  station,"Wilruna Street, Wacol, Western",-27.589,152.924,Western,2,Preloaded reseller,,,,,Top up,,,,,,
321,Published,Walloon  station,"Station Lane, Walloon, Western",-27.6073,152.668,Western,2,Preloaded reseller,,,,,Top up,,,,,,
322,Published,Wellington Point station,"Station Street, Wellington Point, Eastern",-27.494284,153.241914,Eastern,2,Preloaded reseller,,,,,Top up,,,,,,
323,Published,Wilston  station,"Newmarket Road, Wilston, Brisbane North",-27.4362,153.019,Brisbane North,2,Preloaded reseller,,,,,Top up,,,,,,
324,Published,Windsor  station,"Eildon Road, Windsor, Brisbane North",-27.4352,153.029,Brisbane North,2,Preloaded reseller,,,,,Top up,,,,,,
325,Published,Woodridge  station,"Station Road, Woodridge, Southern",-27.6382,153.104,Southern,2,Preloaded reseller,,,,,Top up,,,,,,
326,Published,Wooloowin  station,"Hudson Street, Wooloowin, Brisbane North",-27.42,153.043,Brisbane North,2,Preloaded reseller,,,,,Top up,,,,,,
327,Published,Woombye  station,"Blackall Street, Woombye, Sunshine Coast",-26.6608,152.963,Sunshine Coast,2,Preloaded reseller,,,,,Top up,,,,,,
328,Published,Wulkuraka  station,"Grace Street, Wulkuraka, Western",-27.6135,152.732,Western,2,Preloaded reseller,,,,,Top up,,,,,,
329,Published,Wynnum  station,"Thorn Street, Wynnum, Eastern",-27.4397,153.166,Eastern,2,Preloaded reseller,,,,,Top up,,,,,,
330,Published,Wynnum Central station,"Ronald Street, Wynnum, Eastern",-27.445752,153.170772,Brisbane,6,Rail ticket office,,,,,Top up,,,,,Brisbane,
331,Published,Wynnum North station,"Cameron Parade, Wynnum, Eastern",-27.4372,153.159,Eastern,2,Preloaded reseller,,,,,Top up,,,,,,
332,Published,Yeerongpilly station,"67 Wilkie Street, Yeerongpilly, Brisbane South",-27.5255,153.014,Brisbane South,2,Preloaded reseller,,,,,Top up,,,,,Brisbane,
333,Published,Yeronga  station,"Fairfield Road, Yeronga, Brisbane South",-27.5178,153.017,Brisbane South,2,Preloaded reseller,,,,,Top up,,,,,,
334,Published,Zillmere  station,"Zillmere Road, Zillmere, Brisbane North",-27.3593,153.037,Brisbane North,2,Preloaded reseller,,,,,Top up,,,,,,
335,Published,Pacific Fair News,"Pacific Fair Shopping Centre, Broadbeach Waters, Queensland, Australia",-28.035645,153.426261,Gold Coast,1,Standard retailer,,go card,Gold Coast go explore card,,Buy,Top up,Register,Refund,Change expiry date,Gold Coast,
336,Published,Junction News and Casket,"Shop 2, 500 Ipswich Road, Annerley, Brisbane South",-27.5112,153.032,Brisbane South,1,Standard retailer,,go card,,,Buy,,,,,,
337,Published,Nextra Lutwyche,"Shop 24, 543 Lutwyche Rd, Lutwyche, Brisbane North",-27.422,153.034,Brisbane North,1,Standard retailer,,go card,,,Buy,,,,,Brisbane,
338,Published,Sherwood News and Casket Agency,"Shop 4, 686 Sherwood Road, Sherwood (Brisbane City), Brisbane South",-27.5324,152.981,Brisbane South,1,Standard retailer,,go card,,,Buy,,,,,,
339,Archived,Belvedere News,"4 Diamond Street, Cooroy, Sunshine Coast",-26.4171,152.912,Sunshine Coast,1,Standard retailer,,go card,,,Buy,,,,,,
340,Published,Boondall News and Casket,"Sues Korner, 2128 Sandgate Road, Boondall, Brisbane North",-27.3527,153.06,Brisbane North,1,Standard retailer,,go card,,,Buy,,,,,,
341,Published,Wishart News,"Civic Fair Shopping Centre, 280 Newnham Rd, Wishart, Brisbane South",-27.547,153.092,Brisbane South,1,Standard retailer,,go card,,,Buy,,,,,,
342,Archived,Village Store Currumbin,"66 Teemangum Street, Currumbin, Gold Coast",-28.1355,153.489,Gold Coast,1,Standard retailer,,go card,,,Buy,,,,,Gold Coast,
343,Archived,NewsXpress Nerang,"74 Nerang-Beaudesert Road, Nerang, Gold Coast",-27.9933,153.332,Gold Coast,1,Standard retailer,,go card,,,Buy,,,,,,
344,Published,Chris Supa IGA,"881 Old Cleveland Road, Carina, Brisbane East",-27.4963,153.095,Brisbane East,1,Standard retailer,,go card,,,Buy,,,,,,
345,Archived,Wongabel News,"Shop 2, Wongabel St, Kenmore, Brisbane West",-27.509,152.948,Brisbane West,1,Standard retailer,,go card,,,Buy,,,,,Airlie Beach,
346,Archived,Woolloongabba News,"7 Logan Rd, Woolloongabba, Brisbane South",-27.487,153.036,Brisbane South,1,Standard retailer,,go card,,,Buy,,,,,Airlie Beach,
347,Published,Blunder Road Newsagency,"146 Blunder Road, Oxley, Queensland, Australia",-27.575481,152.983028,Brisbane South,1,Standard retailer,,go card,,,Buy,,,,,,
348,Published,IGA Forest Lake,"Corner Forest Lake Boulevard and Woogaroo Street, Forest Lake, Brisbane West",-27.6112,152.959,Brisbane West,1,Standard retailer,,go card,,,Buy,,,,,,
349,Published,Varsity Lakes station,"Corner Scottsdale Drive and Cormandel Lane, Varsity Lakes, Gold Coast",-28.096499,153.399049,Gold Coast,5,Rail fare machine,,go card,,,Buy,Top up,Register,Refund,Change expiry date,,
350,Published,Varsity Lakes station,"Corner Scottsdale Drive and Cormandel Lane, Varsity Lakes, Gold Coast",-28.094794,153.399531,Gold Coast,2,Preloaded reseller,,,,,Top up,,,,,,
351,Published,Carina Newsagency,"836 Old Cleveland Rd, Carina, Brisbane East",-27.4955,153.089,Brisbane East,1,Standard retailer,,go card,,,Buy,Top up,Change expiry date,,,Brisbane,
352,Published,Chatswood Hills News,"Shop 34 Chatswood Central, Chatswood Rd, Springwood, Southern ",-27.6334,153.139,Southern ,1,Standard retailer,,go card,,,Buy,,,,,,
353,Published,Collingwood Park News,"Shop 1, Redbank Plaza Shopping Centre, Collingwood Drive, Redbank, Western",-27.6059,152.868,Western,1,Standard retailer,,go card,,,Buy,,,,,,
354,Archived,Edens Landing News,"Shop 5 125-127 Castile Cresent, Edens Landing, Southern",-27.7008,153.169,South East Queensland,1,Standard retailer,,go card,,,Buy,,,,,South East Queensland,
355,Archived,News Extra Central Plaza,"Shop 59, Logan Central Plaza, Wembley Rd, Logan Central, Southern",-27.6429,153.114,Southern,1,Standard retailer,,go card,,,Buy,,,,,Airlie Beach,
356,Published,NewsXpress Alexandra Hills,"Shop 9, Alexandra Hills Shopping Centre, Cnr Finucane Road and Cambridge Drive, Alexandra Hills, Eastern",-27.5246,153.221,Eastern,1,Standard retailer,,go card,,,Buy,,,,,,
357,Published,NewsXpress Harbour Town,"Shop M2 Harbour Town Shopping Centre, Cnr Brisbane Road &amp; Oxley Drive, Biggera Waters, Gold Coast",-27.931705,153.387871,Gold Coast,1,Standard retailer,,go card,Gold Coast go explore card,,Buy,Top up,Register,Refund,Change expiry date,Gold Coast,
358,Archived,West End Market News Power,"Shop 13, 69 Boundary St, West End (Brisbane City), Brisbane South",-27.4769,153.012,Brisbane South,1,Standard retailer,,go card,SEEQ card,Visitor Information Pack,Buy,Top up,Register,Refund,Change expiry date,Brisbane,
359,Published,Dutton Park station,"Railway Terrace, Dutton Park, Brisbane South",-27.4998,153.029,Brisbane South,5,Rail fare machine,,go card,,,Buy,Top up,Register,Refund,Change expiry date,,
360,Published,Lawnton station,"Station Road, Lawnton, Northern",-27.2816,152.981,Northern,5,Rail fare machine,,go card,,,Top up,,,,,Brisbane,
361,Published,Indooroopilly station,"Railway Avenue, Indooroopilly, Brisbane West",-27.503,152.976,Brisbane West,5,Rail fare machine,,go card,,,Buy,Top up,Register,Refund,Change expiry date,,
362,Published,Gympie North station,"Sandy Creek Road, Gympie North, Sunshine Coast",-26.1627,152.686,Sunshine Coast,5,Rail fare machine,,go card,,,Buy,Top up,Register,Refund,Change expiry date,,
363,Published,Virginia station,"4 Wellington Street, Virginia, Brisbane North",-27.3829,153.063,Brisbane North,5,Rail fare machine,,go card,,,Buy,Top up,Register,Refund,Change expiry date,,
364,Published,Carseldine Station,"Beams Road, Carseldine, Brisbane North",-27.348448,153.029161,Brisbane North,5,Rail fare machine,,go card,,,Buy,Top up,Register,Refund,Change expiry date,Brisbane,
365,Published,Milton station ,"Milton Road, Milton, Brisbane West",-27.4686,153.006,Brisbane West,5,Rail fare machine,,go card,,,Buy,Top up,Register,Refund,Change expiry date,Brisbane,
366,Published,Coorparoo station ,"Cavendish Road, Coorparoo, Brisbane East",-27.4897,153.055,Brisbane East,5,Rail fare machine,,go card,,,Buy,Top up,Register,Refund,Change expiry date,Brisbane,
367,Published,Geebung station,"Railway Parade, Geebung, Brisbane North",-27.3689,153.047,Brisbane North,5,Rail fare machine,,go card,,,Buy,Top up,Register,Refund,Change expiry date,,
368,Published,Sunnybank station,"Dixon Street, Sunnybank, Brisbane South",-27.5808,153.054,Brisbane South,5,Rail fare machine,,go card,,,Buy,Top up,Register,Refund,Change expiry date,,
369,Published,Nundah station,"Station Street, Nundah, Brisbane North",-27.4009,153.062,Brisbane North,5,Rail fare machine,,go card,,,Buy,Top up,Register,Refund,Change expiry date,,
370,Published,Graceville station,"Honour Avenue, Graceville, Brisbane South",-27.5213,152.976,Brisbane South,5,Rail fare machine,,go card,,,Buy,Top up,Register,Refund,Change expiry date,,
371,Published,Petrie station ,"Station Street, Petrie, Northern",-27.2678,152.982,Brisbane,5,Rail fare machine,,go card,,,Buy,Top up,Register,Refund,Change expiry date,Brisbane,
372,Published,Wynnum Central station,"Ronald Street, Wynnum, Eastern",-27.4452,153.17,Eastern,5,Rail fare machine,,go card,,,Buy,Top up,Register,Refund,Change expiry date,,
373,Published,Auchenflower Station,"Auchenflower Terrace, Auchenflower , Brisbane West",-27.476547,152.996732,Brisbane West,5,Rail fare machine,,go card,,,Buy,Top up,Register,Refund,Change expiry date,Brisbane,
374,Published,Loganlea station,"Station Road, Loganlea , Southern",-27.671,153.139,Southern,5,Rail fare machine,,go card,,,Buy,Top up,Register,Refund,Change expiry date,,
375,Published,Goodna station,"Ryan Street, Goodna, Western",-27.6088,152.902,Western,5,Rail fare machine,,go card,,,Buy,Top up,Register,Refund,Change expiry date,,
376,Published,Morningside station,"Waminda Street, Morningside, Brisbane East",-27.4705,153.07,Brisbane East,5,Rail fare machine,,go card,,,Buy,Top up,Register,Refund,Change expiry date,,
377,Published,Bald Hills Station,"Cullimore Street, Bald Hills, Brisbane North",-27.321372,153.011644,Brisbane North,5,Rail fare machine,,go card,,,Buy,Top up,Register,Refund,Change expiry date,Brisbane,
378,Published,Wooloowin station ,"Hudson Street, Wooloowin , Brisbane North",-27.42,153.043,Brisbane North,5,Rail fare machine,,go card,,,Buy,Top up,Register,Refund,Change expiry date,,
379,Published,Yeronga station,"Fairfield Road, Yeronga, Brisbane South",-27.5178,153.017,Brisbane South,5,Rail fare machine,,go card,,,Buy,Top up,Register,Refund,Change expiry date,,
380,Published,Wacol station,"Wilruna Street, Wacol , Western",-27.589,152.924,Western,5,Rail fare machine,,go card,,,Buy,Top up,Register,Refund,Change expiry date,,
381,Published,Kuraby station,"1370 Beenleigh Road, Kuraby, Southern",-27.6049,153.091,Southern,5,Rail fare machine,,go card,,,Buy,Top up,Register,Refund,Change expiry date,,
382,Published,Cannon Hill Station,"60 Barracks Road, Cannon Hill, Brisbane East",-27.465376,153.088099,Brisbane East,5,Rail fare machine,,go card,,,Buy,Top up,Register,Refund,Change expiry date,Brisbane,
383,Published,Salisbury station,"Olivia Avenue, Salisbury, Brisbane South",-27.5532,153.023,Brisbane South,5,Rail fare machine,,go card,,,Buy,Top up,Register,Refund,Change expiry date,,
384,Published,Landsborough station,"Cribb Street, Landsborough, Sunshine Coast",-26.8084,152.966,Sunshine Coast,5,Rail fare machine,,go card,,,Buy,Top up,Register,Refund,Change expiry date,,
385,Published,Coomera station,"Railway Reserve 11 Foxwell Road, Coomera, Gold Coast",-27.8535,153.318,Gold Coast,5,Rail fare machine,,go card,,,Buy,Top up,Register,Refund,Change expiry date,,
386,Published,Keperra station,"Silvertop Street, Keperra, Brisbane North",-27.409,152.957,Brisbane North,5,Rail fare machine,,go card,,,Buy,Top up,Register,Refund,Change expiry date,,
387,Published,Gailes station,"Wilruna Street, Gailes, Western",-27.6018,152.919,Western,5,Rail fare machine,,go card,,,Buy,Top up,Register,Refund,Change expiry date,,
388,Published,Runcorn station,"800 Beenleigh Road, Runcorn, Brisbane South",-27.5924,153.068,Brisbane South,5,Rail fare machine,,go card,,,Buy,Top up,Register,Refund,Change expiry date,,
389,Published,East Ipswich station,"Merton Street, East Ipswich, Western",-27.61,152.775,Western,5,Rail fare machine,,go card,,,Buy,Top up,Register,Refund,Change expiry date,,
390,Published,Banoon Station,"82 Breton Street, Sunnybank, Brisbane South",-27.576024,153.046161,Brisbane South,5,Rail fare machine,,go card,,,Buy,Top up,Register,Refund,Change expiry date,Brisbane,
391,Published,Alderley Station,"Railway Place, Alderley, Brisbane North",-27.423443,153.000987,Brisbane North,5,Rail fare machine,,go card,,,Buy,Top up,Register,Refund,Change expiry date,Brisbane,
392,Published,Altandi Station,"125 Mains Road, Sunnybank, Brisbane South",-27.58269,153.063397,Brisbane South,5,Rail fare machine,,go card,,,Buy,Top up,Register,Refund,Change expiry date,Brisbane,
393,Archived,North Greenslopes News,"Shop 1, 589 Logan Road, Greenslopes, Brisbane South",-27.5074,153.051,Brisbane South,1,Standard retailer,,go card,,,Buy,,,,,,
394,Archived,Stones Corner Village News,"Shop 16, 405 Logan Road , Stones Corner, Brisbane South",-27.4998,153.046,Brisbane South,1,Standard retailer,,go card,,,Buy,,,,,Brisbane,
395,Archived,Rainworth News,"198 Boundary Road, Bardon, Brisbane North",-27.4668,152.987,Brisbane North,1,Standard retailer,,go card,,,Buy,,,,,,
396,Published,Biota Street News,"155 Biota Street, Inala, Brisbane West",-27.5874,152.973,Brisbane West,1,Standard retailer,,go card,,,Buy,,,,,,
397,Published,Noosa Village News,"Shop 12, Noosa Village Shopping Centre, Gibson Road, Noosaville, Sunshine Coast",-26.4014,153.065,Sunshine Coast,1,Standard retailer,,go card,,,Buy,,,,,,
398,Published,Midway News and Casket,"Shop 2, 544 Oxley Avenue, Redcliffe, Northern",-27.2173,153.112,Northern,1,Standard retailer,,go card,,,Buy,,,,,,
399,Archived,Stewart Road Newsagency,"Shop 6, 17 Stewart Road, Ashgrove, Brisbane North",-27.4449,152.992,Brisbane North,2,Preloaded reseller,,go card,,,Buy,,,,,Brisbane,
400,Archived,The Fair Casket and Papershop,"Shop 15, Beaudesert Fair, cnr Anna and William Streets, Beaudesert, Southern",-27.9891,152.998,Southern,1,Standard retailer,,go card,,,Buy,,,,,,
401,Archived,Ezy Shop,"Shop 2, 108 Wickham Street, Fortitude Valley, Brisbane Central",-27.4601,153.032021,Brisbane Central,1,Standard retailer,,go card,,,Buy,,,,,,
403,Published,Kedron Newsagency and Casket Shop,"359 Gympie Road (cnr Castle Road), Kedron, Brisbane North",-27.4045,153.032,Brisbane North,1,Standard retailer,,go card,,,Buy,,,,,Brisbane,
404,Published,Sunshine News,"Shop 15, Mt Gravatt Plaza, Mount Gravatt, Brisbane South",-27.5388,153.081,Brisbane South,1,Standard retailer,,go card,,,Buy,Top up,Change expiry date,,,,
405,Published,Northgate News,"111 Ridge Street, Northgate, Brisbane North",-27.3903,153.066,Brisbane North,1,Standard retailer,,go card,,,Buy,,,,,,
406,Published,Sunnybank Hills News,"Sunny Hill Shopping Town, cnr Calam and Compton Roads, Sunnybank Hills, Brisbane South",-27.6112,153.054448,Brisbane South,1,Standard retailer,,go card,SEEQ card,Visitor Information Pack,Buy,Top up,Register,Refund,Change expiry date,Brisbane,
407,Published,Nextra Wynnum Plaza,"Shop 20, Wynnum Plaza Shopping Centre, 2021 Wynnum Road, Wynnum West, Eastern",-27.4568,153.156,Eastern,1,Standard retailer,,go card,,,Buy,Top up,Change expiry date,,,,
408,Published,Beerwah Station,"Beerwah Parade, Beerwah, Northern",-26.857889,152.958349,Northern,5,Rail fare machine,,go card,,,Buy,Top up,Register,Refund,Change expiry date,Sunshine Coast,
409,Published,Bethania Station,"Station Road, Bethania, Southern",-27.688452,153.158762,Southern,5,Rail fare machine,,go card,,,Buy,Top up,Register,Refund,Change expiry date,Logan,
410,Published,Birkdale station,"Napier Street, Birkdale, Eastern",-27.493943,153.218472,Eastern,5,Rail fare machine,,go card,,,Buy,Top up,Register,Refund,Change expiry date,Redlands,
411,Published,Boondall station,"Aberdeen Parade, Boondall, Brisbane North",-27.346377,153.067633,Brisbane North,6,Rail ticket office,,go card,,,Buy,Top up,Register,Refund,Change expiry date,Brisbane,
412,Published,Airtrain Domestic Terminal (Brisbane Airport),"Airport Drive, Airport (Brisbane), Brisbane East",-27.3852,153.119,Brisbane,1,Standard retailer,,go card,SEEQ card,Visitor Information Pack,Buy,Top up,Refund,Change expiry date,,Brisbane,
413,Published,Airtrain International Terminal (Brisbane Airport),"Airport Drive, Airport (Brisbane), Brisbane East",-27.403,153.109,Brisbane,1,Standard retailer,,go card,SEEQ card,Visitor Information Pack,Buy,Top up,Refund,Change expiry date,,Brisbane,
414,Published,Bundamba Station,"Mining Street, Bundamba, Western",-27.6075,152.804571,Western,5,Rail fare machine,,go card,,,Buy,Top up,Register,Refund,Change expiry date,Ipswich,
415,Published,Buranda Station,"Gillingham Street, Buranda, Brisbane South",-27.496576,153.040386,Brisbane South,5,Rail fare machine,,go card,,,Buy,Top up,Register,Refund,Change expiry date,Brisbane,
416,Published,Chelmer station,"140 Honour Avenue, Chelmer, Brisbane South",-27.511648,152.972882,Brisbane South,5,Rail fare machine,,go card,,,Buy,Top up,Register,Refund,Change expiry date,Brisbane,
417,Published,Coopers Plains station,"Henley Street, Coopers Plains, Brisbane South",-27.5684,153.036,Brisbane South,5,Rail fare machine,,go card,,,Buy,Top up,Register,Refund,Change expiry date,,
418,Published,Cooroy station,"Elm Street, Cooroy, Sunshine Coast",-26.4187,152.911,Sunshine Coast,5,Rail fare machine,,go card,,,Buy,Top up,Register,Refund,Change expiry date,,
419,Published,Deagon station,"Adams Street, Deagon, Northern",-27.3273,153.063,Northern,5,Rail fare machine,,go card,,,Buy,Top up,Register,Refund,Change expiry date,,
420,Published,Dinmore station,"Mason Street, Dinmore, Western",-27.5964,152.833,Western,5,Rail fare machine,,go card,,,Buy,Top up,Register,Refund,Change expiry date,,
421,Published,Doomben station,"Lamington Avenue, Doomben, Brisbane North",-27.4314,153.075,Brisbane North,5,Rail fare machine,,go card,,,Buy,Top up,Register,Refund,Change expiry date,,
422,Published,Ebbw Vale station,"Brisbane Road, Ebbw Vale, Western",-27.6033,152.822,Western,5,Rail fare machine,,go card,,,Buy,Top up,Register,Refund,Change expiry date,,
423,Published,Enoggera station,"Glenalva Terrace, Enoggera, Brisbane North",-27.4203,152.992,Brisbane North,5,Rail fare machine,,go card,,,Buy,Top up,Register,Refund,Change expiry date,,
424,Published,Fairfield station,"Mildmay Street, Fairfield, Brisbane South",-27.5095,153.028,Brisbane South,5,Rail fare machine,,go card,,,Buy,Top up,Register,Refund,Change expiry date,,
425,Published,Fruitgrove station,"Beenleigh Road, Runcorn, Brisbane South",-27.5983,153.08,Brisbane South,5,Rail fare machine,,go card,,,Buy,Top up,Register,Refund,Change expiry date,,
426,Published,Gaythorne Station,"30 Station Avenue, Enoggera, Brisbane North",-27.4193,152.986,Brisbane North,5,Rail fare machine,,go card,,,Buy,Top up,Register,Refund,Change expiry date,,
427,Published,Glasshouse Mountains station,"Reed Street, Glasshouse Mountains, Northern",-26.8997,152.957,Northern,5,Rail fare machine,,go card,,,Buy,Top up,Register,Refund,Change expiry date,,
428,Published,Grovely station,"Blaker Road, Grovely, Brisbane North",-27.405,152.962,Brisbane North,5,Rail fare machine,,go card,,,Buy,Top up,Register,Refund,Change expiry date,,
429,Published,Hemmant station,"38 Hemmant-Tingalpa Road, Hemmant, Brisbane East",-27.4475,153.127,Brisbane East,5,Rail fare machine,,go card,,,Buy,Top up,Register,Refund,Change expiry date,,
430,Published,Holmview station,"Spanns Road, Beenleigh, Southern",-27.7095,153.187,Southern,5,Rail fare machine,,go card,,,Buy,Top up,Register,Refund,Change expiry date,,
431,Published,Kingston station,"Milky Way Street, Kingston, Southern",-27.6574,153.118,Southern,5,Rail fare machine,,go card,,,Buy,Top up,Register,Refund,Change expiry date,,
432,Published,Lindum station,"Sibley Road, Lindum, Brisbane East",-27.4421,153.145,Brisbane East,5,Rail fare machine,,go card,,,Buy,Top up,Register,Refund,Change expiry date,,
433,Published,Lota station,"Railway Terrace, Lota, Brisbane East",-27.4701,153.188,Brisbane East,5,Rail fare machine,,go card,,,Buy,Top up,Register,Refund,Change expiry date,,
434,Published,Moorooka station,"1151 Ipswich Road, Moorooka, Brisbane South",-27.5355,153.014,Brisbane South,5,Rail fare machine,,go card,,,Buy,Top up,Register,Refund,Change expiry date,,
435,Published,Murarrie station,"Murarrie Road, Murarrie, Brisbane East",-27.4648,153.105,Brisbane East,5,Rail fare machine,,go card,,,Buy,Top up,Register,Refund,Change expiry date,,
436,Published,Narangba station,"448 Burpengary Road, Narangba, Northern",-27.2029,152.961,Northern,5,Rail fare machine,,go card,,,Buy,Top up,Register,Refund,Change expiry date,,
437,Published,Newmarket station,"Abuklea Street, Newmarket, Brisbane North",-27.4328,153.011,Brisbane North,5,Rail fare machine,,go card,,,Buy,Top up,Register,Refund,Change expiry date,,
438,Published,Norman Park station,"Waite Street, Norman Park, Brisbane East",-27.4818,153.062,Brisbane East,5,Rail fare machine,,go card,,,Buy,Top up,Register,Refund,Change expiry date,,
439,Published,North Boondall station,"Aberdeen Street North, Boondall, Brisbane North",-27.339,153.061,Brisbane North,5,Rail fare machine,,go card,,,Buy,Top up,Register,Refund,Change expiry date,,
440,Published,Nudgee station,"Railway Street, Nudgee, Brisbane North",-27.3656,153.084,Brisbane North,5,Rail fare machine,,go card,,,Buy,Top up,Register,Refund,Change expiry date,,
441,Published,Ormeau station,"200 Mirambeena Drive, Pimpama, Southern",-27.7991,153.282,Southern,5,Rail fare machine,,go card,,,Buy,Top up,Register,Refund,Change expiry date,,
442,Published,Ormiston station,"Wellington Street, Ormiston, Eastern",-27.5146,153.256,Eastern,5,Rail fare machine,,go card,,,Buy,Top up,Register,Refund,Change expiry date,,
443,Published,Oxford Park station,"Scanlan Road, Mitchelton, Brisbane North",-27.4042,152.968,Brisbane North,5,Rail fare machine,,go card,,,Buy,Top up,Register,Refund,Change expiry date,,
444,Published,Palmwoods station,"Chevallum Road, Palmwoods (Sunshine Coast Regional), Sunshine Coast",-26.6886,152.961,Sunshine Coast,5,Rail fare machine,,go card,,,Buy,Top up,Register,Refund,Change expiry date,,
445,Published,Park Road station,"Quarry Street, Woolloongabba, Brisbane South",-27.4937,153.031,Brisbane South,5,Rail fare machine,,go card,,,Buy,Top up,Register,Refund,Change expiry date,,
446,Published,Redbank station,"corner Brisbane Terrace and Weedman Street, Redbank, Western",-27.5995,152.872,Western,5,Rail fare machine,,go card,,,Buy,Top up,Register,Refund,Change expiry date,,
447,Published,Riverview station,"Moggill Ferry Road, Riverview (Ipswich City), Western",-27.595,152.851,Western,5,Rail fare machine,,go card,,,Buy,Top up,Register,Refund,Change expiry date,,
448,Published,Rocklea station,"Brooke Street, Rocklea, Brisbane South",-27.5447,153.014,Brisbane South,5,Rail fare machine,,go card,,,Buy,Top up,Register,Refund,Change expiry date,,
449,Published,Sherwood station,"Honour Avenue, Sherwood (Brisbane City), Brisbane South",-27.5316,152.98,Brisbane South,5,Rail fare machine,,go card,,,Buy,Top up,Register,Refund,Change expiry date,,
450,Published,Shorncliffe station,"Railway Parade, Shorncliffe, Brisbane North",-27.3269,153.08,Brisbane North,5,Rail fare machine,,go card,,,Buy,Top up,Register,Refund,Change expiry date,,
451,Published,Sunshine Station,"357 Bilsen Road, Geebung, Brisbane North",-27.3753,153.056,Brisbane North,5,Rail fare machine,,go card,,,Buy,Top up,Register,Refund,Change expiry date,,
452,Published,Taringa station,"1 Princess Street, Taringa, Brisbane West",-27.493,152.982,Brisbane West,5,Rail fare machine,,go card,,,Buy,Top up,Register,Refund,Change expiry date,,
453,Published,Thorneside station,"Railway Parade, Thorneside, Eastern",-27.4864,153.193,Eastern,5,Rail fare machine,,go card,,,Buy,Top up,Register,Refund,Change expiry date,,
454,Published,Trinder Park station,"Railway Parade, Trinder Park, Southern",-27.6314,153.098,Southern,5,Rail fare machine,,go card,,,Buy,Top up,Register,Refund,Change expiry date,,
455,Published,Wellington Point station,"Station Street, Wellington Point, Eastern",-27.494284,153.241914,Eastern,5,Rail fare machine,,go card,,,Buy,Top up,Register,Refund,Change expiry date,,
456,Published,Wilston station,"Newmarket Road, Wilston, Brisbane North",-27.4362,153.019,Brisbane North,5,Rail fare machine,,go card,,,Buy,Top up,Register,Refund,Change expiry date,,
457,Published,Windsor station,"Eildon Road, Windsor, Brisbane North",-27.4352,153.029,Brisbane North,5,Rail fare machine,,go card,,,Buy,Top up,Register,Refund,Change expiry date,,
458,Published,Wynnum station,"Thorn Street, Wynnum, Eastern",-27.4397,153.166,Eastern,5,Rail fare machine,,go card,,,Buy,Top up,Register,Refund,Change expiry date,,
459,Published,Wynnum North station,"Cameron Parade, Wynnum, Eastern",-27.4372,153.159,Eastern,5,Rail fare machine,,go card,,,Buy,Top up,Register,Refund,Change expiry date,,
460,Published,Yeerongpilly station,"67 Wilkie Street, Yeerongpilly, Brisbane South",-27.5255,153.014,Brisbane South,5,Rail fare machine,,go card,,,Buy,Top up,Register,Refund,Change expiry date,,
461,Published,South Bank station,"Grey Street, South Brisbane, Brisbane Central",-27.4818,153.023,Brisbane Central,5,Rail fare machine,,go card,SEEQ card,,Buy,Top up,Register,Refund,Change expiry date,Brisbane,
462,Archived,Sunbus Customer Service Counter,"Sunshine Plaza, Horton Parade, Maroochydore, Sunshine Coast",-26.6549,153.09,Sunshine Coast,1,Standard retailer,,go card,,,Buy,,,,,,
463,Published,IGA Acacia Ridge,"28 Elizabeth Street, Acacia Ridge, Brisbane South",-27.5902,153.027,Brisbane South,1,Standard retailer,,go card,,,Buy,,,,,Brisbane,
464,Published,Ferny Hills News & Casket,"Shop 11, 126 Ferny Way, Ferny Hills, Brisbane North",-27.4003,152.939,Brisbane North,1,Standard retailer,,go card,,,Buy,,,,,,
465,Archived,Moorooka News,"1131 Ipswich Rd, Moorooka, Brisbane South",-27.535,153.014,Brisbane South,1,Standard retailer,,go card,,,Buy,,,,,,
466,Archived,Oxley Newsagency,"94 Cook Street, Oxley, Brisbane South",-27.5527,152.974,Brisbane South,1,Standard retailer,,go card,,,Buy,,,,,Brisbane,
467,Archived,Wynnum Station News,"181 Florence St, Wynnum, Brisbane East",-27.4455,153.171,Brisbane East,1,Standard retailer,,go card,,,Buy,,,,,,
468,Archived,NewsXpress Albany Creek,"Corner Old Northern Rd and Albany Forest Drive, Albany Creek, Brisbane North",-27.3581,152.969,Brisbane North,1,Standard retailer,,go card,,,Buy,,,,,Brisbane,
469,Published,Nextra Bribie Island News,"Bribie Island Shopping Centre, Bongaree, Queensland, Australia",-27.064302,153.157087,Northern,1,Standard retailer,,go card,SEEQ card,,Buy,Top up,Register,Refund,Change expiry date,Brisbane,
470,Archived,Logan Road News,"1303 Logan Road, Mount Gravatt, Brisbane South",-27.5341,153.075,Brisbane South,1,Standard retailer,,go card,,,Buy,,,,,Airlie Beach,
472,Published,North Wavell News,"151 Hamilton Road, Wavell Heights, Brisbane North",-27.3893,153.05,Brisbane North,1,Standard retailer,,go card,,,Buy,,,,,,
473,Published,Mater Hill busway station,"Stanley Street, opposite Mater Public Hospital, South Brisbane, Brisbane Central",-27.4842,153.028,Brisbane Central,1,Standard retailer,,go card,,,Buy,Top up,,,,,
474,Published,King George Square busway station,"corner Ann and Roma Streets, access also available from Adelaide Street, Brisbane , Brisbane Central",-27.4669,153.022,Brisbane Central,1,Standard retailer,,go card,,,Buy,Top up,,,,,
475,Published,South Bank Busway station,"corner of Tribune Street and Colchester Streets, South Brisbane, Brisbane Central",-27.4807,153.022,Brisbane Central,1,Standard retailer,,go card,,,Buy,Top up,,,,,
476,Published,Woolloongabba busway station,"corner of Main Street and Stanley Streets, Woolloongabba, Brisbane South",-27.486,153.035,Brisbane South,1,Standard retailer,,go card,,,Buy,Top up,,,,,
477,Published,Griffith University busway station,"access to Plaza from roundabout at bottom of Sports Road , Mount Gravatt, Brisbane South",-27.5466,153.064,Brisbane South,1,Standard retailer,,go card,,,Buy,Top up,,,,,
478,Published,Upper Mount Gravatt busway station,"McGregor Street, Upper Mount Gravatt, Brisbane South",-27.5634,153.081,Brisbane South,1,Standard retailer,,go card,,,Buy,Top up,,,,,
479,Archived,Highland Park News,"104 Alexander Drive (corner Explorers Way), Highland Park, Gold Coast",-27.5217,153.074,Gold Coast,1,Standard retailer,,go card,,,Buy,,,,,Gold Coast,
480,Published,Cultural Centre busway station,"corner of Grey and Melbourne Streets, South Brisbane, Brisbane Central",-27.4732,153.019,Brisbane Central,1,Standard retailer,,go card,,,Buy,Top up,,,,,
481,Published,Buranda Busway Station,"OKeefe Street, Buranda, Brisbane South",-27.497029,153.039182,Brisbane South,4,Bus fare machine,,go card,,,Buy,Top up,,,,Brisbane,
482,Published,RBWH busway station,"Bowen Bridge Road, Herston, Brisbane North",-27.4474,153.029,Brisbane North,1,Standard retailer,,go card,,,Buy,Top up,,,,,
483,Published,QUT Kelvin Grove busway station,"between University and Victoria Park Golf Course, Kelvin Grove, Brisbane North",-27.452,153.019,Brisbane North,1,Standard retailer,,go card,,,Buy,Top up,,,,,
484,Published,Terrace News,"Morris Towers, 149 Wickham Terrace , Spring Hill, Brisbane North",-27.4646,153.025,Brisbane North,1,Standard retailer,,go card,,,Buy,,,,,,
485,Published,Chermside Bus Interchange,"corner Gympie and Hamilton Roads, Chermside, Brisbane North",-27.3854,153.031,Brisbane North,4,Bus fare machine,,go card,,,Buy,Top up,,,,,
486,Published,Sunnybank News and Casket Agency,"Shop 22 Sunnybank Plaza, Mains Road, Sunnybank, Brisbane South",-27.5706,153.062,Brisbane South,1,Standard retailer,,go card,SEEQ card,Visitor Information Pack,Buy,Top up,Register,Refund,Change expiry date,Brisbane,
487,Published,Clarks Logan City Bus ticket kiosk Loganholme,"Logan Hyperdome, corner Pacific Highway and Bryants Road, Loganholme, Southern",-27.6606,153.173,Southern,1,Standard retailer,,go card,,,Buy,,,,,,
488,Published,Clarks Logan City Bus ticket kiosk Springwood,"Springwood bus station, Springwood, Southern",-27.6144,153.126,Southern,1,Standard retailer,,go card,,,Buy,,,,,,
489,Published,Target News,"Shop 2 Buranda Village, Ipswich Road, Buranda, Brisbane South",-27.500757,153.036824,Brisbane South,1,Standard retailer,,go card,,,Buy,Top up,Change expiry date,,,,
490,Archived,Peregian Beach Newsagency,"6 Kingfisher Drive, Peregian Beach, Sunshine Coast",-26.4812,153.096,Sunshine Coast,1,Standard retailer,,go card,,,Buy,,,,,,
491,Archived,IGA Express Upper Mt Gravatt,"1722 Logan Road, Upper Mount Gravatt, Brisbane South",-27.5481,153.081,Brisbane South,1,Standard retailer,,go card,,,Buy,,,,,Airlie Beach,
492,Published,Garden City bus interchange,"South East Freeway near Garden City Shopping Centre (access via current bus interchange), Upper Mount Gravatt, Brisbane South",-27.5631,153.081,Brisbane South,4,Bus fare machine,,go card,,,Buy,Top up,,,,,
493,Archived,Cannon Hill Friendly Grocer,"73 Molloy Road, Cannon Hill, Brisbane East",-27.471,153.083,Brisbane East,1,Standard retailer,,go card,,,Buy,,,,,Brisbane,
494,Published,Spar Express,"503 St Pauls Terrace, Fortitude Valley, Brisbane Central",-27.454,153.034,Brisbane Central,1,Standard retailer,,go card,,,Buy,,,,,,
495,Published,Logandale Plaza News,"Shop 10, Logandale Plaza, Cnr Beenleigh-Redland Bay Road and Logandale Boulevard, Loganholme, Southern",-27.6735,153.211,Southern,1,Standard retailer,,go card,,,Buy,,,,,,
496,Published,Rosewood News,"12 John Street, Rosewood, Western",-27.6419,152.593,Western,1,Standard retailer,,go card,,,Buy,,,,,,
497,Archived,Nibble Coffee and Convenience Store,"83 Hardgrave Road, West End (Brisbane City), Brisbane South",-27.4827,153.007,Brisbane South,1,Standard retailer,,go card,,,Buy,,,,,Brisbane,
498,Archived,Kings Circle News / Caboolture Officesmart,"287 King Street, Caboolture, Northern",-27.076,152.929,Northern,1,Standard retailer,,go card,,,Buy,,,,,Brisbane,
499,Published,News Extra Gumdale,"Shop 4, 696 New Cleveland Road, Gumdale, Eastern",-27.4905,153.153,Eastern,1,Standard retailer,,go card,,,Buy,,,,,Brisbane,
500,Archived,Wishart Village News,"Shop 3, 590 Mt Gravatt-Capalaba Road, Wishart, Brisbane South",-27.5483,153.108,Brisbane South,1,Standard retailer,,go card,,,Buy,,,,,Airlie Beach,
501,Published,Bond University Bookshop,"Shop 5-6, Commercial Centre, Bond University, Robina, Gold Coast",-28.0465,153.409,Gold Coast,1,Standard retailer,,go card,,,Buy,,,,,,
502,Published,Nambour News and Casket,"Centenary Square, Currie St, Nambour, Sunshine Coast",-26.6278,152.959,Sunshine Coast,1,Standard retailer,,go card,,,Buy,,,,,,
503,Published,Newsxpress Noosaville,"Shop 2, 199 Gympie Terrace , Noosaville, Sunshine Coast",-26.3986,153.062,Sunshine Coast,1,Standard retailer,,go card,,,Buy,,,,,,
504,Archived,Nextra Beenleigh Marketplace,"Shop 31, Beenleigh Marketplace, George Street, Beenleigh, Southern",-27.7162,153.201,Southern,1,Standard retailer,,go card,,,Buy,,,,,,
505,Published,Greenbank Plaza News,"Shop 3, 15 Pub Lane, Greenbank, Southern",-27.7383,152.983,Southern,1,Standard retailer,,go card,,,Buy,,,,,,
506,Archived,Yeronga News,"Shop 3, Yeronga Village, 429 Fairfield Road, Yeronga, Brisbane South",-27.5163,153.017,Brisbane South,1,Standard retailer,,go card,,,Buy,,,,,Airlie Beach,
507,Archived,Metropolitan South Institute of TAFE - Mt Gravatt Campus,"Customer Service Centre, F block, 1030 Cavendish Road, Mount Gravatt, Brisbane South",-27.5253,153.091,Brisbane South,1,Standard retailer,,go card,,,Buy,,,,,Airlie Beach,
508,Archived,Metropolitan South Institute of TAFE - Alexandra Hills Campus,"Customer Service Centre, A block, Windemere Road, Alexandra Hills, Eastern",-27.5311,153.216,Eastern,1,Standard retailer,,go card,,,Buy,,,,,South East Queensland,
509,Published,Kallangur Fair News,"1473 Anzac Avenue, Kallangur, Northern",-27.2501,152.999,Northern,1,Standard retailer,,go card,,,Buy,,,,,,
510,Archived,Walloon News,"12 Queen Street , Walloon, Western",-27.6061,152.665,Western,1,Standard retailer,,go card,,,Buy,,,,,Airlie Beach,
511,Published,Nextra Peninsula Fair News,"Peninsula Fair Shopping Centre, Anzac Ave, Kippa-Ring, Northern",-27.2256,153.088,Northern,1,Standard retailer,,go card,,,Buy,Top up,Change expiry date,,,,
512,Published,Night Owl ,"660 Brunswick Street, New Farm, Brisbane Central",-27.4632,153.042,Brisbane Central,1,Standard retailer,,go card,,,Buy,Top up,Change expiry date,,,,
513,Published,St Lucia Supermarket,"185  Sir Fred Schonell Drive, St Lucia, Brisbane West",-27.4944,153.003,Brisbane West,1,Standard retailer,,go card,,,Buy,,,,,,
514,Published,Supanews Strathpine,"Westfield Shopping Centre, Gympie Road, Strathpine, Northern",-27.3069,152.993,Northern,1,Standard retailer,,go card,,,Buy,Top up,Change expiry date,,,,
515,Archived,Cooroy Newsagency,"28 Maple Street, Cooroy, Sunshine Coast",-26.4177,152.91,Sunshine Coast,1,Standard retailer,,go card,,,Buy,,,,,Airlie Beach,
516,Published,Tewantin Newsagency,"107 Poinciana Avenue, Tewantin, Sunshine Coast",-26.3921,153.038,Sunshine Coast,1,Standard retailer,,go card,,,Buy,Top up,Change expiry date,,,,
517,Published,Camp Hill Newsagency,"569 Old Cleveland Road, Camp Hill, Brisbane East",-27.493,153.075,Brisbane East,1,Standard retailer,,go card,,,Buy,,,,,,
518,Published,Stanley Road News,"182 Stanley Road, North Carina, Brisbane East",-27.488,153.088,Brisbane East,1,Standard retailer,,go card,,,Buy,,,,,,
519,Archived,Tobacco Station Stones Corner,"307 Logan Road, Stones Corner, Brisbane South",-27.499,153.045,Brisbane South,1,Standard retailer,,go card,,,Buy,,,,,,
520,Published,Nextra Orion Newsagency,"Shop 29, 1 Main Street Orion Springfield, Springfield, Brisbane West",-27.6776,152.902,Brisbane West,1,Standard retailer,,go card,,,Buy,Top up,Change expiry date,,,,
521,Published,Gold Coast Tourism Visitor Information Booth,"2 Cavill Avenue, Surfers Paradise, Queensland, Australia",-28.001927,153.428923,Gold Coast,1,Standard retailer,,go card,Gold Coast go explore card,,Buy,Top up,Register,Refund,Change expiry date,Gold Coast,
522,Archived,Mt Gravatt East Post Office,"Shop 3, 8 Carrara Street, Mount Gravatt East, Brisbane South",-27.5239,153.081,Brisbane,1,Standard retailer,,go card,,,Buy,,,,,Brisbane,
523,Published,Waterford Plaza News,"Waterford Plaza, corner Kingston and Taigum Roads , Waterford, Southern",-27.6924,153.136,Southern,1,Standard retailer,,go card,,,Buy,,,,,,
524,Published,Nextra Burleigh Heads,"Stockland Burleigh Shopping Centre, West Burleigh Road, Burleigh Heads, Gold Coast",-28.096893,153.442285,Gold Coast,1,Standard retailer,,go card,Gold Coast go explore card,,Buy,Top up,Register,Refund,Change expiry date,Gold Coast,
525,Published,BP Cooroy Supermart,"28 Elm Street, Cooroy, Sunshine Coast",-26.4184,152.912,Sunshine Coast,1,Standard retailer,,go card,,,Buy,,,,,,
526,Published,Supanews Green Square,"Shop 7 Green Square North Tower, 515 St Pauls Terrace, Fortitude Valley, Brisbane Central",-27.4536,153.035,Brisbane Central,1,Standard retailer,,go card,,,Buy,Top up,Change expiry date,,,,
527,Published,Nextra Kenmore Village News,"Shop 50, Kenmore Village, Brookfield Road, Kenmore, Brisbane West",-27.5072,152.94,Brisbane West,1,Standard retailer,,go card,,,Buy,,,,,,
528,Published,Lucky 7 South Bank,"Shop 4, 166 Grey Street, South Bank, Brisbane Central",-27.4781,153.021,Brisbane Central,1,Standard retailer,,go card,,,Buy,,,,,,
529,Published,Victoria Point West Licensed Post Office,"Shop 54, Victoria Point Shopping Centre, corner Cleveland Redland Bay Road and Bunker Road, Victoria Point, Eastern",-27.5854,153.281,Eastern,1,Standard retailer,,go card,,,Buy,,,,,,
530,Archived,Deagon News,"138 Braun Street, Deagon, Brisbane North",-27.3324,153.059,Brisbane North,1,Standard retailer,,go card,,,Buy,,,,,,
531,Published,NewsXpress Arana Hills,"Shop 13B, Kmart Plaza, corner Patricks Road and Dawsons Parade, Arana Hills, Brisbane North",-27.3973,152.961,Brisbane North,1,Standard retailer,,go card,,,Buy,,,,,Brisbane,
532,Published,Moffat Beach News,"6 Seaview Terrace, Moffat Beach, Sunshine Coast",-26.7899,153.142,Sunshine Coast,1,Standard retailer,,go card,,,Buy,,,,,,
533,Published,Surfside Newsagency,"10 North Street Woorim, Bribie Island, Northern",-27.0683,153.203,Northern,1,Standard retailer,,go card,,,Buy,,,,,,
534,Published,Alderley Licensed Post Office,"19 Samford Road, Alderley, Queensland, Australia",-27.424959,153.000265,Brisbane North,1,Standard retailer,,go card,,,Buy,,,,,,
535,Archived,IGA Express Cannon Hill,"965 Wynnum Road, Cannon Hill, Brisbane East",-27.4689,153.09,Brisbane East,1,Standard retailer,,go card,,,Buy,,,,,,
536,Archived,Colmslie Plaza News,"38 Junction Road, Morningside, Brisbane East",-27.4653,153.079,Brisbane East,1,Standard retailer,,go card,,,Buy,,,,,,
537,Published,Given Terrace Newsagency,"Shop 1/209 Given Terrace, Paddington, Brisbane North",-27.4616,153.006,Brisbane North,1,Standard retailer,,go card,,,Buy,,,,,,
538,Published,Stones Corner News,"347 Logan Road, Stones Corner, Brisbane South",-27.4992,153.045,Brisbane South,1,Standard retailer,,go card,SEEQ card,Visitor Information Pack,Buy,Top up,Register,Refund,Change expiry date,Brisbane,
539,Published,Broadcast News,"Shop 1, 39 Sherwood Road, Toowong, Brisbane West",-27.4854,152.992,Brisbane West,1,Standard retailer,,go card,,,Buy,Top up,Change expiry date,,,,
540,Published,Wilston News & Post,"Shop 1, 99 Kedron Brook Road, Wilston, Brisbane North",-27.4322,153.02,Brisbane North,1,Standard retailer,,go card,,,Buy,,,,,,
541,Published,Goodes Newsagency,"771 Stanley Street, Woolloongabba, Brisbane South",-27.4864,153.034,Brisbane South,1,Standard retailer,,go card,,,Buy,,,,,,
542,Published,IGA Express Woolloongabba,"14 Annerley Road, Woolloongabba, Brisbane South",-27.4875,153.029,Brisbane South,1,Standard retailer,,go card,,,Buy,,,,,,
543,Archived,News on Kameruka,"corner Beaudesert Road and Kameruka Street, Calamvale, Brisbane South",-27.624,153.049,Brisbane South,1,Standard retailer,,go card,,,Buy,,,,,,
544,Archived,Logan City News,"Shop 66, Logan City Centre, corner Kingston Road and Wembley Road, Logan Central, Southern",-27.6427,153.119,Southern,1,Standard retailer,,go card,,,Buy,,,,,,
545,Published,Nobby Beach Newsagency,"Shop 1, 2239 Gold Coast Highway, Mermaid Beach, Gold Coast",-28.0587,153.438,Gold Coast,2,Preloaded reseller,,go card,Gold Coast go explore card,,Buy,,,,,Gold Coast,
546,Archived,Kwikimart (a Friendly Grocer Store),"Shop 69, 158 Moray Street, New Farm, Brisbane Central",-27.4701,153.043,Brisbane Central,1,Standard retailer,,go card,,,Buy,,,,,,
547,Published,Palm Beach Newsagency,"Shop 5A, 10 Fifth Avenue, Palm Beach, Gold Coast",-28.1223,153.472,Gold Coast,1,Standard retailer,,go card,,,Buy,,,,,,
548,Archived,Palmdale News,"2120 Logan Road, Upper Mount Gravatt, Brisbane South",-27.5612,153.083,Brisbane South,1,Standard retailer,,go card,,,Buy,,,,,,
549,Archived,Night Owl Wickham Street,"Chopstix Arcade, 210 Wickham Street, Fortitude Valley, Brisbane Central",-27.4574,153.033,Brisbane Central,1,Standard retailer,,go card,,,Buy,,,,,,
550,Published,Norfolk News,"Norfolk Village Shopping Centre, 174-178 Pascoe Road, Ormeau, Southern",-27.7639,153.245,Southern,1,Standard retailer,,go card,,,Buy,,,,,,
551,Published,Nextra Garden City Lower Level,"Westfield Garden City (lower level, opposite Coles), Logan Road, Mount Gravatt, Brisbane South",-27.5634,153.082,Brisbane South,1,Standard retailer,,go card,,,Buy,Top up,Change expiry date,,,Brisbane,
552,Archived,Welcome Express Convenience Store,"243 Brunswick Street, Fortitude Valley, Brisbane Central",-27.4571,153.033,Brisbane Central,1,Standard retailer,,go card,,,Buy,,,,,,
553,Archived,Pit Stop News and Supermarket,"3313 Surfers Paradise Boulevard, Surfers Paradise, Queensland, Australia",-27.9936,153.429393,Gold Coast,2,Preloaded reseller,,go card,,,Buy,,,,,Gold Coast,
554,Archived,Spring Hill News,"Shop 3, 74 Little Edward Street, Spring Hill, Brisbane North",-27.4611,153.024,Brisbane North,1,Standard retailer,,go card,,,Buy,,,,,,
555,Published,Supanews Nundah Village,"Shop 9, 1193 Sandgate Road, Nundah, Brisbane North",-27.4028,153.061,Brisbane North,1,Standard retailer,,go card,,,Buy,,,,,Brisbane,
556,Published,Commercial Road News,"52 Commercial Road, Fortitude Valley, Brisbane Central",-27.4533,153.044,Brisbane Central,1,Standard retailer,,go card,,,Buy,,,,,,
557,Published,Supanews Bracken Ridge,"Bracken Ridge Plaza Shopping Centre, Corner Telegraph and Norris Roads, Bracken Ridge, Brisbane North",-27.330219,153.026505,Brisbane North,1,Standard retailer,,go card,,,Buy,,,,,,
558,Published,7-Eleven Kensington Hills,"1 Sovereign Avenue, Bray Park (Moreton Bay Regional), Northern",-27.2971,152.975,Northern,1,Standard retailer,,go card,,,Buy,Top up,Change expiry date,,,,
559,Published,Broadbeach News and Casket,"2703 Gold Coast Highway, Broadbeach, Gold Coast",-28.029247,153.430453,Gold Coast,1,Standard retailer,,go card,Gold Coast go explore card,,Buy,,,,,Gold Coast,
560,Published,Jindalee News,"Shop 5, 86 Curragundi Road, Jindalee, Brisbane West",-27.534681,152.935247,Brisbane West,1,Standard retailer,,go card,,,Buy,,,,,Brisbane,
561,Published,Middle Park News,"Park Village Shopping Centre, 92 Horizon Drive, Middle Park, Brisbane West",-27.555213,152.923094,Brisbane West,1,Standard retailer,,go card,,,Buy,,,,,Brisbane,
562,Published,Mary Ryans Bookstore,"40 Park Road, Milton, Brisbane West",-27.4713,153.005,Brisbane West,1,Standard retailer,,go card,,,Buy,,,,,Brisbane,
563,Published,Norman Park Central News,"Shop 1, 183 Bennetts Road, Norman Park, Brisbane East",-27.4759,153.066,Brisbane East,1,Standard retailer,,go card,,,Buy,,,,,,
564,Archived,Westside Story Newsagency,"85 Boundary Street, West End (Brisbane City), Brisbane South",-27.4778,153.013,Brisbane South,1,Standard retailer,,go card,,,Buy,,,,,,
565,Archived,Night Owl Brunswick Street,"Shop 2B, Valley Mall, 312-318 Brunswick Street, Fortitude Valley, Brisbane Central",-27.458,153.035,Brisbane Central,1,Standard retailer,,go card,,,Buy,,,,,,
566,Archived,Supanews Carseldine,"Carseldine Central, 735 Beams Road, Carseldine, Brisbane North",-27.3453,153.012,Brisbane North,1,Standard retailer,,go card,,,Buy,,,,,Airlie Beach,
567,Archived,Redland Heights News,"30 Cypress Street, Redland Bay, Eastern",-27.6284,153.298,Eastern,1,Standard retailer,,go card,,,Buy,,,,,,
568,Archived,Skylark News,"59 Skylark Street, Inala, Brisbane West",-27.6014,152.98,Brisbane West,1,Standard retailer,,go card,,,Buy,,,,,,
569,Published,Newmarket Post Office,"Shop 123, 400 Newmarket Road, Newmarket, Brisbane North",-27.4371,153.007,Brisbane North,1,Standard retailer,,go card,,,Buy,,,,,,
570,Published,Banyo Station,"268 St Vincents Road, Banyo, Brisbane North",-27.374995,153.077268,Brisbane North,6,Rail ticket office,,go card,,,Buy,Top up,Register,Refund,Change expiry date,Brisbane,
571,Published,Lucky Charm Noosa,"Shop 1069A, Noosa Civic, 28 eenie Creek Road, Noosaville, Sunshine Coast",-26.4158,153.049,Sunshine Coast,1,Standard retailer,,go card,,,Buy,,,,,,
572,Published,NewsXpress Jimboomba,"Shop 10, Junction Shopping Centre, Cusack Lane, Jimboomba, Southern",-27.830644,153.026739,Southern,1,Standard retailer,,go card,,,Buy,,,,,,
573,Published,7-Eleven Southbank TAFE,"Southbank TAFE, 5/97 Merivale Street, South Brisbane, Brisbane Central",-27.4797,153.019,Brisbane Central,1,Standard retailer,,go card,,,Buy,Top up,Change expiry date,,,,
574,Archived,Supanews North Lakes,"Shop 1104/5 Westfield North Lakes, North Lakes, Northern",-27.2398,153.02,Northern,1,Standard retailer,,go card,,,Buy,,,,,,
575,Archived,Noosa Junction Newsagency,"Shop 1/26 Sunshine Beach Rd, Noosa Heads, Sunshine Coast",-26.398385,153.091521,Sunshine Coast,1,Standard retailer,,go card,,,Buy,,,,,Airlie Beach,
576,Published,Clock Corner Convenience Store & Take-Away,"13/521 Beams Rd, Carseldine, Brisbane North",-27.3482,153.028,Brisbane North,1,Standard retailer,,go card,,,Buy,,,,,,
577,Published,Gatton Plaza Newsagency ,"7/8 Plaza Shopping Centre Spencer St, Gatton, Western",-27.558271,152.279529,Western,1,Standard retailer,,go card,,,Buy,,,,,,
578,Published,Night Owl West End,"Shop 1, 158 Boundary St, West End (Brisbane City), Brisbane South",-27.4814,153.012,Brisbane South,1,Standard retailer,,go card,,,Buy,,,,,,
579,Published,Night Owl Highgate Hill,"Shop 2, 34 B Gladstone Road, Highgate Hill, Brisbane South",-27.4845,153.02,Brisbane South,1,Standard retailer,,go card,,,Buy,,,,,,
580,Published,Narangba Valley News,"Shop 6, 212 Young Road, Narangba, Northern",-27.173203,152.936888,Northern,1,Standard retailer,,go card,,,Buy,,,,,,
581,Published,Friendly Grocer Broadbeach,"Shop 10, Belair Retail Centre, Gold Coast Highway,Broadbeach, Broadbeach, Gold Coast",-28.035828,153.431953,Gold Coast,2,Preloaded reseller,,go card,Gold Coast go explore card,,Buy,,,,,Gold Coast,
582,Published,Valley Centre News,"Valley Metro Centre, 230 Brunswick St, Fortitude Valley, Brisbane Central",-27.456839,153.03302,Brisbane Central,1,Standard retailer,,go card,,,Buy,,,,,,
583,Archived,Get Hummered,"10 Transit Centre, Beach Rd, Surfers Paradise, Gold Coast",-28.002304,153.426632,Gold Coast,1,Standard retailer,,go card,,,Buy,,,,,,
584,Archived,Labrador Park Newsagency,"100 Brisbane Road, Labrador, Gold Coast",-27.931558,153.377048,Airlie Beach,1,Standard retailer,,go card,,,Buy,,,,,Airlie Beach,
585,Published,NewsXpress Deception Bay,"Shop 16 Deception Bay SC, Bay Avenue, Deception Bay, Northern",-27.19383,153.029327,Northern,1,Standard retailer,,go card,SEEQ card,Visitor Information Pack,Buy,Top up,Register,Refund,Change expiry date,,
586,Published,Coorparoo News,"Shop 6, Coorparoo Convenience Centre, 208 Old Cleveland Road, Coorparoo, Brisbane East",-27.497168,153.054055,Brisbane East,1,Standard retailer,,go card,,,Buy,Top up,Change expiry date,,,,
587,Published,Swan Newsagency,"Shop 137 Sunshine Plaza, Horton Parade, Maroochydore, Sunshine Coast",-26.654877,153.090593,Sunshine Coast,1,Standard retailer,,go card,SEEQ card,Visitor Information Pack,Buy,Top up,Register,Refund,Change expiry date,Sunshine Coast,
588,Published,Loganholme Bus Interchange,"Cnr Service Rd and Mandew St, Loganholme, Southern",-27.660298,153.173541,Southern,4,Bus fare machine,,go card,,,Buy,Top up,,,,,
589,Published,Eight Mile Plains Busway,"Eight Mile Plains Busway Station, Eight Mile Plains, Brisbane South",-27.57848,153.101739,Brisbane South,1,Standard retailer,,go card,,,Buy,Top up,,,,,
590,Published,Springwood Busway Station,"Springwood Busway Station, Springwood, Southern",-27.614579,153.125323,Southern,1,Standard retailer,,go card,,,Buy,Top up,,,,,
591,Published,Greenslopes Busway,"Barnsdale Place, Greenslopes, Brisbane South",-27.510946,153.040493,Brisbane South,1,Standard retailer,,go card,,,Buy,Top up,,,,,
592,Published,PA Hospital Busway,"PA Hospital, Ipswich Road, Woolloongabba, Brisbane South",-27.496863,153.033977,Brisbane South,1,Standard retailer,,go card,,,Buy,Top up,,,,,
593,Published,Boggo Road Busway,"Quarry Street, Woolloongabba, Brisbane South",-27.492742,153.030513,Brisbane South,1,Standard retailer,,go card,,,Buy,Top up,,,,,
594,Published,Carindale Bus Interchange,"Westfield Carindale Shopping Centre, Carindale, Brisbane East",-27.503369,153.102971,Brisbane East,1,Standard retailer,,go card,,,Buy,Top up,,,,,
595,Published,Cannon Hill Bus Interchange,"Cannon Hill Shopping Centre, Creek Road, Cannon Hill, Brisbane East",-27.470755,153.096887,Brisbane East,1,Standard retailer,,go card,,,Buy,Top up,,,,,
596,Published,Holland Park Busway,"Holland Park Busway Station, Holland Park, Brisbane South",-27.523145,153.054915,Brisbane South,1,Standard retailer,,go card,,,Buy,Top up,,,,,
597,Published,Normanby Busway,"Normanby Busway Station, Red Hill (Brisbane City), Brisbane North",-27.458927,153.01509,Brisbane North,1,Standard retailer,,go card,,,Buy,Top up,,,,,
598,Published,Roma Street Busway,"Roma Street Busway Station, Brisbane , Brisbane Central",-27.465434,153.017253,Brisbane Central,4,Bus fare machine,Adult go cards only,go card,,,Buy,Top up,,,,Brisbane,
599,Published,Royal Childrens Hospital Busway,"Royal Childrens Hospital, Herston, Brisbane North",-27.449758,153.025944,Brisbane North,1,Standard retailer,,go card,,,Buy,Top up,,,,,
600,Published,Toombul Bus Interchange,"Toombul Shopping Centre, Toombul, Brisbane North",-27.408392,153.060114,Brisbane North,1,Standard retailer,,go card,,,Buy,Top up,,,,,
601,Published,Aspley Bus Interchange,"Pick n Pay Hypermarket, Albany Creek Rd, Aspley, Brisbane North",-27.363956,153.012848,Brisbane North,4,Bus fare machine,,go card,,,Buy,Top up,,,,,
602,Published,Brookside Bus Interchange,"Brookside Shopping Centre, Mitchelton, Brisbane North",-27.410027,152.978784,Brisbane North,1,Standard retailer,,go card,,,Buy,Top up,,,,,
603,Published,UQ (Chancellor),"University of Queensland, St Lucia, Brisbane West",-27.498036,153.010862,Brisbane West,4,Bus fare machine,,go card,,,Buy,Top up,,,,,
604,Published,Bribie Island Park n Ride,"Cnr Village and Victory Road, Bongaree, Bribie Island, Northern",-27.06552,153.158635,Northern,4,Bus fare machine,,go card,,,Buy,Top up,,,,,
605,Published,Lockyer Valley Tourist Information Centre,"Lake Apex Drive, Gatton, Western",-27.570008,152.270886,Western,1,Standard retailer,,go card,,,Buy,,,,,,
606,Published,Regents Park News,"2/3374 Beaudesert Road, Browns Plains, Brisbane South",-27.666518,153.034598,Brisbane South,1,Standard retailer,,go card,,,Buy,,,,,,
607,Published,NewsXpress Gatton,"6/6 Railway Street, Gatton, Western",-27.555952,152.277841,Western,1,Standard retailer,,go card,,,Buy,,,,,,
608,Published,NewsXpress Manly,"Shop 9 Mayfair on Manly SC, Cnr Manly and Hargreaves Rd, Manly West, Eastern",-27.475372,153.154778,Eastern,1,Standard retailer,,go card,,,Buy,,,,,,
609,Published,Co-op Bookshop (USC),"University of Sunshine Coast, Sippy Downs Drive, Sippy Downs, Queensland, Australia",-26.718071,153.062414,Sunshine Coast,1,Standard retailer,,go card,SEEQ card,,Buy,Top up,Register,Refund,Change expiry date,Sunshine Coast,
610,Published,Newsxpress Toowong Village,"9 Sherwood Road, Toowong, Brisbane West",-27.48533,152.99154,Brisbane West,1,Standard retailer,,go card,,,Buy,,,,,,
611,Published,Winston Glades News,"Shop 9, Ash Street, Flinders View, Western",-27.65422,152.751467,Western,1,Standard retailer,,go card,,,Buy,,,,,,
612,Archived,Pomona Newsagency,"10 Memorial Avenue, Pomona, Sunshine Coast",-26.366181,152.85505,Sunshine Coast,1,Standard retailer,,go card,,,Buy,,,,,,
613,Published,Eumundi Village Pharmacy,"1 / 2 - 6 Ethridge Street, Eumundi, Sunshine Coast",-26.475572,152.950648,Sunshine Coast,1,Standard retailer,,go card,,,Buy,,,,,,
614,Archived,Buderim Newsagency,"2/67 Burnett Street, Buderim, Sunshine Coast",-26.687894,153.048923,Sunshine Coast,1,Standard retailer,,go card,,,Buy,,,,,Airlie Beach,
615,Published,BP Yandina Food Stop,"24 Farrell Street, Yandina, Sunshine Coast",-26.559987,152.956586,Sunshine Coast,1,Standard retailer,,go card,,,Buy,,,,,,
616,Published,Dockside Convenience Store,"Shop 5, 35 Ferry Street, Kangaroo Point, Brisbane East",-27.472558,153.038964,Brisbane East,1,Standard retailer,,go card,,,Buy,,,,,,
617,Published,Currimundi News,"Cnr Nicklin Way and Bellara Drive, Currimundi, Sunshine Coast",-26.773831,153.124299,Sunshine Coast,1,Standard retailer,,go card,,,Buy,,,,,,
618,Archived,Gem News and Casket,"18 Racecourse Road, Hamilton, Brisbane North",-27.438428,153.064185,Brisbane North,1,Standard retailer,,go card,,,Buy,,,,,,
619,Published,NewsXpress The Pines,"Shop 29 The Pines Shopping Centre, Guineas Creek Road, Elanora, Gold Coast",-28.135343,153.469333,Gold Coast,1,Standard retailer,,go card,,,Buy,,,,,,
620,Published,Riverside Ferry Terminal,"Eagle Street, Brisbane , Brisbane Central",-27.466974,153.030874,Brisbane Central,1,Standard retailer,,go card,SEEQ card,Visitor Information Pack,Buy,Top up,Register,Refund,Change expiry date,Brisbane,
621,Published,Daisy Hill News,"Shop 7, Cnr Daisy Hill Rd and Cupania Street, Daisy Hill , Southern",-27.642944,153.153712,Southern,1,Standard retailer,,go card,,,Buy,,,,,,
622,Published,Foodworks Salisbury,"Shop 4 / 660 Toohey Road, Salisbury, Brisbane South",-27.545804,153.039488,Brisbane South,1,Standard retailer,,go card,,,Buy,,,,,,
623,Published,Burpengary News,"Shop 22 Burpengary Plaza, Station Road, Burpengary, Northern",-27.154338,152.97469,Northern,1,Standard retailer,,go card,,,Buy,,,,,,
625,Published,Richlands Rail Station,"Progress Road, Richlands, Brisbane West",-27.596442,152.946558,Brisbane West,5,Rail fare machine,,go card,,,Buy,Top up,Register,Refund,Change expiry date,,
626,Published,Richlands Rail Station,"Progress Road, Richlands, Brisbane West",-27.596442,152.946558,Brisbane West,2,Preloaded reseller,,go card,,,Top up,,,,,,
627,Archived,Runaway Bay News,"Shop 53 Runaway Bay Village Shopping Centre, Runaway Bay, Gold coast",-27.912639,153.401878,Gold coast,1,Standard retailer,,go card,,,Buy,,,,,,
628,Published,Queen Street Busway,"Lower Level Myer Centre, Queen Street, Brisbane , Brisbane Central",-27.470582,153.025309,Brisbane Central,1,Standard retailer,,go card,,,Buy,Top up,,,,,
629,Published,Christines Corner Newsagency,"5/221 Christine Avenue, Varsity Lakes, Gold Coast",-28.085385,153.42483,Gold Coast,1,Standard retailer,,go card,,,Buy,,,,,,
630,Published,Co-Op Bookshop ACU,"Aust Catholic University, Nudgee Rd, Banyo, Brisbane North",-27.379966,153.148047,Brisbane North,1,Standard retailer,,go card,,,Buy,,,,,,
631,Published,Co-Op Bookshop GU Logan,"Griffith Uni Logan Campus, University Drive, Meadowbrook, Southern",-27.664398,153.148047,Southern,1,Standard retailer,,go card,,,Buy,,,,,,
632,Published,Co-Op Bookshop GU Mt Gravatt,"Griffith Uni Mt Gravatt Campus, Messines Ridge Rd, Mount Gravatt, Brisbane South",-27.543289,153.052821,Brisbane South,1,Standard retailer,,go card,,,Buy,,,,,,
633,Published,Co-Op Bookshop QCM ,"Qld Conservatorium of Music, 140 Grey Street, South Brisbane, Brisbane South",-27.477569,153.021132,Brisbane South,1,Standard retailer,,go card,,,Buy,,,,,,
634,Published,UQ Lakes,"UQ Lakes Busway, Eleanor Schonell Bridge, St Lucia, Brisbane West",-27.498036,153.017093,Brisbane West,1,Standard retailer,,go card,,,Buy,Top up,,,,,
635,Archived,Russell Island News,"Shop 2 / 29 High Street, Russell Island, Southern",-27.648659,153.382003,Southern,1,Standard retailer,,go card,,,Buy,Top up,Change expiry date,,,,
636,Archived,Night Owl Palm Beach,"1160 Gold Coast Highway, Palm Beach, Gold Coast",-28.119505,153.471363,Gold Coast,1,Standard retailer,,go card,,,Buy,,,,,Airlie Beach,
637,Published,Chapel Hill News,"8/620 Moggill Rd, Chapel Hill, Brisbane West",-27.505594,152.960821,Brisbane West,1,Standard retailer,,go card,,,Buy,,,,,,
638,Published,Co-op Bookshop UQ Gatton,"Building 8123, Morrison Hall, Inner Ring Road, Gatton, Western",-27.555737,152.337285,Western,1,Standard retailer,,go card,,,Buy,,,,,,
639,Published,Co-op Bookshop UQ Ipswich,"Building 12, Room 108, Salisbury Road, Ipswich, Western",-27.628126,152.756307,Western,1,Standard retailer,,go card,,,Buy,,,,,,
640,Published,South Bank Visitor Centre,"South Bank House, Ground Floor, Stanley Street Plaza, South Bank, Brisbane Central",-27.47966,153.02326,Brisbane Central,1,Standard retailer,,go card,Visitor Information Pack,,Buy,,,,,,
641,Published,Nextra Capalaba Park News,"Capalaba Park Shopping Centre, Redland Bay Rd, Capalaba, Eastern",-27.524102,153.191099,Eastern,1,Standard retailer,,go card,,,Buy,Top up,Change expiry date,,,,
642,Published,Langlands Busway,"Cnr Old Cleveland Rd and Mains Road, Coorparoo, Brisbane East",-27.498635,153.050149,Brisbane East,1,Standard retailer,,go card,,,Buy,Top up,,,,,
643,Published,Stones Corner Busway,"Gladys Street, Coorparoo, Brisbane East",-27.497963,153.0452,Brisbane East,1,Standard retailer,,go card,,,Buy,Top up,,,,,
644,Published,7 Eleven Landmark Resort,"Shop 4 Landmark Resort, The Esplanade, Mooloolaba, Sunshine Coast",-26.680953,153.120477,Sunshine Coast,1,Standard retailer,,go card,,,Buy,Top up,Change expiry date,,,Sunshine Coast,
645,Published,Burstall Avenue News,"Belmont Shopping Plaza, Cnr Burstall Ave and Belmont Road, Belmont, Brisbane East",-27.484423,153.126052,Brisbane East,1,Standard retailer,,go card,,,Buy,Top up,Change expiry date,,,,
646,Published,Gold Coast Tourist Shuttle Desk,"Gold Coast Airport, Airport (Gold Coast - Coolangatta), Gold Coast",-28.16626,153.512886,Gold Coast,1,Standard retailer,"Refunds not available from this agent.  

Customers are able to apply for an EFT refund to an Australian bank account by filling in the 'go card guide to Balance Transfers and Refunds' Form available from the agent.",go card,Gold Coast go explore card,,Buy,Top up,Refund,Change expiry date,,Gold Coast,
647,Published,IGA East Brisbane,"33 Lytton Road, East Brisbane, Brisbane East",-27.47948,153.04446,Brisbane East,1,Standard retailer,,go card,,,Buy,Top up,Change expiry date,,,,
648,Published,NewsXpress Westpoint,"Westpoint Plaza, Browns Plains Road, Browns Plains, Brisbane South",-27.660573,153.040452,Brisbane South,1,Standard retailer,,go card,SEEQ card,Visitor Information Pack,Buy,Top up,Register,Refund,Change expiry date,Brisbane,
649,Published,Noosa Junction Bus Interchange,"Sunshine Beach Rd and Lanyana Way, Noosa Heads, Sunshine Coast",-26.399192,153.093399,Sunshine Coast,4,Bus fare machine,,go card,,,Buy,Top up,,,,,
650,Published,Alexpress Mart,"98-110 Alexandra Parade, Alexandra Headland, Sunshine Coast",-26.66553,153.105607,Sunshine Coast,1,Standard retailer,,go card,,,Buy,,,,,,
651,Archived,Noosa Plaza Newsagency,"Shop 3, Noosa Junction Plaza, Noosa Heads, Sunshine Coast",-26.39659,153.089624,Sunshine Coast,1,Standard retailer,,go card,,,Buy,,,,,Airlie Beach,
652,Published,NewsXpress Robina Town Centre,"Market Hall Robina Town Centre, Robina Town Centre Drive, Robina, Queensland, Australia",-28.077591,153.385406,Gold Coast,1,Standard retailer,,go card,Gold Coast go explore card,,Buy,Top up,Register,Refund,Change expiry date,Gold Coast,
653,Published,Terry White Chemist Bellbowrie,"Shop 29 Bellbowrie Shopping Plaza, Birkin Road, Bellbowrie, Brisbane west",-27.561953,152.886854,Brisbane west,1,Standard retailer,,go card,,,Buy,Top up,Change expiry date,,,,
654,Published,Nextra Mt Ommaney,"Mt Ommaney Shopping Centre, 171 Dandenong Road, Mount Ommaney, Brisbane West",-27.54897,152.938354,Brisbane West,1,Standard retailer,,go card,SEEQ card,Visitor Information Pack,Buy,Top up,Register,Refund,Change expiry date,Brisbane,
655,Published,Caloundra Newsagency,"72 Bulcock Street, Caloundra, Sunshine Coast",-26.80477,153.131188,Sunshine Coast,1,Standard retailer,,go card,SEEQ card,Visitor Information Pack,Buy,Top up,Register,Refund,Change expiry date,Brisbane,
656,Archived,NewsXpress Middle Park,"Shop 27-28 Park Village Shops, Middle Park, Brisbane West",-27.55529,152.923292,Brisbane West,1,Standard retailer,,go card,,,Buy,,,,,,
657,Archived,Samford Village Newsagency,"Cnr Main Street and Mary Ring Drive, Samford Village, Brisbane North",-27.372756,152.886495,Brisbane North,1,Standard retailer,,go card,,,Buy,,,,,,
658,Published,Pacific News and Casket,"4 Bulcock Street, Caloundra, Sunshine Coast",-26.804983,153.135425,Sunshine Coast,1,Standard retailer,,go card,,,Buy,,,,,,
659,Published,Lucky 7 Edward Street,"Shop 2, 160 Edward Street, Brisbane, Brisbane Central",-27.469461,153.027863,Brisbane Central,1,Standard retailer,,go card,,,Buy,,,,,,
660,Archived,Brook News and Casket,"Brookside Shopping Centre, Osborne Road, Mitchelton, Brisbane North",-27.409867,152.9788,Brisbane North,1,Standard retailer,,go card,,,Buy,,,,,,
661,Published,Wellington Point News,"Shop 2, 368 Main Road, Wellington Point, Eastern",-27.485334,153.237809,Eastern,1,Standard retailer,,go card,,,Buy,,,,,,
662,Published,Wellington Point Post Office,"Shop 3, 405 Main Road, Wellington Point, Eastern",-27.487198,153.238894,Eastern,1,Standard retailer,,go card,,,Buy,,,,,,
663,Published,Foodworks Heathwood,"137 Parkwood Drive, Heathwood, Brisbane West",-27.637003,152.986997,Brisbane West,1,Standard retailer,,go card,,,Buy,,,,,,
664,Published,Moorooka Foodstore and News,"419 Beaudesert Road, Moorooka, Brisbane South",-27.543033,153.020663,Brisbane South,1,Standard retailer,,go card,,,Buy,,,,,,
665,Archived,Lucky 7 Southport,"40 Nerang Street, Southport, Gold Coast",-27.967624,153.414542,Gold Coast,1,Standard retailer,,go card,,,Buy,,,,,Gold Coast,
666,Archived,Smilemart Southport,"99 Scarborough Street, Southport, Gold Coast",-27.966594,153.414091,Gold Coast,1,Standard retailer,,go card,,,Buy,,,,,Gold Coast,
667,Archived,Kingston News,"Kingston Palms Shopping Centre, Cnr Kingston Road and Juers Street, Kingston, Southern",-27.660306,153.117566,Southern,1,Standard retailer,,go card,,,Buy,,,,,Airlie Beach,
668,Published,Enoggera Newsagency,"Shop 2B, 318 Wardell Street, Enoggera, Brisbane North",-27.422652,152.990315,Brisbane North,1,Standard retailer,,go card,,,Buy,,,,,,
669,Published,Town Centre News,"Shop 56, Inala Plaza, 156 Inala Avenue, Inala, Brisbane West",-27.59889,152.97408,Brisbane West,1,Standard retailer,,go card,,,Buy,,,,,,
670,Published,NewsXpress Kawana,"Shop 353 Kawana Shopping World, Point Cartwright Drive, Kawana, Sunshine Coast",-26.70291,153.128403,Sunshine Coast,1,Standard retailer,,go card,SEEQ card,Visitor Information Pack,Buy,Top up,Register,Refund,Change expiry date,,
671,Published,Australia Fair News,"Shop G112 Australia Fair Shopping Centre, Marine Parade, Southport, Gold Coast",-27.968746,153.415815,Gold Coast,1,Standard retailer,,go card,Gold Coast go explore card,,Buy,Top up,Register,Refund,Change expiry date,Gold Coast,
672,Published,Matilda Broadbeach,"75 T.E. Peters Drive , Broadbeach, Gold Coast",-28.026559,153.420625,Gold Coast,1,Standard retailer,,go card,,,Buy,,,,,,
673,Published,Tweed Heads Information Centre,"Corner Wharf &amp; Bay Streets, Tweed Heads, Gold Coast",-28.171,153.543691,Gold Coast,1,Standard retailer,,go card,,,Buy,,,,,,
674,Archived,Surfers Paradise Newsagency,"Shop 11, 2 Elkhorn Avenue, Surfers Paradise, Gold Coast",-27.999278,153.430115,Gold Coast,1,Standard retailer,,go card,,,Buy,,,,,Airlie Beach,
675,Published,Campus Bookshop,"The Link Building (G07) Griffith University Gold Coast Campus , Southport, Gold Coast",-27.962054,153.379764,Gold Coast,1,Standard retailer,,go card,,,Buy,,,,,,
676,Published,Spar Express Eight Mile Plains,"5/218 Padstow Road, Eight Mile Plains, Brisbane South",-27.574419,153.087227,Brisbane South,1,Standard retailer,,go card,,,Buy,Top up,Change expiry date,,,,
677,Published,Brisbane Convenience Centre,"183 Ann Street, Brisbane, Brisbane Central",-27.467113,153.025228,Brisbane Central,1,Standard retailer,,go card,,,Buy,,,,,,
678,Archived,Metropolitan South Institute of TAFE - Browns Plains,"61 Grand Plaza Drive, Browns Plains, Brisbane South",-27.664773,153.04178,Brisbane South,1,Standard retailer,,go card,,,Buy,,,,,Airlie Beach,
679,Published,The Bread Basket,"132 Leicester Street, Camp Hill, Brisbane East",-27.497447,153.067783,Brisbane East,1,Standard retailer,,go card,,,Buy,,,,,,
680,Published,Chevron 7 Day Express Food Store,"46 Thomas Drive, Surfers Paradise, Gold Coast",-27.998069,153.419628,Gold Coast,2,Preloaded reseller,,go card,Gold Coast go explore card,,Buy,,,,,Gold Coast,
681,Published,Lytton Road News,"83 Lytton Road, East Brisbane, Brisbane East",-27.479865,153.046272,Brisbane East,1,Standard retailer,,go card,,,Buy,,,,,,
682,Published,NewsExtra Everton Park,"Shop 2/801 Stafford Road , Everton Park, Brisbane North",-27.406636,152.992052,Brisbane North,1,Standard retailer,,go card,,,Buy,,,,,,
683,Archived,Goodna Newsagency,"Shop 19B, 2 Smiths Road, Goodna, Western",-27.610074,152.897662,Western,1,Standard retailer,,go card,,,Buy,,,,,,
684,Archived,Noosa Visitor Information Centre,"61 Hastings Street, Noosa Heads, Sunshine Coast",-26.386766,153.091411,Sunshine Coast,1,Standard retailer,,go card,,,Buy,,,,,Airlie Beach,
685,Published,NewsXpress Redcliffe,"20 Anzac Avenue, Redcliffe, Northern",-27.230745,153.115212,Northern,1,Standard retailer,,go card,,,Buy,,,,,,
686,Archived,Shorncliffe News,"52 Pier Avenue, Shorncliffe, Brisbane North",-27.324331,153.08257,Brisbane North,1,Standard retailer,,go card,,,Buy,,,,,,
687,Archived,Circle News,"3184 Surfers Paradise Boulevards, Surfers Paradise, Gold Coast",-28.001165,153.426998,Gold Coast,1,Standard retailer,,go card,,,Buy,,,,,,
688,Published,David Low Way News,"Centro North Shore, David Low Way, Pacific Paradise, Sunshine Coast",-26.61413,153.083234,Sunshine Coast,1,Standard retailer,,go card,,,Buy,,,,,,
689,Published,Morningside News and Casket,"595 Wynnum Road, Morningside, Brisbane East",-27.468872,153.071304,Brisbane,2,Preloaded reseller,,go card,,,Buy,,,,,Brisbane,
690,Published,Warrigal Square News,"Warrigal Square Shopping Centre, 16/261 Warrigal Road, Eight Mile Plains, Brisbane South",-27.590132,153.084894,Brisbane South,1,Standard retailer,,go card,,,Buy,Top up,Change expiry date,,,,
691,Published,Oxford Street News,"134 Oxford Street, Bulimba, Brisbane South",-27.451,153.058,Brisbane South,1,Standard retailer,,go card,,,Buy,Top up,Change expiry date,,,,
692,Archived,IGA Express Alexandra Headlands,"Shop 1, 152 Alexandra Parade, Alexandra Headlands, Sunshine Coast",-26.668315,153.106435,Sunshine Coast,1,Standard retailer,,go card,,,Buy,,,,,Airlie Beach,
693,Published,Wirreanda News,"110 King Street, Buderim, Sunshine Coast",-26.682702,153.066338,Sunshine Coast,1,Standard retailer,,go card,,,Buy,,,,,Sunshine Coast,
694,Published,Macleay Island Post Office,"Shop 2, 36 Southsea Terrace, Macleay Island, Eastern",-27.629638,153.364813,Eastern,1,Standard retailer,,go card,,,Buy,,,,,,
695,Published,Nextra Garden City Upper Level,"Westfield Garden City (Upper level, near food court), Logan Road, Mount Gravatt, Brisbane South",-27.5641,153.082,Brisbane South,1,Standard retailer,,go card,SEEQ card,,Buy,Top up,Register,Refund,Change expiry date,Brisbane,
696,Published,Bay Island Transit Ticket Office,"Weinam Creek Marina, Banana St, Redland Bay, Eastern",-27.615168,153.308834,Eastern,1,Standard retailer,,go card,SEEQ card,,Buy,Top up,Refund,Change expiry date,,Moreton Bay,
697,Published,7-Eleven Adelaide Street,"47 - 59 Adelaide Street, Brisbane , Brisbane Central",-27.46957,153.023727,Brisbane Central,1,Standard retailer,,go card,,,Buy,Top up,Change expiry date,,,,
698,Archived,Broadbeach Central IGA,"2719 Gold Coast Highway, Broadbeach, Gold Coast",-28.02804,153.42991,Gold Coast,1,Standard retailer,,go card,,,Buy,,,,,Airlie Beach,
699,Archived,Friendly Grocer Crestmead,"5/13 Julie Street, Crestmead, Southern",-27.696258,153.083098,Southern,1,Standard retailer,,go card,,,Buy,,,,,Airlie Beach,
700,Published,Nextra Hyperdome,"Shop 128 Logan Hyperdome, Cnr Pacific Highway and Bryants Road, Loganholme, Southern",-27.6603,153.174,Southern,1,Standard retailer,,go card,SEEQ card,,Buy,Top up,Register,Refund,Change expiry date,,
701,Published,Ashmore City News,"Shop 10, Ashmore City Shopping Centre, Southport-Nerang and Currumburra Roads, Ashmore, Gold Coast",-27.977936,153.38047,Gold Coast,1,Standard retailer,,go card,,,Buy,,,,,,
702,Published,Eagle Junction News,"272 Junction Road, Eagle Junction, Brisbane North",-27.415092,153.050647,Brisbane North,1,Standard retailer,,go card,,,Buy,,,,,,
706,Published,Lucky 7 Broadwater,"5 Nind Street, Southport, Queensland, Australia",-27.963057,153.413301,Gold Coast,2,Preloaded reseller,,go card,Gold Coast go explore card,,Buy,,,,,Gold Coast,
711,Published,7 Eleven Wurtulla,"1 Piringa Street, Wurtulla, Queensland, Australia",-26.759023,153.125012,Sunshine Coast,1,Standard retailer,,go card,,,Buy,Top up,Change expiry date,,,,
716,Draft,7 Eleven Noosa,"Shop 4, 50 Hastings Street, Noosa Heads, Queensland, Australia",-26.387332,153.091644,Sunshine Coast,1,Standard retailer,,go card,,,Buy,Top up,Change expiry date,,,,
721,Published,North Lakes Bus Interchange,"Endeavour Boulevard and The Corso, North Lakes, Queensland, Australia",-27.238653,153.017466,Northern,4,Bus fare machine,,go card,,,Buy,Top up,,,,,
726,Published,Ascot News,"3/71 Racecourse Road, Ascot, Queensland, Australia",-27.436058,153.064916,Brisbane North,1,Standard retailer,,go card,,,Buy,,,,,Brisbane,
731,Published,NewsXpress Noosa Heads,"Shop 18, 20 Hastings Street, Noosa Heads, Queensland, Australia",-26.386933,153.089098,Sunshine Coast,2,Preloaded reseller,,go card,,,Buy,,,,,,
736,Published,Manly Harbour Newsagency,"Shop 12, 222 Stratton Terrace, Manly, Queensland, Australia",-27.454744,153.185659,Eastern,1,Standard retailer,,go card,,,Buy,,,,,Brisbane,
741,Published,Casino News,"131 George Street, Brisbane, Queensland, Australia",-27.472178,153.025012,Brisbane Central,1,Standard retailer,,go card,,,Buy,Top up,Change expiry date,,,,
746,Published,Quik-E-Mart,"2/412 Old Cleveland Road, Coorparoo, Queensland, Australia",-27.491928,153.06389,Brisbane East,1,Standard retailer,,go card,,,Buy,Top up,Change expiry date,,,,
751,Published,Lucky Dragon Newsagency,"Australia Fair, 42 Marine Parade, Southport, Queensland, Australia",-27.969082,153.415665,Gold Coast,2,Preloaded reseller,,go card,Gold Coast go explore card,,Buy,,,,,Gold Coast,
756,Published,Currumbin Creek Newsagency,"52 Currumbin Creek Road, Currumbin Waters, Queensland, Australia",-28.14411,153.472662,Gold Coast,1,Standard retailer,,go card,,,Buy,,,,,,
761,Published,NewsXpress Southport Park,"Shop 20, Southport Park Shopping Centre, Ferry Road, Southport, Queensland, Australia",-27.985951,153.410518,Gold Coast,2,Preloaded reseller,,go card,,,Buy,,,,,,
766,Published,Lucky 7 Scarborough Street Convenience,"Shop 3, 34 Scarborough Street, Southport, Queensland, Australia",-27.970686,153.414785,Gold Coast,2,Preloaded reseller,,go card,Gold Coast go explore card,,Buy,,,,,Gold Coast,
776,Published,NewsXpress North Lakes,"Lakefield Drive, North Lakes, Queensland, Australia",-27.238184,153.015968,Northern,2,Preloaded reseller,,go card,,,Buy,,,,,,
781,Published,Golden Beach News,"Shop 6, 46 Landsborough Parade, Golden Beach, Queensland, Australia",-26.821495,153.120058,Sunshine Coast,2,Preloaded reseller,,go card,,,Buy,,,,,,
786,Published,Russell Island Licensed Post Office,"69 High Street, Russell Island, Queensland, Australia",-27.651875,153.380854,,1,Standard retailer,,go card,,,Buy,Top up,Change expiry date,,,Moreton Bay,
791,Archived,Jetty Newsagency,"95 Redcliffe Parade, Redcliffe, Queensland, Australia",-27.227944,153.115019,Moreton Bay,2,Preloaded reseller,,go card,,,Buy,,,,,Moreton Bay,
796,Published,Lucky 7 Shores,"Shop 414, 1 Como Crescent, Southport, Queensland, Australia",-27.973923,153.418525,,2,Preloaded reseller,,go card,Gold Coast go explore card,,Buy,,,,,Gold Coast,
801,Published,Gold Coast Tourism Information Desk,"Gold Coast Airport, Eastern Avenue, Bilinga, Queensland, Australia",-28.165645,153.509074,,1,Standard retailer,,go card,Gold Coast go explore card,,Buy,Top up,Change expiry date,,,Gold Coast,
806,Published,Lucky Mermaid News & Gifts,"3/2453 Gold Coast Highway, Mermaid Beach, Queensland, Australia",-28.045714,153.435431,,2,Preloaded reseller,,go card,,,Buy,,,,,Gold Coast,
811,Published,Southport RSL,"36 Scarborough Street, Southport, Queensland, Australia",-27.970573,153.414436,,2,Preloaded reseller,,go card,,,Buy,,,,,Gold Coast,
816,Published,Beaudesert News,"97 Brisbane Street, Beaudesert, Queensland, Australia",-27.98768,152.995942,,1,Standard retailer,,go card,,,Buy,,,,,Brisbane,
821,Published,Maroochydore Bus Station,"Horton Parade, Maroochydore, Queensland, Australia",-26.654875,153.091151,,4,Bus fare machine,,go card,,,Buy,,,,,Sunshine Coast,
836,Published,Nerang Street tram station,"Corner Nerang Street and Cougal Street, Southport, Queensland, Australia",-27.971077,153.407677,,1,Standard retailer,,go card,,,Buy,Top up,,,,Gold Coast,
841,Published,Southport tram station,"Corner Nerang Street and Scarborough Street, Southport, Queensland, Australia",-27.967446,153.414237,,1,Standard retailer,,go card,,,Buy,Top up,,,,Gold Coast,
846,Published,Southport South tram station,"Corner Scarborough Street and Queen Street, Southport, Queensland, Australia",-27.973236,153.415717,,1,Standard retailer,,go card,,,Buy,Top up,,,,Gold Coast,
851,Published,Queen Street tram station,"Corner Wardoo Street and Queen Street, Southport, Queensland, Australia",-27.970143,153.393909,,1,Standard retailer,,go card,,,Buy,Top up,,,,Gold Coast,
856,Published,7-Eleven Pegasus,"2669 Gold Coast Highway, Broadbeach, Queensland, Australia",-28.031868,153.430727,,1,Standard retailer,,go card,Gold Coast go explore card,,Buy,Top up,Change expiry date,,,Gold Coast,
861,Published,7-Eleven Pacific Pines,"31 Pitcairn Way, Pacific Pines, Queensland, Australia",-27.946272,153.321239,,1,Standard retailer,,go card,Gold Coast go explore card,,Buy,Top up,Change expiry date,,,Gold Coast,
866,Published,7-Eleven Main Beach,"3568 Main Beach Parade, Main Beach, Queensland, Australia",-27.979743,153.42891,,1,Standard retailer,,go card,Gold Coast go explore card,,Buy,Top up,Change expiry date,,,Gold Coast,
871,Published,7-Eleven Coolangatta South,"Reflection Tower Two, Marine Parade, Coolangatta, Queensland, Australia",-28.168261,153.541951,,1,Standard retailer,,go card,Gold Coast go explore card,,Buy,Top up,Change expiry date,,,Gold Coast,
876,Published,Griffith University tram station,"Corner Parklands Drive and Engineering Drive, Southport, Queensland, Australia",-27.962972,153.384389,,1,Standard retailer,,go card,,,Buy,Top up,,,,Gold Coast,
881,Published,7-Eleven Tweed Heads South,"112 Minjungbal Drive, Tweed Heads South, New South Wales, Australia",-28.207807,153.545211,,1,Standard retailer,,go card,Gold Coast go explore card,,Buy,Top up,Change expiry date,,,Gold Coast,
886,Published,Gold Coast University Hospital tram station,"Corner Parklands Drive and University Drive, Southport, Queensland, Australia",-27.96055,153.380514,,1,Standard retailer,,go card,,,Buy,Top up,,,,Gold Coast,
891,Published,Main Beach tram station,"Corner Gold Coast Highway and Tedder Avenue, Main Beach, Queensland, Australia",-27.9821,153.423886,,1,Standard retailer,,go card,,,Buy,Top up,,,,Gold Coast,
896,Published,7-Eleven Runaway Bay,"20 Bayview Street, Runaway Bay, Queensland, Australia",-27.923565,153.403764,,1,Standard retailer,,go card,Gold Coast go explore card,,Buy,Top up,Change expiry date,,,Gold Coast,
901,Published,Surfers Paradise North tram station,"Corner Surfers Paradise Bouelvard and Ocean Avenue, Surfers Paradise, Queensland, Australia",-27.993316,153.429371,,1,Standard retailer,,go card,,,Buy,Top up,,,,Gold Coast,
911,Published,7-Eleven Broadbeach,"34 Hooker Boulevard, Broadbeach, Queensland, Australia",-28.035402,153.425076,,1,Standard retailer,,go card,Gold Coast go explore card,,Buy,Top up,Change expiry date,,,Gold Coast,
916,Published,Surfers Paradise tram station,"Corner Surfers Paradise Boulevard and Clifford Street, Surfers Paradise, Queensland, Australia",-28.005792,153.428966,,1,Standard retailer,,go card,,,Buy,Top up,,,,Gold Coast,
921,Published,7-Eleven Robina,"48-56 Commerce Drive, Robina, Queensland, Australia",-28.065476,153.403905,,1,Standard retailer,,go card,Gold Coast go explore card,,Buy,Top up,Change expiry date,,,Gold Coast,
926,Published,Northcliffe tram station,"Corner Surfers Paradise Boulevard and Vista Street, Surfers Paradise, Queensland, Australia",-28.009639,153.42946,,1,Standard retailer,,go card,,,Buy,Top up,,,,Gold Coast,
931,Published,Florida Gardens tram station,"Corner Gold Coast Highway and Monaco Street, Surfers Paradise, Queensland, Australia",-28.017705,153.429349,,1,Standard retailer,,go card,,,Buy,Top up,,,,Gold Coast,
936,Published,7-Eleven Nerang,"70 Beaudesert-Nerang Road, Nerang, Queensland, Australia",-27.993062,153.333025,,1,Standard retailer,,go card,Gold Coast go explore card,,Buy,Top up,Change expiry date,,,Gold Coast,
941,Published,Broadbeach North Tram Station,"Corner Gold Coast Highway and Queensland Avenue, Broadbeach, Queensland, Australia",-28.028599,153.429787,,5,Rail fare machine,,go card,,,Buy,Top up,,,,Gold Coast,
946,Published,Broadbeach South Tram Station,"Corner Gold Coast Highway and Hooker Boulevard, Broadbeach, Queensland, Australia",-28.035763,153.431112,,5,Rail fare machine,,go card,,,Buy,Top up,,,,Gold Coast,
951,Published,Broadwater Parklands Tram Station,"Corner Queen Street and Ada Bell Way, Southport, Queensland, Australia",-27.97349,153.418964,,5,Rail fare machine,,go card,,,Buy,,,,,Gold Coast,
956,Published,Cypress Avenue tram station,"Corner Surfers Paradise Boulevard and Cypress Avenue, Surfers Paradise, Queensland, Australia",-27.996461,153.427522,,1,Standard retailer,,go card,,,Buy,Top up,,,,Gold Coast,
961,Published,7-Eleven Ashmore,"579 Ashmore Road, Molendinar, Queensland, Australia",-27.984646,153.365587,,1,Standard retailer,,go card,Gold Coast go explore card,,Buy,Top up,Change expiry date,,,Gold Coast,
966,Published,7-Eleven Southport,"138 Slatyer Avenue, Ashmore, Queensland, Australia",-27.996317,153.39985,,1,Standard retailer,,go card,Gold Coast go explore card,,Buy,Top up,Change expiry date,,,Gold Coast,
971,Published,7-Eleven Coomera,"Dreamworld Parkway, Coomera, Queensland, Australia",-27.868739,153.314545,,1,Standard retailer,,go card,Gold Coast go explore card,,Buy,Top up,Change expiry date,,,Gold Coast,
976,Published,7-Eleven Hope Island,"87-91 Broadwater Avenue, Hope Island, Queensland, Australia",-27.878307,153.365036,,1,Standard retailer,,go card,Gold Coast go explore card,,Buy,Top up,Change expiry date,,,Gold Coast,
981,Published,7-Eleven Robina,"253 Scottsdale Drive, Robina, Queensland, Australia",-28.090215,153.390741,,1,Standard retailer,,go card,Gold Coast go explore card,,Buy,Top up,Change expiry date,,,Gold Coast,
986,Published,7-Eleven Palm Beach,"1186 Gold Coast Highway, Palm Beach, Queensland, Australia",-28.118114,153.47051,,1,Standard retailer,,go card,Gold Coast go explore card,,Buy,Top up,Change expiry date,,,Gold Coast,
991,Published,7-Eleven Burleigh Central,"11 Connor Street, Burleigh Heads, Queensland, Australia",-28.088982,153.451783,,1,Standard retailer,,go card,Gold Coast go explore card,,Buy,Top up,Change expiry date,,,Gold Coast,
996,Published,7-Eleven Surfers Paradise,"3187 Surfers Paradise Boulevard, Surfers Paradise, Queensland, Australia",-27.999151,153.428591,,1,Standard retailer,,go card,Gold Coast go explore card,,Buy,Top up,Change expiry date,,,Gold Coast,
1001,Published,Pit Stop News and Supermarket,"31 Aubrey Street, Surfers Paradise, Queensland, Australia",-28.011257,153.429921,,2,Preloaded reseller,,go card,Gold Coast go explore card,,Buy,,,,,Gold Coast,
1006,Published,Aquarius Backpackers,"44 Queen Street, Southport, Queensland, Australia",-27.973494,153.415458,,2,Preloaded reseller,,Gold Coast go explore card,,,Buy,,,,,Gold Coast,
1011,Published,Bay Lodge Apartments,"35 Palm Avenue, Surfers Paradise, Queensland, Australia",-27.995222,153.426284,,2,Preloaded reseller,,Gold Coast go explore card,,,Buy,,,,,Gold Coast,
1016,Published,Breakfree Morrocan,"14 View Avenue, Surfers Paradise, Queensland, Australia",-27.997806,153.429731,,2,Preloaded reseller,,Gold Coast go explore card,,,Buy,,,,,Gold Coast,
1021,Published,Centrepoint Apartments,"67 Ferny Avenue, Surfers Paradise, Queensland, Australia",-27.998162,153.427801,,2,Preloaded reseller,,Gold Coast go explore card,,,Buy,,,,,Gold Coast,
1026,Published,Chevron Towers Tour Desk,"23 Ferny Avenue, Surfers Paradise, Queensland, Australia",-27.999546,153.427723,,2,Preloaded reseller,,Gold Coast go explore card,,,Buy,,,,,Gold Coast,
1031,Published,Karana Palms Resort,"40-42 Tarcoola Crescent, Surfers Paradise, Queensland, Australia",-27.999348,153.423854,,2,Preloaded reseller,,Gold Coast go explore card,,,Buy,,,,,Gold Coast,
1036,Published,Mantra Broadbeach on the Park,"2685 Gold Coast Highway, Broadbeach, Queensland, Australia",-28.030702,153.430424,,2,Preloaded reseller,,Gold Coast go explore card,,,Buy,,,,,Gold Coast,
1041,Published,Mantra Sun City,"Ocean Avenue, Surfers Paradise, Queensland, Australia",-27.993107,153.428985,,1,Standard retailer,,Gold Coast go explore card,,,Buy,,,,,Gold Coast,
1046,Published,Mari Court Resort,"23 Wharf Road, Surfers Paradise, Queensland, Australia",-28.015495,153.430599,,2,Preloaded reseller,,Gold Coast go explore card,,,Buy,,,,,Gold Coast,
1051,Published,Neptune Resort,"32 Surf Parade, Broadbeach, Queensland, Australia",-28.033787,153.431294,,2,Preloaded reseller,,Gold Coast go explore card,,,Buy,,,,,Gold Coast,
1056,Published,Outrigger Twin Towns Resort,"Griffith Street, Coolangatta, Queensland, Australia",-28.169044,153.542908,,2,Preloaded reseller,,Gold Coast go explore card,,,Buy,,,,,Gold Coast,
1061,Published,Platform Tours at Marriott Resort & Spa,"158 Ferny Avenue, Surfers Paradise, Queensland, Australia",-27.991322,153.428026,,2,Preloaded reseller,,Gold Coast go explore card,,,Buy,,,,,Gold Coast,
1066,Published,Seacrest Apartments,"3448 Main Beach Parade, Surfers Paradise, Queensland, Australia",-27.99073,153.429379,,2,Preloaded reseller,,Gold Coast go explore card,,,Buy,,,,,Gold Coast,
1071,Published,Surfers Paradise Backpackers Resort,"2837 Gold Coast Highway, Surfers Paradise, Queensland, Australia",-28.016302,153.429275,,2,Preloaded reseller,,Gold Coast go explore card,,,Buy,,,,,Gold Coast,
1076,Published,The Islander,"3128 Surfers Paradise Boulevard, Surfers Paradise, Queensland, Australia",-28.003255,153.428659,,2,Preloaded reseller,,Gold Coast go explore card,,,Buy,,,,,Gold Coast,
1081,Published,Watermark Hotel & Spa,"3032 Surfers Paradise Boulevard, Surfers Paradise, Queensland, Australia",-28.006013,153.428721,,2,Preloaded reseller,,Gold Coast go explore card,,,Buy,,,,,Gold Coast,
1086,Published,Baronnet Apartments,"12 Enderley Avenue, Surfers Paradise, Queensland, Australia",-28.009103,153.430639,,2,Preloaded reseller,,Gold Coast go explore card,,,Buy,,,,,Gold Coast,
1091,Published,Breakfree Acapulco,"2 Thornton Street, Surfers Paradise, Queensland, Australia",-28.010543,153.431904,,2,Preloaded reseller,,Gold Coast go explore card,,,Change expiry date,,,,,Gold Coast,
1096,Published,Breakfree Beachpoint,"Staghorn Avenue and The Esplanade, Surfers Paradise, Queensland, Australia",-27.995515,153.430342,,2,Preloaded reseller,,Gold Coast go explore card,,,Buy,,,,,Gold Coast,
1101,Published,Breakfree Cosmpolitan,"3142 Surfers Paradise Boulevard, Surfers Paradise, Queensland, Australia",-28.003255,153.428659,,2,Preloaded reseller,,Gold Coast go explore card,,,Buy,,,,,Gold Coast,
1106,Published,Breakfree Diamond Beach,"10-16 Alexandra Avenue, Mermaid Beach, Queensland, Australia",-28.036277,153.434403,,2,Preloaded reseller,,Gold Coast go explore card,,,Buy,,,,,Gold Coast,
1111,Published,Breakfree Longbeach,"28 Northcliffe Terrace, Surfers Paradise, Queensland, Australia",-28.00749,153.430861,,2,Preloaded reseller,,Gold Coast go explore card,,,Buy,,,,,Gold Coast,
1116,Published,Chevron Palms,"48 - 54 Stanhill Drive, Surfers Paradise, Queensland, Australia",-27.997265,153.422847,,2,Preloaded reseller,,Gold Coast go explore card,,,Buy,,,,,Gold Coast,
1121,Published,Crown Towers Resort,"5-19 Palm Avenue, Surfers Paradise, Queensland, Australia",-27.995758,153.427978,,2,Preloaded reseller,,Gold Coast go explore card,,,Buy,,,,,Gold Coast,
1126,Published,Hi Surf Apartments,"150 The Esplanade, Burleigh Heads, Queensland, Australia",-28.080915,153.448477,,2,Preloaded reseller,,Gold Coast go explore card,,,Buy,,,,,Gold Coast,
1131,Published,Markham Court,"36 Australia Avenue, Broadbeach, Queensland, Australia",-28.024987,153.43078,,2,Preloaded reseller,,Gold Coast go explore card,,,Buy,,,,,Gold Coast,
1136,Published,Pacific Views Resort,"Main Beach Parade, Main Beach, Queensland, Australia",-27.982328,153.429105,,2,Preloaded reseller,,Gold Coast go explore card,,,Buy,,,,,Gold Coast,
1141,Published,Q1 Tour Desk,"9 Hamilton Avenue, Surfers Paradise, Queensland, Australia",-28.006307,153.429727,,2,Preloaded reseller,,Gold Coast go explore card,,,Buy,,,,,Gold Coast,
1146,Published,Surfers Aquarius,"4 Old Burleigh Road, Surfers Paradise, Queensland, Australia",-28.013906,153.432548,,2,Preloaded reseller,,Gold Coast go explore card,,,Buy,,,,,Gold Coast,
1156,Published,The Crest Apartments,"15 Breaker Street, Main Beach, Queensland, Australia",-27.981359,153.426897,,2,Preloaded reseller,,Gold Coast go explore card,,,Buy,,,,,Gold Coast,
1161,Published,Ticketmates Harbour Town,"Oxley Drive, Biggera Waters, Queensland, Australia",-27.931162,153.387762,,2,Preloaded reseller,,Gold Coast go explore card,,,Buy,,,,,Gold Coast,
1166,Published,Ashmore Newsextra,"160 Cotlew Street, Ashmore, Queensland, Australia",-27.9871,153.383257,,2,Preloaded reseller,,go card,Gold Coast go explore card,,Buy,,,,,Gold Coast,
1171,Archived,The Greener Grocer,"15/19 Via Roma, Surfers Paradise, Queensland, Australia",-28.012158,153.423689,,2,Preloaded reseller,,go card,Gold Coast go explore card,,Buy,,,,,Gold Coast,
1176,Published,Newsxpress Coomera,"133 Finnegan Way, Coomera, Queensland, Australia",-27.84369,153.32816,,2,Preloaded reseller,,go card,Gold Coast go explore card,,Buy,,,,,Gold Coast,
1181,Published,Foodworks Jindalee,"Shop 1, 66 Curragundi Road, Jindalee, Queensland, Australia",-27.53513,152.935947,,2,Preloaded reseller,,go card,,,Buy,,,,,Brisbane,
1186,Published,Night Owl North Lakes,"Shop 1, 3 College Street, North Lakes, Queensland, Australia",-27.232057,153.022332,,2,Preloaded reseller,,go card,,,Buy,,,,,Brisbane,
1191,Published,Night Owl Stones Corner,"476 Logan Road, Greenslopes, Queensland, Australia",-27.503265,153.04764,,2,Preloaded reseller,,go card,,,Buy,,,,,Brisbane,
1196,Published,Night Owl Boondall,"1968 Sandgate Road, Boondall, Queensland, Australia",-27.363933,153.061561,,2,Preloaded reseller,,go card,,,Buy,,,,,Brisbane,
1201,Published,Nextra Riverlink News,"Riverlink Shopping Centre, North Ipswich, Queensland, Australia",-27.608385,152.759836,,2,Preloaded reseller,,go card,,,Buy,,,,,Ipswich,
1206,Published,Surf Parade Resort,"210 Surf Parade, Surfers Paradise, Queensland, Australia",-28.016508,153.431211,,2,Preloaded reseller,,go card,Gold Coast go explore card,,Buy,,,,,Gold Coast,
1211,Published,Newtons Newsagency,"49 Wharf Street, Tweed Heads, New South Wales, Australia",-28.171647,153.542848,,2,Preloaded reseller,,go card,,,Buy,,,,,Gold Coast,
1216,Published,Night Owl Mermaid Beach,"2375 Gold Coast Highway, Mermaid Beach, Queensland, Australia",-28.049584,153.436301,,2,Preloaded reseller,,go card,Gold Coast go explore card,,Buy,,,,,Gold Coast,
1221,Published,Night Owl Robina,"Easy T Shopping Centre, Scottsdale Drive & Christine Avenue, Robina, Queensland, Australia",-28.084951,153.391622,,2,Preloaded reseller,,go card,Gold Coast go explore card,,Buy,,,,,Gold Coast,
1226,Archived,Night Owl Southport,"201 Ferry Road, Southport, Queensland, Australia",-27.989739,153.412273,Gold Coast,2,Preloaded reseller,,go card,Gold Coast go explore card,,Buy,,,,,Gold Coast,
1231,Published,Night Owl Surfers South,"3031 Gold Coast Highway, Surfers Paradise, Queensland, Australia",-28.005486,153.429112,,2,Preloaded reseller,,go card,Gold Coast go explore card,,Buy,,,,,Gold Coast,
1236,Published,Surfers Plaza Resort,"70 Remembrance Drive, Surfers Paradise, Queensland, Australia",-28.003694,153.426351,,2,Preloaded reseller,,go card,Gold Coast go explore card,,Buy,,,,,Gold Coast,
1241,Published,Cavill Avenue Tram Station,"Corner Surfers Paradise Boulevard and Cavill Avenue, Surfers Paradise, Queensland, Australia",-28.001657,153.428313,,5,Rail fare machine,,go card,,,Buy,Top up,,,,Gold Coast,
1246,Published,7-Eleven Ashgrove,"268 Waterworks Road, Ashgrove, Queensland, Australia",-27.446136,152.990995,,1,Standard retailer,,,,,,,,,,Brisbane,
1251,Published,7-Eleven Aspley,"1429 Gympie Road, Aspley, Queensland, Australia",-27.358375,153.017324,,1,Standard retailer,,,,,,,,,,Brisbane,
1256,Published,7-Eleven Bellbird Park,"354 Redbank Plains Road, Bellbird Park, Queensland, Australia",-27.645243,152.872206,,1,Standard retailer,,,,,,,,,,Brisbane,
1261,Published,7-Eleven Browns Plains,"267-273 Browns Plains Road, Crestmead, Queensland, Australia",-27.664117,153.061427,,1,Standard retailer,,,,,,,,,,Brisbane,
1266,Published,7-Eleven Coolum,"1796-1800 David Low Way, Coolum Beach, Queensland, Australia",-26.529825,153.090858,,1,Standard retailer,,,,,,,,,,Sunshine Coast,
1271,Published,7-Eleven Eatons Hill,"2-4 Bunya Park Drive, Eatons Hill, Queensland, Australia",-27.337817,152.96021,,1,Standard retailer,,,,,,,,,,Brisbane,
1276,Published,7-Eleven Brunswick Street Mall,"281 Brunswick Street, Fortitude Valley, Queensland, Australia",-27.457771,153.033842,,1,Standard retailer,,,,,,,,,,Brisbane,
1281,Published,7-Eleven Valley Metro,"230 Brunswick Street, Fortitude Valley, Queensland, Australia",-27.45679,153.033095,,1,Standard retailer,,,,,,,,,,Brisbane,
1286,Published,7-Eleven Gaven,"1 Binstead Way, Pacific Pines, Queensland, Australia",-27.926171,153.323605,,1,Standard retailer,,,,,,,,,,Brisbane,
1291,Published,7-Eleven Greenslopes,"99 Juliette Street and Earl Street, Greenslopes, Queensland, Australia",-27.504502,153.040492,,1,Standard retailer,,,,,,,,,,Brisbane,
1296,Published,7-Eleven Marsden,"Tamarind Street, Marsden, Queensland, Australia",-27.680633,153.11473,,1,Standard retailer,,,,,,,,,,Brisbane,
1301,Published,7-Eleven Sanctuary Cove,"87-91 Broadwater Avenue, Hope Island, Queensland, Australia",-27.878122,153.366608,,1,Standard retailer,,,,,,,,,,Gold Coast,
1306,Published,7-Eleven Moorvale,"841 Ipswich Road, Moorooka, Queensland, Australia",-27.523933,153.02343,,1,Standard retailer,,,,,,,,,,Brisbane,
1311,Published,7-Eleven Mt Gravatt East,"318 Creek Road, Mount Gravatt East, Queensland, Australia",-27.531895,153.09351,,1,Standard retailer,,,,,,,,,,Brisbane,
1316,Published,7-Eleven Lytton Road,"887 Lytton Road, Murarrie, Queensland, Australia",-27.456767,153.105673,,1,Standard retailer,,,,,,,,,,Brisbane,
1321,Published,7-Eleven Nambour,"922 Nambour Connection Road, Nambour, Queensland, Australia",-26.616492,152.969461,,1,Standard retailer,,,,,,,,,,Sunshine Coast,
1326,Published,7-Eleven Newmarket,"85 Enoggera Road, Newmarket, Queensland, Australia",-27.438633,153.007559,,1,Standard retailer,,,,,,,,,,Brisbane,
1331,Published,7-Eleven Ningi,"1102 Bribie Island Road, Ningi, Queensland, Australia",-27.061943,153.079498,,1,Standard retailer,,,,,,,,,,Redlands,
1336,Published,7-Eleven Raceview,"59-63 Raceview Street, Raceview, Queensland, Australia",-27.634837,152.774425,,1,Standard retailer,,,,,,,,,,Gold Coast,
1341,Published,7-eleven Red Hill,"152 Musgrave Road, Red Hill, Queensland, Australia",-27.455465,153.006742,,1,Standard retailer,,,,,,,,,,Brisbane,
1346,Published,7-Eleven Rangeville,"85 Perth Street, South Toowoomba, Queensland, Australia",-27.57471,151.968969,,1,Standard retailer,,,,,,,,,,Toowoomba,
1351,Published,7-Eleven Richlands,"208 Progress Road, Richlands, Queensland, Australia",-27.597943,152.949775,,1,Standard retailer,,,,,,,,,,Brisbane,
1356,Published,7-Eleven Sandgate,"86 Rainbow Street, Sandgate, Queensland, Australia",-27.32111,153.068175,Brisbane,1,Standard retailer,,,,,,,,,,Brisbane,
1361,Published,7-Eleven Springwood,"Cinderella Drive, Springwood, Queensland, Australia",-27.60946,153.124547,,1,Standard retailer,,,,,,,,,,Logan,
1366,Published,7-Eleven Strathpine,"Strathpine Shopping Centre, Strathpine, Queensland, Australia",-27.307691,152.990456,,1,Standard retailer,,,,,,,,,,Brisbane,
1371,Published,7-Eleven The Gap,"1121 Waterworks Road, The Gap, Queensland, Australia",-27.44285,152.943656,,1,Standard retailer,,,,,,,,,,Brisbane,
1376,Published,7-Eleven Toowoomba,"328 - 330 James Street, South Toowoomba, Queensland, Australia",-27.566231,151.930743,,1,Standard retailer,,,,,,,,,,Brisbane,
1381,Published,7-Eleven Toowoomba East,"221 Ruthven Street, North Toowoomba, Queensland, Australia",-27.550683,151.954786,,1,Standard retailer,,,,,,,,,,Toowoomba,
1386,Published,7-Eleven Victoria Point,"439 Cleveland-Redland Bay Road, Thornlands, Queensland, Australia",-27.584466,153.280957,,1,Standard retailer,,,,,,,,,,Redlands,
1391,Published,7-Eleven Warner,"Old North Road, Warner, Queensland, Australia",-27.310447,152.962742,,1,Standard retailer,,,,,,,,,,Brisbane,
1396,Published,7-Eleven Vulture Street,"82 Vulture Street, West End, Queensland, Australia",-27.48086,153.01192,,1,Standard retailer,,,,,,,,,,Brisbane,
1401,Published,7-Eleven Woodridge,"Kingston Road, Slacks Creek, Queensland, Australia",-27.620445,153.115424,,1,Standard retailer,,,,,,,,,,Brisbane,
1406,Published,Lucky 7 Circle,"3184 Surfers Paradise Boulevard, Surfers Paradise, Queensland, Australia",-28.000986,153.42705,,2,Preloaded reseller,,,,,,,,,,Gold Coast,
1411,Published,SPC Mini Mart,"56 Scarborough Street, Southport, Queensland, Australia",-27.970411,153.412793,,1,Standard retailer,,,,,,,,,,Gold Coast,
1416,Published,JTB Lounge,"3191 Surfers Paradise Boulevard, Surfers Paradise, Queensland, Australia",-27.999085,153.428729,,2,Preloaded reseller,,,,,,,,,,Gold Coast,
1421,Archived,Woolloongabba Post Shop,"8B/803 Stanley Street, Woolloongabba, Queensland, Australia",-27.486614,153.035526,Brisbane,2,Preloaded reseller,,,,,,,,,,Brisbane,
1426,Archived,Russell Island Pharmacy,"29 High Street, Russell Island, Queensland, Australia",-27.648638,153.381709,,2,Preloaded reseller,,,,,,,,,,Redlands,
1431,Published,Camp Hill Newsagency,"569 Old Cleveland Road, Camp Hill, Queensland, Australia",-27.492889,153.075345,,1,Standard retailer,,,,,,,,,,Brisbane,
1436,Published,Holland Park Newsagency,"1/109 Seville Road, Holland Park, Queensland, Australia",-27.521484,153.074011,Brisbane,1,Standard retailer,,,,,,,,,,Brisbane,
1441,Published,Nextra Carindale City News,"Lower Level, Westfield Carindale, Creek Road, Carindale, Queensland, Australia",-27.502998,153.101627,,1,Standard retailer,,,,,,,,,,Brisbane,
1446,Published,Norman Park Central News,"1/183 Bennetts Road, Morningside, Queensland, Australia",-27.483568,153.064402,,1,Standard retailer,,,,,,,,,,Brisbane,
1451,Published,News Bulletin,"6/75 Braun Street, Deagon, Queensland, Australia",-27.330283,153.057646,,1,Standard retailer,,,,,,,,,,Brisbane,
1456,Published,Rochedale News,"549 Underwood Road, Rochedale South, Queensland, Australia",-27.595882,153.124881,,1,Standard retailer,,,,,,,,,,Brisbane,
1461,Published,Nextra Browns Plains,"Grand Plaza Shopping Centre, Browns Plains Road, Browns Plains, Queensland, Australia",-27.662644,153.040967,,1,Standard retailer,,,,,,,,,,Brisbane,
1466,Published,Margate News and Casket,"270 Oxley Avenue, Margate, Queensland, Australia",-27.244551,153.107871,,2,Preloaded reseller,,,,,,,,,,Brisbane,
1471,Published,Colonial Village 4 Espresso,"351 Beams Road, Taigum, Queensland, Australia",-27.349545,153.041259,,2,Preloaded reseller,,,,,,,,,,Brisbane,
1476,Published,Nextra Express Chermside,"Westfield Chermside, Hamilton Road, Chermside, Queensland, Australia",-27.384486,153.032094,,1,Standard retailer,,,,,,,,,,Brisbane,
1481,Published,Metro News On 1st (Level 1),"Indooroopilly Shopping Centre, Moggill Road, Indooroopilly, Queensland, Australia",-27.499652,152.972679,,1,Standard retailer,,,,,,,,,,Brisbane,
1486,Published,Pinkeys Convenience Store,"17 Zillman Road, Hendra, Queensland, Australia",-27.422296,153.063761,,1,Standard retailer,,,,,,,,,,Brisbane,
1491,Published,Tanah Merah News and Casket,"Cnr Drews and Clarks Road, Loganholme, Queensland, Australia",-27.690521,153.177819,,1,Standard retailer,,,,,,,,,,Logan,
1496,Archived,Main Beach News and Supermarket,"19 Tedder Avenue, Main Beach, Queensland, Australia",-27.979344,153.424967,Gold Coast,1,Standard retailer,,,,,,,,,,Gold Coast,
1501,Published,Nextra Booval,"Booval Fair, Brisbane Road, Booval, Queensland, Australia",-27.61511,152.789748,,1,Standard retailer,,,,,,,,,,Ipswich,
1506,Published,Kallangur News,"1406 Anzac Avenue, Kallangur, Queensland, Australia",-27.250229,152.993461,,1,Standard retailer,,,,,,,,,,Brisbane,
1511,Published,The Gap Park and Ride,"1371 Waterworks Road, The Gap, Queensland, Australia",-27.445599,152.930148,,4,Bus fare machine,,,,,,,,,,Brisbane,
1516,Published,Redcliffe Bus Station,"Humpybong Esplanade, Redcliffe, Queensland, Australia",-27.225499,153.11427,,4,Bus fare machine,,,,,,,,,,Redlands,
1521,Draft,Kawana Bus Station,"Point Cartwright Drive, Buddina, Queensland, Australia",-26.703187,153.129027,,4,Bus fare machine,,,,,,,,,,Sunshine Coast,
1526,Draft,University of Sunshine Coast Bus Station,"Sippy Downs Drive, Sippy Downs, Queensland, Australia",-26.718545,153.061919,,4,Bus fare machine,,,,,,,,,,Sunshine Coast,
1531,Published,Campus Book Shop,"Building G.40, Griffith University Gold Coast Campus, Parklands Drive, Southport, Queensland, Australia",-27.962918,153.380708,,2,Preloaded reseller,,,,,,,,,,Gold Coast,
1536,Published,Foodworks Wishart,"590 Mount Gravatt-Capalaba Road, Wishart, Queensland, 4122, Australia",-27.549068,153.106621,,1,Standard retailer,,,,,,,,,,Brisbane,
1541,Published,Broadbeach Oasis News ,"Victoria Avenue, Broadbeach, Queensland, Australia",-28.029567,153.432791,,2,Preloaded reseller,,,,,,,,,,Gold Coast,
1551,Archived,Quikstop Minimart & News,"Hospital Boulevard, Southport, Queensland, Australia",-27.959043,153.381172,Gold Coast,2,Preloaded reseller,,,,,,,,,,Gold Coast,
1556,Published,Kenmore Tavern Plaza News,"4/841 Moggill Road, Kenmore, Queensland, Australia",-27.506749,152.948024,,2,Preloaded reseller,,,,,,,,,,Brisbane,
1561,Published,Visitor Information Centre (Regent Theatre),"167 Queen Street, Brisbane, Queensland, Australia",-27.469414,153.026006,,1,Standard retailer,EFTPOS Sales only - VISA and MasterCard accepted.,,,,,,,,,Brisbane,
1566,Published,7 Eleven Maudsland,"141 Maudsland Road, Oxenford, Queensland, Australia",-27.913145,153.282808,,1,Standard retailer,,,,,,,,,,Gold Coast,
1571,Published,7 Eleven North Lakes,"Flinders Parade, North Lakes, Queensland, Australia",-27.220542,152.999797,,1,Standard retailer,,,,,,,,,,Moreton Bay,
1576,Published,7 Eleven Gaven,"1 Binstead Way, Pacific Pines, Queensland, Australia",-27.926,153.323755,Gold Coast,1,Standard retailer,,,,,,,,,,Gold Coast,
1581,Draft,7 Eleven Oxley,"2208 Ipswich Road, Oxley, Queensland, Australia",-27.567043,152.979294,Brisbane,1,Standard retailer,,,,,,,,,,Brisbane,
1586,Draft,Surfers Paradise Cruise Terminal,Under Moorings Building Cnr Cavill & Ferny Ave ,0,0,,2,Preloaded reseller,,,,,,,,,,Gold Coast,
1591,Published,Surfers Paradise Cruise Terminal,"Under the Moorings Building, Cnr Cavill & Ferny Ave, Surfers Paradise, Queensland, Australia",-28.001446,153.426385,,2,Preloaded reseller,,,,,,,,,,Gold Coast,
1596,Published,Springfield Rail Station,"Springfield Station (future), Springfield Lakes, Queensland, Australia",-27.660548,152.921474,Ipswich,5,Rail fare machine,,,,,,,,,,Ipswich,
1601,Published,Springfield Central Rail Station,"Springfield Central, Brookwater, Queensland, Australia",-27.674276,152.902834,Ipswich,5,Rail fare machine,,,,,,,,,,Ipswich,
1606,Published,SPAR Express Marsden,"Cnr Third Avenue and Macarthy Road, Marsden",-27.674482,153.089572,Brisbane,2,Preloaded reseller,,,,,,,,,,Brisbane,
1611,Published,Lucky 7  View Convenience,Shop G38 - Corner of View Avenue and Surfers Paradise Boulevard,-27.997786,153.42889,Gold Coast,2,Preloaded reseller,Shop G38 - Corner of View Avenue and Surfers Paradise Boulevard,,,,,,,,,Gold Coast,
1616,Published,Landsborough Newsagency,"1/1 Maleny Street, Landsborough, Queensland, Australia",-26.808765,152.964943,Sunshine Coast,2,Preloaded reseller,,,,,,,,,,Sunshine Coast,
1621,Published,7-Eleven Deception Bay,"1 Baylink Avenue, Deception Bay, QLD, 4508, Australia",-27.196441,153.014624,Brisbane,1,Standard retailer,,,,,,,,,,Brisbane,
1626,Draft,7-Eleven Kingston South,"2 Juers Street, Kingston, Queensland, Australia",-27.660196,153.11775,South East Queensland,1,Standard retailer,,,,,,,,,,South East Queensland,
1631,Published,Earls Court Serviced Apartments,"131 Nerang Street, Southport, Queensland, Australia",-27.971204,153.407014,Gold Coast,2,Preloaded reseller,,,,,,,,,,Gold Coast,
1636,Published,Macgregor News,"342 McCullough Street, Macgregor, Queensland, Australia",-27.571407,153.065128,Brisbane,2,Preloaded reseller,,,,,,,,,,Brisbane,
1641,Published,7-Eleven Taigum,"377 Handford Road, Taigum, Queensland, Australia",-27.342044,153.041343,Brisbane,1,Standard retailer,,,,,,,,,,Brisbane,
1646,Published,7-Eleven Ormeau,"7 Eggersdorf Road, Ormeau, Queensland, Australia",-27.78611,153.258136,Brisbane,1,Standard retailer,,,,,,,,,,Brisbane,
1651,Published,Gasworks News,"The Gasworks, Skyring Terrace, Newstead, Queensland, Australia",-27.450247,153.044459,Brisbane,1,Standard retailer,,,,,,,,,,Brisbane,
1656,Published,Q Desk,"Q1 Building, 9 Hamilton Avenue, Surfers Paradise, Queensland, Australia",-28.006222,153.429523,Gold Coast,2,Preloaded reseller,,,,,,,,,,Gold Coast,
1661,Published,Narangba Licensed Post Office,"36 Main Street, Narangba, Queensland, Australia",-27.202777,152.959402,Brisbane,2,Preloaded reseller,,,,,,,,,,Brisbane,
1666,Published,Mountain View News,"967 Logan Road, Holland Park West, Queensland, Australia",-27.519645,153.061564,Brisbane,2,Preloaded reseller,,,,,,,,,,Brisbane,
1671,Published,Australia Post Office Coopers Plains,"896 Boundary Road, Coopers Plains, QLD, 4108, Australia",-27.569609,153.036245,Brisbane,2,Preloaded reseller,,,,,,,,,,Brisbane,
1676,Published,Nottingham Road News,"Shop 8, 2605 Beaudesert Road, Calamvale, Queensland, Australia",-27.630829,153.045734,Brisbane,1,Standard retailer,,,,,,,,,,Brisbane,
1681,Published,Morningside Central News,"Shop 11, 25 Junction Road, Morningside, Queensland, Australia",-27.466104,153.080204,Brisbane,1,Standard retailer,,,,,,,,,,Brisbane,
,,,,,,,,,,225,773,859,87,495,546,,,500,
,,7,,,,,,,,,,,,,,,,,
,,144,,,,,,,,,,,,,,,,,
